{"type":"FeatureCollection","crs":{"type":"name","properties":{"name":"EPSG:4326"}},"features":[{"type":"Feature","id":1,"geometry":{"type":"Polygon","coordinates":[[[-87.8057529448149,41.9088855142224],[-87.8021247598598,41.9089323590967],[-87.7755924707316,41.9092592273079],[-87.7755912478955,41.9092203389453],[-87.7749541884703,41.8889535917194],[-87.774138577937,41.8654561399334],[-87.8040799149851,41.865001763872],[-87.8041552307419,41.8650006111839],[-87.8041749578729,41.8650003089618],[-87.8042043764553,41.8649998586028],[-87.8042098728028,41.8651520737516],[-87.8042106190981,41.8651727641112],[-87.8042128203546,41.8652337222187],[-87.8042129511159,41.8652373431867],[-87.804213217858,41.8652447312786],[-87.8042147645294,41.8652875680764],[-87.8042156029658,41.8653107753467],[-87.8042169940897,41.8653493242066],[-87.8042175127215,41.8653636756474],[-87.8042190594543,41.8654065055838],[-87.8042198603987,41.8654286945604],[-87.8042210408839,41.8654613999189],[-87.8042218329373,41.8654833315798],[-87.8042233057334,41.8655241091542],[-87.8042238241979,41.8655384811756],[-87.8042254105244,41.8655824096833],[-87.8042254389121,41.8655831967307],[-87.8042261921467,41.8656040483459],[-87.8042273315605,41.865635613274],[-87.8042283687021,41.8656643319328],[-87.8042295067121,41.8656958447131],[-87.8042302785211,41.8657172267418],[-87.8042316675742,41.8657556946336],[-87.8042319641758,41.8657639143732],[-87.8042322883833,41.865772904691],[-87.8042337014849,41.8658120182803],[-87.8042345300325,41.8658349792056],[-87.8042360685218,41.8658775868154],[-87.8042365938938,41.8658921235233],[-87.8042386875123,41.8659501118374],[-87.8042390498233,41.8659601581845],[-87.8042411652536,41.8660187297537],[-87.8042417085083,41.8660337694293],[-87.8042436048294,41.866086299872],[-87.8042441645545,41.8661017910541],[-87.8042460520208,41.8661540600645],[-87.8042466079046,41.8661694606681],[-87.8042485192852,41.8662223918408],[-87.8042490528345,41.8662371618476],[-87.8042509722553,41.8662903427844],[-87.8042515379626,41.8663059993351],[-87.8042532056781,41.8663521942841],[-87.8042538760189,41.8663707451387],[-87.8042542025325,41.8663797903513],[-87.804255693942,41.8664210976468],[-87.8042562229716,41.8664357482569],[-87.8042577047428,41.8664767776513],[-87.8042578653365,41.866481233697],[-87.8042586208674,41.8665021429488],[-87.804259909777,41.8665378434738],[-87.8042606151125,41.8665573824225],[-87.8042624009326,41.8666068428966],[-87.8042627715866,41.866617102647],[-87.8042641972343,41.8666565908797],[-87.8042652209948,41.8666849321358],[-87.8042661662724,41.8667111036929],[-87.8042668864658,41.8667310673836],[-87.8042680246157,41.8667625671232],[-87.8042689555737,41.8667883605922],[-87.804269802925,41.8668118265437],[-87.8042704919259,41.866830898206],[-87.804271443062,41.8668572502245],[-87.8042717785572,41.866866542461],[-87.8042721193289,41.866875973993],[-87.8042724309864,41.8668845951482],[-87.804275289082,41.8669637513896],[-87.8042759122516,41.8669810115367],[-87.8042792277153,41.8670728250365],[-87.8042798119507,41.8670890188591],[-87.8042825453411,41.8671647112676],[-87.8042828509256,41.8671731787159],[-87.804283689359,41.8671963914667],[-87.8042865774371,41.8672763670031],[-87.8042869547064,41.8672868271138],[-87.8042873709177,41.8672983528625],[-87.804291152015,41.8674030486834],[-87.80429148675,41.8674123223917],[-87.8042935706997,41.8674700465102],[-87.8042950181604,41.8675101214225],[-87.8042955576791,41.8675250602253],[-87.8042980100205,41.8675929864513],[-87.8042993759569,41.8676308154971],[-87.8043028550245,41.8677271728608],[-87.8043039295796,41.8677569269527],[-87.804308120939,41.8678729858875],[-87.8043087298131,41.8678898665721],[-87.8043109118232,41.8679502839415],[-87.8043129039406,41.8680054568425],[-87.8043140897668,41.8680383035394],[-87.8043154498305,41.8680759562364],[-87.8043176459134,41.8681367832492],[-87.8043187885892,41.8681684071792],[-87.8043225949964,41.8682738289564],[-87.8043235463049,41.8683001645031],[-87.8043279774607,41.868422882103],[-87.8043285671182,41.8684392001243],[-87.804333270231,41.8685694574528],[-87.8043339965868,41.868589568669],[-87.8043376395542,41.8686904383321],[-87.8043390870281,41.8687305173519],[-87.8043409902476,41.8687832296075],[-87.8043417644383,41.8688046644621],[-87.804343074285,41.8688409523398],[-87.8043452181609,41.8689003239605],[-87.8043462449697,41.8689287482328],[-87.8043475832336,41.8689658204125],[-87.8043500917302,41.8690352966993],[-87.8043520265009,41.8690888598175],[-87.8043533813375,41.8691263718399],[-87.8043544446709,41.8691558219459],[-87.8043646524174,41.8694384898531],[-87.8043666251505,41.8694931288914],[-87.8043680008655,41.8695312275925],[-87.8043741614608,41.8697018184836],[-87.804377592169,41.8697968281571],[-87.8043795007818,41.8698496721516],[-87.804390980646,41.8701675547131],[-87.8043912040233,41.8701737495323],[-87.8043919102094,41.8701933049375],[-87.8043977838889,41.8703559574063],[-87.8044021069202,41.8704756756742],[-87.8044046948087,41.8705473360507],[-87.804406222286,41.8705896327857],[-87.8044156561168,41.8708508746922],[-87.8044193941214,41.8709543833549],[-87.8044274829659,41.8711783678113],[-87.8044278565562,41.8711887222436],[-87.8044303316969,41.8712572522657],[-87.8044309721749,41.8712749824331],[-87.8044323239281,41.8713124326805],[-87.8044359447259,41.871412683361],[-87.8044371322299,41.8714455622902],[-87.8044419268605,41.8715783481155],[-87.8044512176912,41.871835588189],[-87.8044541920363,41.8719179474421],[-87.8044617511572,41.8721272695978],[-87.8044634093997,41.8721731975749],[-87.8044658233419,41.8722400286077],[-87.8044698753878,41.8723522256359],[-87.8044845769515,41.8727593084912],[-87.8044882164537,41.8728600909311],[-87.8044890108971,41.8728820856913],[-87.8044925121688,41.872979037882],[-87.8044942730196,41.8730277785015],[-87.8044985426222,41.8731459981005],[-87.8045058501731,41.8733483417784],[-87.8045074928132,41.8733938305923],[-87.8045099008482,41.8734604969275],[-87.8045153743536,41.8736120702652],[-87.8045187483423,41.8736839372951],[-87.804523298344,41.8738099093231],[-87.8045290675068,41.8739912125405],[-87.8045366084024,41.874200012438],[-87.8045424692198,41.8743622969978],[-87.804546829362,41.8744830259209],[-87.8045539137473,41.8746791774802],[-87.8045539279135,41.8746795747765],[-87.804558797831,41.874814413573],[-87.8045635294599,41.8749454289812],[-87.8045705325458,41.8751393154525],[-87.804574246297,41.8752421433468],[-87.8045784167328,41.8753576126972],[-87.8045809451077,41.87542762481],[-87.8045917972293,41.8757281007743],[-87.8045927569247,41.8757546668411],[-87.8045954243617,41.8758285256631],[-87.8045966172836,41.8758615438616],[-87.8045990343043,41.8759284757147],[-87.8046034432628,41.8760505433384],[-87.8046034702127,41.8760512830392],[-87.8046162097279,41.8764040100434],[-87.8046255950187,41.8766638566805],[-87.8046288320708,41.876753481799],[-87.8046379259514,41.8770052582826],[-87.8046388595169,41.8770311004257],[-87.8046446647671,41.8771918272809],[-87.8046639529123,41.8777258554053],[-87.8046682104202,41.8778437139774],[-87.8046834021865,41.8782643141315],[-87.8046924254436,41.8785141225901],[-87.8047041254098,41.8788380347857],[-87.8047056801155,41.8788810787049],[-87.8047109265109,41.8790263315159],[-87.8047121134631,41.8790591953032],[-87.8047247792798,41.8794098498621],[-87.8047330374123,41.8796384663645],[-87.8047489796073,41.8800798253087],[-87.8047535841219,41.8802072971743],[-87.8047728022261,41.8807393186322],[-87.8047764238687,41.8808395773761],[-87.8047785446083,41.8808982750456],[-87.80478743608,41.8811444342927],[-87.8047981052879,41.8814397910689],[-87.8048024970023,41.8815613562916],[-87.8048229953788,41.8821288275875],[-87.8048282274085,41.8822736507704],[-87.8048385986674,41.8825607514037],[-87.8048408121795,41.8826220174155],[-87.8048482993811,41.8828292998502],[-87.8048529387584,41.8829577069158],[-87.8048603595633,41.8831631394064],[-87.8048708064978,41.8834523390076],[-87.8048775113889,41.8836379293036],[-87.8049057006096,41.8844182284547],[-87.8049062253521,41.8844327616801],[-87.8049087469353,41.8845025582215],[-87.8049088784502,41.8845062073087],[-87.8049155812341,41.884691741988],[-87.8049210610216,41.8848434206961],[-87.8049436075407,41.8854675074225],[-87.8049495515739,41.8856320519205],[-87.8049744392507,41.8863209397089],[-87.8049832851278,41.8865657689122],[-87.804988711475,41.8867091466514],[-87.8049942284796,41.8867961716263],[-87.8049832429169,41.8867963124962],[-87.8049913512647,41.8870258075325],[-87.8049939065886,41.8870981035219],[-87.8057498783595,41.9088352949536],[-87.8057529448149,41.9088855142224]]]},"properties":{"FID":1,"COMMUNITYN":"OAK PARK","GOVERNMENT":"VILLAGE","AREAMILES":4.69621338,"STATEABBRE":"IL","COMMUNITYW":"http://www.oak-park.us/","Shape__Area":21979786.3359375,"Shape__Length":19823.147256309079}}]}