{"type":"FeatureCollection","name":"bikeways-oak-park","features":[{"type":"Feature","id":1,"geometry":{"type":"LineString","coordinates":[[-87.8053850047784,41.8978908447424],[-87.8038649288282,41.8978978536966],[-87.8023445114502,41.8979213126872],[-87.8010590893042,41.8979531842005],[-87.8007347831774,41.8979867542217],[-87.7992435606968,41.8979785516253],[-87.7977868969078,41.8980166630194],[-87.7962469795971,41.8980365596407],[-87.7947958023422,41.8980578466828],[-87.7929411429118,41.8980863387251],[-87.7923244262069,41.8981069842161],[-87.7910980162664,41.8981330151395],[-87.7898803077363,41.8981538827777],[-87.7882614582442,41.8981814540126],[-87.7866287433747,41.8982092389276],[-87.7850063661586,41.8982368240017],[-87.7834082849587,41.8982436511438]]},"properties":{"FID":1,"Shape_Leng":1.13363559077,"Segment_Na":"Augusta Street","ShortTerm":"Striped Bike Lane","MidTerm":"Raised Bike Lane","LongTerm":"Raised Bike Lane","Shape__Length":2447.415023675845}},{"type":"Feature","id":2,"geometry":{"type":"LineString","coordinates":[[-87.7976272563059,41.8943586315522],[-87.7961560539256,41.8943877647578],[-87.7946758009058,41.8944178466659],[-87.7928058012993,41.8944478466054],[-87.7912956558173,41.8944578511881],[-87.7897757997719,41.8944978478413],[-87.7881259749739,41.8945279266775],[-87.7865224341087,41.8945380435651],[-87.7848657983868,41.8945678477509],[-87.784836105447,41.8945682145338]]},"properties":{"FID":2,"Shape_Leng":0.659769613156,"Segment_Na":"Chicago Avenue","ShortTerm":"Protected Bike Lane","MidTerm":"Protected Bike Lane","LongTerm":"Protected Bike Lane","Shape__Length":1424.3002323005373}},{"type":"Feature","id":3,"geometry":{"type":"LineString","coordinates":[[-87.8029160861951,41.8753665409608],[-87.803577927983,41.8753582795125],[-87.8036257662932,41.8753734747018],[-87.8036646350193,41.8753975284087],[-87.8037090337615,41.8754591591738],[-87.8037153861314,41.8755212996342],[-87.8037238856272,41.8758534822066],[-87.8037406013221,41.8759158361154],[-87.8037935885564,41.8759789361944],[-87.8038648925649,41.8759977238126],[-87.8039134043946,41.8760061117809],[-87.8039866504948,41.8760140861365],[-87.8040644924254,41.8760147645266],[-87.8042682687551,41.8760023315517],[-87.8045190174932,41.8759889143561],[-87.8045957661186,41.8759848470383]]},"properties":{"FID":3,"Shape_Leng":0.122803155552,"Segment_Na":"Jackson Boulevard","ShortTerm":"Marked Shared Lane","MidTerm":"Marked Shared Lane","LongTerm":"Marked Shared Lane","Shape__Length":265.3593559283117}},{"type":"Feature","id":4,"geometry":{"type":"LineString","coordinates":[[-87.7890775604154,41.8716033666897],[-87.7890911066188,41.8718417276907],[-87.7890952575057,41.8720956004802],[-87.7891119322363,41.8724473681954],[-87.7891123793291,41.8725624809977]]},"properties":{"FID":4,"Shape_Leng":0.0662256923072,"Segment_Na":"East Avenue","ShortTerm":"Protected Bike Lane","MidTerm":"Protected Bike Lane","LongTerm":"Protected Bike Lane","Shape__Length":143.45032628008937}},{"type":"Feature","id":5,"geometry":{"type":"LineString","coordinates":[[-87.8056187303303,41.9052629287633],[-87.8051627536701,41.9052557690314],[-87.8040432488529,41.9052290239228]]},"properties":{"FID":5,"Shape_Leng":0.0812621099206,"Segment_Na":"Greenfield Street","ShortTerm":"NA","MidTerm":"Marked Shared Lane","LongTerm":"Marked Shared Lane","Shape__Length":175.4572793509121}},{"type":"Feature","id":6,"geometry":{"type":"LineString","coordinates":[[-87.7946758009058,41.8944178466659],[-87.7950582224231,41.9090194162479]]},"properties":{"FID":6,"Shape_Leng":1.00794024489,"Segment_Na":"Oak Park Avenue","ShortTerm":"NA","MidTerm":"Buffered Bike Lane","LongTerm":"Buffered Bike Lane","Shape__Length":2184.2894454488583}},{"type":"Feature","id":7,"geometry":{"type":"LineString","coordinates":[[-87.7846580781848,41.8869404129693],[-87.7879096435846,41.8869659445947],[-87.7879096891287,41.8869676115267]]},"properties":{"FID":7,"Shape_Leng":0.167814060452,"Segment_Na":"South Boulevard","ShortTerm":"NA","MidTerm":"NA","LongTerm":"Protected Bike Lane","Shape__Length":362.23204511822433}},{"type":"Feature","id":8,"geometry":{"type":"LineString","coordinates":[[-87.7970852784689,41.8868682108054],[-87.8002136585885,41.886813942983]]},"properties":{"FID":8,"Shape_Leng":0.16138038853,"Segment_Na":"South Boulevard","ShortTerm":"Striped Bike Lane","MidTerm":"Striped Bike Lane","LongTerm":"Protected Bike Lane","Shape__Length":348.34420962151836}},{"type":"Feature","id":9,"geometry":{"type":"LineString","coordinates":[[-87.8051136998228,41.8905426412978],[-87.8042296645085,41.8905579469616],[-87.8042696642834,41.8918379485751]]},"properties":{"FID":9,"Shape_Leng":0.133965982494,"Segment_Na":"Harlem Court - Onatrio Street","ShortTerm":"NA","MidTerm":"Marked Shared Lane","LongTerm":"Marked Shared Lane","Shape__Length":289.8998575593456}},{"type":"Feature","id":10,"geometry":{"type":"LineString","coordinates":[[-87.7752662871638,41.8983679278542],[-87.77640074231,41.8983663113351]]},"properties":{"FID":10,"Shape_Leng":0.0584958697328,"Segment_Na":"Augusta Street","ShortTerm":"Marked Shared Lane","MidTerm":"Marked Shared Lane","LongTerm":"Raised Bike Lane","Shape__Length":126.28720060863846}},{"type":"Feature","id":11,"geometry":{"type":"LineString","coordinates":[[-87.8006176075551,41.8871825631274],[-87.7954106893298,41.8872529822583]]},"properties":{"FID":11,"Shape_Leng":0.268573770613,"Segment_Na":"North Boulevard","ShortTerm":"Striped Bike Lane","MidTerm":"Striped Bike Lane","LongTerm":"NA","Shape__Length":579.7271217050233}},{"type":"Feature","id":12,"geometry":{"type":"LineString","coordinates":[[-87.8002136585886,41.8868139429829],[-87.8006696592875,41.8872219442436]]},"properties":{"FID":12,"Shape_Leng":0.0366872163937,"Segment_Na":"Between North and South Blvd","ShortTerm":"Protected Bike Lane","MidTerm":"Protected Bike Lane","LongTerm":"Protected Bike Lane","Shape__Length":79.36487027899669}},{"type":"Feature","id":13,"geometry":{"type":"LineString","coordinates":[[-87.804138768229,41.9070748969128],[-87.7757408889551,41.9074869367447]]},"properties":{"FID":13,"Shape_Leng":1.46434673628,"Segment_Na":"LeMoyne Parkway","ShortTerm":"Greenway","MidTerm":"Greenway","LongTerm":"Greenway","Shape__Length":3161.8381940679024}},{"type":"Feature","id":14,"geometry":{"type":"LineString","coordinates":[[-87.8054811222852,41.9015547658894],[-87.7848777098848,41.9018647005142]]},"properties":{"FID":14,"Shape_Leng":1.06252910283,"Segment_Na":"Division Street","ShortTerm":"Striped Bike Lane","MidTerm":"Raised Bike Lane","LongTerm":"Raised Bike Lane","Shape__Length":2294.0297713829523}},{"type":"Feature","id":15,"geometry":{"type":"LineString","coordinates":[[-87.7833678080693,41.9091634382942],[-87.7832606406667,41.9059459654285],[-87.7834731400992,41.9056459645747],[-87.7841731408871,41.9038084628486],[-87.7841976407128,41.903517962033],[-87.7841975590026,41.9018882477228],[-87.7848590554288,41.9018784446215],[-87.7850857455118,41.9013057981669],[-87.7851028434384,41.9010991740269],[-87.7850507618767,41.899873158178],[-87.7848657983867,41.8945678477509],[-87.7847896408836,41.8914219493321],[-87.7840229658142,41.8653061385822]]},"properties":{"FID":15,"Shape_Leng":3.07052310248,"Segment_Na":"Ridgeland Avenue","ShortTerm":"Marked Shared Lane","MidTerm":"Marked Shared Lane","LongTerm":"Buffered Bike Lane","Shape__Length":6652.174829404666}},{"type":"Feature","id":16,"geometry":{"type":"LineString","coordinates":[[-87.7895976456802,41.8884859455249],[-87.7879496439155,41.8884299462517]]},"properties":{"FID":16,"Shape_Leng":0.0850765659396,"Segment_Na":"Lake Street","ShortTerm":"Marked Shared Lane","MidTerm":"Protected Bike Lane","LongTerm":"Protected Bike Lane","Shape__Length":183.6457271516686}},{"type":"Feature","id":17,"geometry":{"type":"LineString","coordinates":[[-87.7942755394041,41.8797190082609],[-87.7930033180384,41.8797126225846],[-87.7918047199003,41.8797164134585],[-87.7909960383046,41.8797397201966],[-87.790553927667,41.8797524601579],[-87.789341705976,41.8797797625398],[-87.7881303904031,41.8798215276477],[-87.7877126419881,41.8798224094585],[-87.7868894908981,41.8798445957374],[-87.7856837877122,41.8798609855564],[-87.7844361950216,41.8798686164482],[-87.7832177802032,41.8798909627224],[-87.7820127912632,41.8799224485887],[-87.7807977497905,41.8799426218524],[-87.7795377609099,41.879938351685],[-87.7782998802156,41.8799697687195],[-87.7779224479239,41.8799739762628],[-87.7771072976223,41.8799830590228],[-87.7755794990633,41.8800107922162],[-87.7746709971403,41.8800133008342]]},"properties":{"FID":17,"Shape_Leng":1.01148257013,"Segment_Na":"Madison St","ShortTerm":"Protected Bike Lane","MidTerm":"Protected Bike Lane","LongTerm":"Protected Bike Lane","Shape__Length":2183.074790523484}},{"type":"Feature","id":18,"geometry":{"type":"LineString","coordinates":[[-87.8047358021854,41.8796678434239],[-87.8038458026448,41.8796078438317],[-87.8023079116779,41.8796275156282],[-87.7983660081296,41.8797078579812],[-87.7969158003381,41.8797280199378],[-87.795585846112,41.879747886707],[-87.7954057996918,41.8797578440241],[-87.7942755394041,41.8797190082609]]},"properties":{"FID":18,"Shape_Leng":0.539904419606,"Segment_Na":"Madison Street","ShortTerm":"Striped Bike Lane","MidTerm":"Striped Bike Lane","LongTerm":"Striped Bike Lane","Shape__Length":1165.2731306103449}},{"type":"Feature","id":19,"geometry":{"type":"LineString","coordinates":[[-87.7960902776601,41.8754739510173],[-87.795301473428,41.8754861088298],[-87.7953291827352,41.8760989265487],[-87.7941069202184,41.8761173116847]]},"properties":{"FID":19,"Shape_Leng":0.146072415075,"Segment_Na":"Jackson Boulevard","ShortTerm":"Marked Shared Lane","MidTerm":"Marked Shared Lane","LongTerm":"Marked Shared Lane","Shape__Length":315.5879136925764}},{"type":"Feature","id":20,"geometry":{"type":"LineString","coordinates":[[-87.7941069202184,41.8761173116847],[-87.7929006139562,41.8761354428779]]},"properties":{"FID":20,"Shape_Leng":0.0622346707892,"Segment_Na":"Jackson Boulevard","ShortTerm":"Striped Bike Lane","MidTerm":"Striped Bike Lane","LongTerm":"Protected Bike Lane","Shape__Length":134.3127551872475}},{"type":"Feature","id":21,"geometry":{"type":"LineString","coordinates":[[-87.7929006139562,41.8761354428779],[-87.7843659776641,41.8762744703941]]},"properties":{"FID":21,"Shape_Leng":0.44032650032,"Segment_Na":"Jackson Boulevard","ShortTerm":"Protected BIke Lane","MidTerm":"Protected Bike Lane","LongTerm":"Protected Bike Lane","Shape__Length":950.298704508124}},{"type":"Feature","id":22,"geometry":{"type":"LineString","coordinates":[[-87.7843659776641,41.8762744703941],[-87.7818614773667,41.8763115427016]]},"properties":{"FID":22,"Shape_Leng":0.129208935065,"Segment_Na":"Jackson Boulevard","ShortTerm":"Marked Shared Lane","MidTerm":"Marked Shared Lane","LongTerm":"Protected Bike Lane","Shape__Length":278.854784228544}},{"type":"Feature","id":23,"geometry":{"type":"LineString","coordinates":[[-87.7818614773667,41.8763115427016],[-87.7794546897838,41.8763398319687]]},"properties":{"FID":23,"Shape_Leng":0.124158837949,"Segment_Na":"Jackson Boulevard","ShortTerm":"Protected Bike Lane","MidTerm":"Protected Bike Lane","LongTerm":"Protected Bike Lane","Shape__Length":267.95574833478463}},{"type":"Feature","id":24,"geometry":{"type":"LineString","coordinates":[[-87.7794546897838,41.8763398319687],[-87.7745253423047,41.8763976154297]]},"properties":{"FID":24,"Shape_Leng":0.254289764978,"Segment_Na":"Jackson Boulevard","ShortTerm":"Striped Bike Lane","MidTerm":"Striped Bike Lane","LongTerm":"Protected Bike Lane","Shape__Length":548.800450098772}},{"type":"Feature","id":25,"geometry":{"type":"LineString","coordinates":[[-87.803483967693,41.8686387916146],[-87.7970997011823,41.8687602054802]]},"properties":{"FID":25,"Shape_Leng":0.329449268885,"Segment_Na":"Harvard Street","ShortTerm":"Striped Bike Lane","MidTerm":"Striped Bike Lane","LongTerm":"Raised Bike Lane","Shape__Length":710.9250156832223}},{"type":"Feature","id":26,"geometry":{"type":"LineString","coordinates":[[-87.7840957952085,41.8689678435211],[-87.7828198274286,41.8689873418366]]},"properties":{"FID":26,"Shape_Leng":0.0658364270197,"Segment_Na":"Harvard Street","ShortTerm":"Marked Shared Lane","MidTerm":"Marked Shared Lane","LongTerm":"Raised Bike Lane","Shape__Length":142.0699868083906}},{"type":"Feature","id":27,"geometry":{"type":"LineString","coordinates":[[-87.7828062298087,41.8689875495481],[-87.7754621453833,41.869099499442]]},"properties":{"FID":27,"Shape_Leng":0.378933925966,"Segment_Na":"Harvard Street","ShortTerm":"Striped Bike Lane","MidTerm":"Striped Bike Lane","LongTerm":"Raised Bike Lane","Shape__Length":817.711006124511}},{"type":"Feature","id":28,"geometry":{"type":"LineString","coordinates":[[-87.7951858472336,41.8687959856995],[-87.7901602681462,41.8688739977889]]},"properties":{"FID":28,"Shape_Leng":0.259308137612,"Segment_Na":"Harvard Street","ShortTerm":"Striped Bike Lane","MidTerm":"Striped Bike Lane","LongTerm":"Raised Bike Lane","Shape__Length":559.5664391694713}},{"type":"Feature","id":29,"geometry":{"type":"LineString","coordinates":[[-87.8034309857108,41.8753605529304],[-87.803577927983,41.8753582795125],[-87.8036257662932,41.8753734747018],[-87.8036646350193,41.8753975284087],[-87.8037090337615,41.8754591591738],[-87.8037153861314,41.8755212996342],[-87.8037238856272,41.8758534822066],[-87.8037406013221,41.8759158361153],[-87.8037935885564,41.8759789361944],[-87.8038648925649,41.8759977238126],[-87.8039134043946,41.8760061117809],[-87.8039866504948,41.8760140861365],[-87.8040644924254,41.8760147645265],[-87.8042682687551,41.8760023315517],[-87.8045190174932,41.8759889143561],[-87.8045957661186,41.8759848470383]]},"properties":{"FID":29,"Shape_Leng":0.0962408619406,"Segment_Na":"Jackson Boulevard","ShortTerm":"Marked Shared Lane","MidTerm":"Marked Shared Lane","LongTerm":"Marked Shared Lane","Shape__Length":208.03418273683397}},{"type":"Feature","id":30,"geometry":{"type":"LineString","coordinates":[[-87.8029273473214,41.875358227991],[-87.7960902776601,41.8754739510173]]},"properties":{"FID":30,"Shape_Leng":0.352754794641,"Segment_Na":"Jackson Boulevard","ShortTerm":"Striped Bike Lane","MidTerm":"Striped Bike Lane","LongTerm":"Striped Bike Lane","Shape__Length":761.295725627318}},{"type":"Feature","id":31,"geometry":{"type":"LineString","coordinates":[[-87.8002134645989,41.8899204146934],[-87.8002731589296,41.8919209488796]]},"properties":{"FID":31,"Shape_Leng":0.138103598635,"Segment_Na":"Forest Avenue","ShortTerm":"Marked Shared Lane","MidTerm":"Marked Shared Lane","LongTerm":"Marked Shared Lane","Shape__Length":299.23184437595177}},{"type":"Feature","id":32,"geometry":{"type":"LineString","coordinates":[[-87.8006696592875,41.8872219442436],[-87.8007496600251,41.8873979442184],[-87.8007718425384,41.8882781877295],[-87.8007489045519,41.8886517441676],[-87.8007282283354,41.8886524337781]]},"properties":{"FID":32,"Shape_Leng":0.100466108431,"Segment_Na":"Forest Place","ShortTerm":"Marked Shared Lane","MidTerm":"Marked Shared Lane","LongTerm":"Protected Bike Lane","Shape__Length":217.6524282675531}},{"type":"Feature","id":33,"geometry":{"type":"LineString","coordinates":[[-87.8001731590118,41.8886709455201],[-87.8002093967964,41.8898486777429]]},"properties":{"FID":33,"Shape_Leng":0.0813040702088,"Segment_Na":"Forest Avenue","ShortTerm":"Striped Bike Lane","MidTerm":"Striped Bike Lane","LongTerm":"Striped Bike Lane","Shape__Length":176.1586131845994}},{"type":"Feature","id":34,"geometry":{"type":"LineString","coordinates":[[-87.7817710878372,41.8982629647555],[-87.7817483882061,41.8982632355323],[-87.780115063117,41.8982827065832],[-87.7788956452893,41.8983045866186],[-87.7785101696559,41.8983105866083],[-87.7776989531326,41.8983199848771],[-87.7772361213235,41.898353156104],[-87.777057571949,41.8983524962824],[-87.776435500682,41.8983698329346]]},"properties":{"FID":34,"Shape_Leng":0.275288690703,"Segment_Na":"Augusta Street","ShortTerm":"Marked Shared Lane","MidTerm":"Raised Bike Lane","LongTerm":"Raised Bike Lane","Shape__Length":594.3253004455314}},{"type":"Feature","id":35,"geometry":{"type":"LineString","coordinates":[[-87.7834082849587,41.8982436511438],[-87.7833786103222,41.8982437777061],[-87.7817710878372,41.8982629647555]]},"properties":{"FID":35,"Shape_Leng":0.0844292811059,"Segment_Na":"Augusta Street","ShortTerm":"Marked Shared Lane","MidTerm":"Marked Shared Lane","LongTerm":"Protected Bike Lane","Shape__Length":182.27501003069574}},{"type":"Feature","id":36,"geometry":{"type":"LineString","coordinates":[[-87.8052258044473,41.8942278465752],[-87.8032358035742,41.8942378469172],[-87.8028164534391,41.8942459113768],[-87.8019258035105,41.8942778466037],[-87.800585802763,41.8943078469335],[-87.7991458019943,41.8943378463764],[-87.7976657294932,41.8943578694409],[-87.7976272563059,41.8943586315522]]},"properties":{"FID":36,"Shape_Leng":0.391962381603,"Segment_Na":"Chicago Avenue","ShortTerm":"Marked Shared Lane","MidTerm":"Marked Shared Lane","LongTerm":"Protected Bike Lane","Shape__Length":846.1610354867187}},{"type":"Feature","id":37,"geometry":{"type":"LineString","coordinates":[[-87.7767541667443,41.8946892298358],[-87.7764649836545,41.8946772540842],[-87.7751557944677,41.8947178479212],[-87.7751353896487,41.8947181313834]]},"properties":{"FID":37,"Shape_Leng":0.0835547528706,"Segment_Na":"Chicago Avenue","ShortTerm":"Marked Shared Lane","MidTerm":"Marked Shared Lane","LongTerm":"Protected Bike Lane","Shape__Length":180.37800082346928}},{"type":"Feature","id":38,"geometry":{"type":"LineString","coordinates":[[-87.784836105447,41.8945682145338],[-87.7832613607614,41.8945876556047],[-87.7816566350018,41.8946176452881]]},"properties":{"FID":38,"Shape_Leng":0.1639891329,"Segment_Na":"Chicago Avenue","ShortTerm":"Striped Bike Lane","MidTerm":"Protected Bike Lane","LongTerm":"Protected Bike Lane","Shape__Length":354.0174289957709}},{"type":"Feature","id":39,"geometry":{"type":"LineString","coordinates":[[-87.7816566350017,41.8946176452881],[-87.7816457971855,41.8946178477527],[-87.7799857974944,41.8946278478967],[-87.7783858062417,41.8946671122365],[-87.7769566389372,41.8946894272293],[-87.776760375645,41.8946869478303]]},"properties":{"FID":39,"Shape_Leng":0.252544732453,"Segment_Na":"Chicago Avenue","ShortTerm":"Striped Bike Lane","MidTerm":"Striped Bike Lane","LongTerm":"Protected Bike Lane","Shape__Length":545.190437483523}},{"type":"Feature","id":40,"geometry":{"type":"LineString","coordinates":[[-87.8027417827856,41.8918713559272],[-87.8027058786857,41.8918721535612],[-87.8018116348294,41.8918635551136],[-87.8002725035816,41.8918979491898],[-87.8002698758966,41.8920594908831],[-87.8000479933569,41.8920313153388],[-87.799812023037,41.8920031397951],[-87.7995321372846,41.8920502611395],[-87.7992690697704,41.8920674783381],[-87.7991319849741,41.8920581033822],[-87.7990242502975,41.8920251167224],[-87.7987959206917,41.8918853901911],[-87.7986543335685,41.8918641419405],[-87.7982203969388,41.891911512707],[-87.7978324251254,41.8919210511421],[-87.7976143231507,41.8919291110969]]},"properties":{"FID":40,"Shape_Leng":0.280530113086,"Segment_Na":"Erie Street","ShortTerm":"Greenway","MidTerm":"Greenway","LongTerm":"Greenway","Shape__Length":605.7447797643995}},{"type":"Feature","id":41,"geometry":{"type":"LineString","coordinates":[[-87.7880368400376,41.8916829874343],[-87.7843222886422,41.8917259801295],[-87.7799834724902,41.8917706925591],[-87.7782964608226,41.891792704807]]},"properties":{"FID":41,"Shape_Leng":0.502351031716,"Segment_Na":"Erie Street","ShortTerm":"Greenway","MidTerm":"Greenway","LongTerm":"Greenway","Shape__Length":1084.4191577577353}},{"type":"Feature","id":42,"geometry":{"type":"LineString","coordinates":[[-87.7975780626575,41.8912747364256],[-87.7945888959445,41.8913390471664],[-87.7945974944638,41.8915454111072],[-87.7880884310303,41.891691585929]]},"properties":{"FID":42,"Shape_Leng":0.504272370586,"Segment_Na":"Erie Street","ShortTerm":"Greenway","MidTerm":"Greenway","LongTerm":"Greenway","Shape__Length":1088.681299258419}},{"type":"Feature","id":43,"geometry":{"type":"LineString","coordinates":[[-87.7970997011823,41.8687602054802],[-87.7951660213779,41.8687726864466]]},"properties":{"FID":43,"Shape_Leng":0.0997556444721,"Segment_Na":"Harvard Street","ShortTerm":"Marked Shared Lane","MidTerm":"Marked Shared Lane","LongTerm":"Raised Bike Lane","Shape__Length":215.26433675737226}},{"type":"Feature","id":44,"geometry":{"type":"LineString","coordinates":[[-87.7889990163916,41.8688919925945],[-87.7840957952085,41.8689678435211]]},"properties":{"FID":44,"Shape_Leng":0.252994149883,"Segment_Na":"Harvard Street","ShortTerm":"Striped Bike Lane","MidTerm":"Striped Bike Lane","LongTerm":"Raised Bike Lane","Shape__Length":545.9418466893137}},{"type":"Feature","id":45,"geometry":{"type":"LineString","coordinates":[[-87.7901602681462,41.8688739977889],[-87.7889990163916,41.8688919925945]]},"properties":{"FID":45,"Shape_Leng":0.0599178044353,"Segment_Na":"Harvard Street","ShortTerm":"Marked Shared Lane","MidTerm":"Marked Shared Lane","LongTerm":"Raised Bike Lane","Shape__Length":129.2979392856045}},{"type":"Feature","id":46,"geometry":{"type":"LineString","coordinates":[[-87.798900805261,41.8651112110645],[-87.7990267600632,41.8674413703063],[-87.7991107299083,41.8687638931185],[-87.7991317225064,41.8704642795962],[-87.7992366848385,41.8723745903259]]},"properties":{"FID":46,"Shape_Leng":0.501639097686,"Segment_Na":"Home Avenue","ShortTerm":"Greenway","MidTerm":"Greenway","LongTerm":"Greenway","Shape__Length":1086.5348141809031}},{"type":"Feature","id":47,"geometry":{"type":"LineString","coordinates":[[-87.7996355410863,41.8734871888638],[-87.7997668869428,41.8768244000231]]},"properties":{"FID":47,"Shape_Leng":0.230420666162,"Segment_Na":"Home Avenue","ShortTerm":"Greenway","MidTerm":"Greenway","LongTerm":"Greenway","Shape__Length":499.13458681826603}},{"type":"Feature","id":48,"geometry":{"type":"LineString","coordinates":[[-87.8037401561903,41.8760322534657],[-87.8037580910302,41.8767613193653],[-87.7953618757003,41.8769111386255],[-87.7953278942801,41.8762523988157],[-87.7953640013772,41.8761390228937],[-87.795353341355,41.8760659302895],[-87.7953342949366,41.8760356898339]]},"properties":{"FID":48,"Shape_Leng":0.544448491799,"Segment_Na":"Adams Street","ShortTerm":"Greenway","MidTerm":"Greenway","LongTerm":"Greenway","Shape__Length":1175.9117155794308}},{"type":"Feature","id":49,"geometry":{"type":"LineString","coordinates":[[-87.7972921265946,41.8768809589087],[-87.797389351887,41.8797219394116]]},"properties":{"FID":49,"Shape_Leng":0.196137443919,"Segment_Na":"Kenilworth Avenue","ShortTerm":"Greenway","MidTerm":"Greenway","LongTerm":"Greenway","Shape__Length":424.89158891535317}},{"type":"Feature","id":50,"geometry":{"type":"LineString","coordinates":[[-87.7969067717903,41.8797555332628],[-87.7970901794918,41.8854642473604],[-87.7971252299041,41.8872653000454],[-87.7971514170281,41.8887084013607],[-87.7975103614648,41.8887139940105],[-87.7975466233859,41.8901515581174],[-87.7975821691061,41.89126206635]]},"properties":{"FID":50,"Shape_Leng":0.812441139704,"Segment_Na":"Kenilworth Avenue","ShortTerm":"Greenway","MidTerm":"Greenway","LongTerm":"Greenway","Shape__Length":1760.0377684339942}},{"type":"Feature","id":51,"geometry":{"type":"LineString","coordinates":[[-87.7975782849632,41.8919395311373],[-87.7976832474215,41.8951093874066],[-87.7978092024596,41.8997906983223],[-87.7978923326655,41.9016884135974],[-87.7979460734755,41.9036230755433],[-87.7980476773104,41.9084378982876]]},"properties":{"FID":51,"Shape_Leng":1.13892920847,"Segment_Na":"Kenilworth Avenue","ShortTerm":" Greenway","MidTerm":"Greenway","LongTerm":"Greenway","Shape__Length":2468.0946151979724}},{"type":"Feature","id":52,"geometry":{"type":"LineString","coordinates":[[-87.804220290908,41.9083925543031],[-87.8040859390833,41.9055577371493],[-87.8040456334367,41.9037171212695],[-87.8038840965463,41.8986382014333],[-87.8038580781048,41.8979120821172]]},"properties":{"FID":52,"Shape_Leng":0.723580215266,"Segment_Na":"Marion Street","ShortTerm":"Greenway","MidTerm":"Greenway","LongTerm":"Greenway","Shape__Length":1568.0920838093257}},{"type":"Feature","id":53,"geometry":{"type":"LineString","coordinates":[[-87.8033470048438,41.8979131354617],[-87.8032395232508,41.8943125146181]]},"properties":{"FID":53,"Shape_Leng":0.248563152871,"Segment_Na":"Marion Street","ShortTerm":"Greenway","MidTerm":"Greenway","LongTerm":"Greenway","Shape__Length":538.6102248441152}},{"type":"Feature","id":54,"geometry":{"type":"LineString","coordinates":[[-87.8028373032524,41.8942593986222],[-87.8027295191183,41.8918567812875]]},"properties":{"FID":54,"Shape_Leng":0.165912688954,"Segment_Na":"Marion Street","ShortTerm":"Greenway","MidTerm":"Greenway","LongTerm":"Greenway","Shape__Length":359.4975027175674}},{"type":"Feature","id":55,"geometry":{"type":"LineString","coordinates":[[-87.787291996788,41.9085865252623],[-87.7871450493026,41.9037162825169],[-87.7867881780245,41.9037372749625],[-87.7866937240629,41.8998647698784]]},"properties":{"FID":55,"Shape_Leng":0.621979877831,"Segment_Na":"Elmwood Avenue","ShortTerm":"Greenway","MidTerm":"Greenway","LongTerm":"Greenway","Shape__Length":1347.7845752998446}},{"type":"Feature","id":56,"geometry":{"type":"LineString","coordinates":[[-87.7879408226282,41.8869612133531],[-87.7877574496289,41.879800147856]]},"properties":{"FID":56,"Shape_Leng":0.494319984211,"Segment_Na":"Scoville Avenue","ShortTerm":"Greenway","MidTerm":"Greenway","LongTerm":"Greenway","Shape__Length":1070.9273627303212}},{"type":"Feature","id":57,"geometry":{"type":"LineString","coordinates":[[-87.7881526834695,41.8798269020559],[-87.7879331525127,41.8744318486726]]},"properties":{"FID":57,"Shape_Leng":0.372517791624,"Segment_Na":"Scoville Avenue","ShortTerm":"Greenway","MidTerm":"Greenway","LongTerm":"Greenway","Shape__Length":806.9673435388898}},{"type":"Feature","id":58,"geometry":{"type":"LineString","coordinates":[[-87.7890785505623,41.8725240288403],[-87.7878515992564,41.8725456005686]]},"properties":{"FID":58,"Shape_Leng":0.0633080553123,"Segment_Na":"Garfield St to Harrison St","ShortTerm":"NA","MidTerm":"Protected Bike Lane","LongTerm":"Protected Bike Lane","Shape__Length":136.62166087116495}},{"type":"Feature","id":59,"geometry":{"type":"LineString","coordinates":[[-87.7879368807611,41.8743613141219],[-87.7878831399702,41.8726147443095]]},"properties":{"FID":59,"Shape_Leng":0.120573268559,"Segment_Na":"Scoville Avenue","ShortTerm":"NA","MidTerm":"Greenway","LongTerm":"Greenway","Shape__Length":261.1777272142731}},{"type":"Feature","id":60,"geometry":{"type":"LineString","coordinates":[[-87.7891191741428,41.8725878739357],[-87.7891654761522,41.8743549026179]]},"properties":{"FID":60,"Shape_Leng":0.121976759735,"Segment_Na":"East Avenue","ShortTerm":"Greenway","MidTerm":"NA","LongTerm":"NA","Shape__Length":264.2179802569509}},{"type":"Feature","id":61,"geometry":{"type":"LineString","coordinates":[[-87.7756904242087,41.8745963172368],[-87.7805835603253,41.8745143141064],[-87.7854780147211,41.874442320484],[-87.7909709290598,41.874340143568],[-87.7940265739103,41.8742893621502],[-87.7952656343247,41.8742645493128],[-87.7952185832422,41.8729441663414],[-87.7957890308288,41.8730224934327],[-87.7981072922997,41.8733738298511],[-87.7986279045303,41.8734745934652],[-87.7996019532026,41.8734913873514]]},"properties":{"FID":61,"Shape_Leng":1.33108421575,"Segment_Na":"Van Buren Street","ShortTerm":"Greenway","MidTerm":" Greenway","LongTerm":"Greenway","Shape__Length":2873.4076205326355}},{"type":"Feature","id":62,"geometry":{"type":"LineString","coordinates":[[-87.7890801973117,41.8715886370935],[-87.7890291164377,41.8707056930557]]},"properties":{"FID":62,"Shape_Leng":0.0609942462018,"Segment_Na":"East Avenue","ShortTerm":"Greenway","MidTerm":"Greenway","LongTerm":"Greenway","Shape__Length":132.1162175507679}},{"type":"Feature","id":63,"geometry":{"type":"LineString","coordinates":[[-87.7888776576734,41.8653141697992],[-87.7889136689811,41.8666206047193],[-87.7889317542271,41.8670652682551]]},"properties":{"FID":63,"Shape_Leng":0.120887098169,"Segment_Na":"East Avenue","ShortTerm":"Greenway","MidTerm":"Greenway","LongTerm":"Greenway","Shape__Length":261.8279638124935}},{"type":"Feature","id":64,"geometry":{"type":"LineString","coordinates":[[-87.7889291542642,41.8670719792444],[-87.7877139091311,41.8670876083007]]},"properties":{"FID":64,"Shape_Leng":0.0627013102997,"Segment_Na":"Fillmore Street","ShortTerm":"Greenway","MidTerm":"Greenway","LongTerm":"Greenway","Shape__Length":135.30064161537553}},{"type":"Feature","id":65,"geometry":{"type":"LineString","coordinates":[[-87.7878293991147,41.8702165696047],[-87.7877209132909,41.8670788955636]]},"properties":{"FID":65,"Shape_Leng":0.216622079217,"Segment_Na":"Scoville Avenue","ShortTerm":"Greenway","MidTerm":"Greenway","LongTerm":"Greenway","Shape__Length":469.19683589253015}},{"type":"Feature","id":66,"geometry":{"type":"LineString","coordinates":[[-87.8042536084321,41.8918377594845],[-87.8027417827856,41.8918713559272]]},"properties":{"FID":66,"Shape_Leng":0.0779962640451,"Segment_Na":"Erie Street","ShortTerm":"NA","MidTerm":"Greenway","LongTerm":"Greenway","Shape__Length":168.37063486382976}},{"type":"Feature","id":67,"geometry":{"type":"LineString","coordinates":[[-87.7976032678342,41.8919241524162],[-87.7975952781805,41.8917824930844],[-87.7975914092728,41.8914907344233],[-87.7975851078725,41.8912786461391]]},"properties":{"FID":67,"Shape_Leng":0.0445636846215,"Segment_Na":"Kenilworth Avenue","ShortTerm":"Greenway","MidTerm":"Greenway","LongTerm":"Greenway","Shape__Length":96.55799068531788}},{"type":"Feature","id":68,"geometry":{"type":"LineString","coordinates":[[-87.8039058890653,41.8997511145354],[-87.7948566103698,41.8998970981895]]},"properties":{"FID":68,"Shape_Leng":0.466703925092,"Segment_Na":"Thomas Street","ShortTerm":"Greenway","MidTerm":"Greenway","LongTerm":"Greenway","Shape__Length":1007.5976735885527}},{"type":"Feature","id":69,"geometry":{"type":"LineString","coordinates":[[-87.7948182566122,41.8997806863236],[-87.7801627904418,41.8999695636675],[-87.7801614977931,41.9001193373609],[-87.7765023528882,41.9001738916329]]},"properties":{"FID":69,"Shape_Leng":0.954817083392,"Segment_Na":"Thomas Street","ShortTerm":"Greenway","MidTerm":"Greenway","LongTerm":"Greenway","Shape__Length":2061.5001148092792}},{"type":"Feature","id":70,"geometry":{"type":"LineString","coordinates":[[-87.7795242360849,41.9085898912026],[-87.7794079488007,41.9058624532101],[-87.7791561217932,41.905871685971],[-87.7789948439864,41.9001624839734]]},"properties":{"FID":70,"Shape_Leng":0.595449607754,"Segment_Na":"Hayes Avenue","ShortTerm":"Greenway","MidTerm":"Greenway","LongTerm":"Greenway","Shape__Length":1290.3345831033107}},{"type":"Feature","id":71,"geometry":{"type":"LineString","coordinates":[[-87.7801764453564,41.8999722852799],[-87.780081567031,41.8983067069404]]},"properties":{"FID":71,"Shape_Leng":0.115056332716,"Segment_Na":"Lombard Street","ShortTerm":"Greenway","MidTerm":"Greenway","LongTerm":"Greenway","Shape__Length":249.32492054411483}},{"type":"Feature","id":72,"geometry":{"type":"LineString","coordinates":[[-87.7817428368789,41.8982330750302],[-87.7814135692274,41.8882570796487],[-87.7814140188799,41.888232387891],[-87.7810435474779,41.8882130782244],[-87.7810662948814,41.8875988678276],[-87.7810709651436,41.8875463532653],[-87.7811406114248,41.8874782566434],[-87.7814080344833,41.8874559838164],[-87.7814196442675,41.887092383562],[-87.7813753646083,41.8870386777963],[-87.7813474468938,41.8852791267736]]},"properties":{"FID":72,"Shape_Leng":0.92630476927,"Segment_Na":"Harvey Avenue","ShortTerm":"Greenway","MidTerm":"Greenway","LongTerm":"Greenway","Shape__Length":2006.7698406202903}},{"type":"Feature","id":73,"geometry":{"type":"LineString","coordinates":[[-87.7797809802227,41.8852360293897],[-87.7793591605084,41.8736390003196],[-87.7791816308947,41.869592728831],[-87.7790731129845,41.8659994730729]]},"properties":{"FID":73,"Shape_Leng":1.3281421468,"Segment_Na":"Lombard Avenue","ShortTerm":"Greenway","MidTerm":"Greenway","LongTerm":"Greenway","Shape__Length":2877.022457390319}},{"type":"Feature","id":74,"geometry":{"type":"LineString","coordinates":[[-87.799230284654,41.8724543137219],[-87.7992777090119,41.8734742464505]]},"properties":{"FID":74,"Shape_Leng":0.0704341717335,"Segment_Na":"Home Avenue","ShortTerm":"Bridge","MidTerm":"Bridge","LongTerm":"Bridge","Shape__Length":152.5683164752306}},{"type":"Feature","id":75,"geometry":{"type":"LineString","coordinates":[[-87.7883311334622,41.8998227849356],[-87.7882215403646,41.8971347371631],[-87.7881450817943,41.8945343429105]]},"properties":{"FID":75,"Shape_Leng":0.365118361719,"Segment_Na":"Fair Oaks Avenue","ShortTerm":"Greenway","MidTerm":"Greenway","LongTerm":"Greenway","Shape__Length":791.1844634334038}},{"type":"Feature","id":76,"geometry":{"type":"LineString","coordinates":[[-87.7841933800895,41.9018870962783],[-87.7753903839639,41.9019884714794]]},"properties":{"FID":76,"Shape_Leng":0.453936212009,"Segment_Na":"Division Street","ShortTerm":"Striped Bike Lane","MidTerm":"Raised Bike Lane","LongTerm":"Raised Bike Lane","Shape__Length":980.0623372496004}},{"type":"Feature","id":77,"geometry":{"type":"LineString","coordinates":[[-87.8040857875084,41.8854219239246],[-87.8025104795068,41.8854740898631],[-87.8025084131717,41.8857237142385],[-87.8001061140741,41.8857482469387],[-87.8000770105792,41.8854220764022],[-87.7970988083994,41.8854633741559]]},"properties":{"FID":77,"Shape_Leng":0.398639609496,"Segment_Na":"Pleasant Street","ShortTerm":"Greenway","MidTerm":"Greenway","LongTerm":"Greenway","Shape__Length":860.7780580933411}},{"type":"Feature","id":78,"geometry":{"type":"LineString","coordinates":[[-87.7970413820958,41.8851489510801],[-87.7944180624865,41.8851846133232],[-87.7944033514591,41.8850422117306],[-87.7764837974272,41.8854181683051]]},"properties":{"FID":78,"Shape_Leng":1.06970946579,"Segment_Na":"Pleasant Street","ShortTerm":"Greenway","MidTerm":"Greenway","LongTerm":"Greenway","Shape__Length":2309.01840543307}},{"type":"Feature","id":79,"geometry":{"type":"LineString","coordinates":[[-87.8023966129697,41.8871794416574],[-87.8025305109123,41.8867286923949],[-87.8025221258635,41.8857452607843]]},"properties":{"FID":79,"Shape_Leng":0.0997401983328,"Segment_Na":"Marion Street","ShortTerm":"Marked Shared Lane","MidTerm":"Marked Shared Lane","LongTerm":"Marked Shared Lane","Shape__Length":216.08256929364467}},{"type":"Feature","id":80,"geometry":{"type":"LineString","coordinates":[[-87.7881450817943,41.8945343429105],[-87.7880651357458,41.8918151515467],[-87.7879630532905,41.8884362397638]]},"properties":{"FID":80,"Shape_Leng":0.420973159167,"Segment_Na":"Scoville Avenue","ShortTerm":"Greenway","MidTerm":"Greenway","LongTerm":"Greenway","Shape__Length":912.1379661043968}},{"type":"Feature","id":81,"geometry":{"type":"LineString","coordinates":[[-87.7879784733553,41.8884313880848],[-87.7879408226282,41.8869612133531]]},"properties":{"FID":81,"Shape_Leng":0.10148452058,"Segment_Na":"Scoville Avenue","ShortTerm":"Greenway","MidTerm":"Protected Bike Lane","LongTerm":"Protected Bike Lane","Shape__Length":219.87743635893136}},{"type":"Feature","id":82,"geometry":{"type":"LineString","coordinates":[[-87.8023784249924,41.8871871134439],[-87.8022602528913,41.8872257066907],[-87.8007541328619,41.8872529789859]]},"properties":{"FID":82,"Shape_Leng":0.0843469484474,"Segment_Na":"North Boulevard","ShortTerm":"NA","MidTerm":"NA","LongTerm":"Protected Bike Lane","Shape__Length":182.07510042993096}},{"type":"Feature","id":83,"geometry":{"type":"LineString","coordinates":[[-87.7944926706752,41.8869131199559],[-87.7970852784689,41.8868682108054]]},"properties":{"FID":83,"Shape_Leng":0.133741904316,"Segment_Na":"South Boulevard","ShortTerm":"Striped Bike Lane","MidTerm":"Striped Bike Lane","LongTerm":"NA","Shape__Length":288.68589318445976}},{"type":"Feature","id":84,"geometry":{"type":"LineString","coordinates":[[-87.8007282283354,41.8886524337781],[-87.8001731590118,41.8886709455201]]},"properties":{"FID":84,"Shape_Leng":0.0286537328564,"Segment_Na":"Lake Street","ShortTerm":"Marked Shared Lane","MidTerm":"Marked Shared Lane","LongTerm":"Marked Shared Lane","Shape__Length":61.85200811425013}},{"type":"Feature","id":85,"geometry":{"type":"LineString","coordinates":[[-87.7890248259237,41.8707147196806],[-87.7883017233031,41.8707169444946],[-87.7882826671979,41.8702275708996],[-87.7878365601689,41.8702117942088]]},"properties":{"FID":85,"Shape_Leng":0.0941289040528,"Segment_Na":"Path","ShortTerm":"Path","MidTerm":"Path","LongTerm":"Path","Shape__Length":203.40029644119915}}]}
