{"type":"FeatureCollection","crs":{"type":"name","properties":{"name":"EPSG:4326"}},"features":[{"type":"Feature","id":1,"geometry":{"type":"Polygon","coordinates":[[[-87.805717,41.908777],[-87.79035,41.90896],[-87.7900099999999,41.8994500000001],[-87.7899136129999,41.896273466],[-87.80526,41.8961100000001],[-87.805717,41.908777]]]},"properties":{"OBJECTID":1,"PopupInfo":"Mann Elementary","Name":"Mann Elementary School Attendance Boundaries","Shape__Area":3243887,"Shape__Length":7212.733563375174}},{"type":"Feature","id":2,"geometry":{"type":"Polygon","coordinates":[[[-87.7902799999999,41.9090100000001],[-87.775719,41.90916],[-87.775437803,41.9020545600001],[-87.790094779,41.901821559],[-87.7902799999999,41.9090100000001]]]},"properties":{"OBJECTID":2,"PopupInfo":"Hatch Elementary","Name":"Hatch Elementary School Attendance Boundaries","Shape__Area":1739206.58203125,"Shape__Length":5391.698460919444}},{"type":"Feature","id":3,"geometry":{"type":"Polygon","coordinates":[[[-87.77828,41.89315],[-87.7898131709999,41.8930399050001],[-87.790094779,41.901821559],[-87.775437803,41.9020545600001],[-87.77511,41.89469],[-87.7783199999999,41.8946500000001],[-87.77828,41.89315]]]},"properties":{"OBJECTID":3,"PopupInfo":"Whittier Elementary","Name":"Whittier Elementary School Attendance Boundaries","Shape__Area":2082685.1640625,"Shape__Length":5913.431226060181}},{"type":"Feature","id":4,"geometry":{"type":"Polygon","coordinates":[[[-87.789431,41.881672],[-87.80488,41.8814800000001],[-87.80524,41.8961],[-87.7899136129999,41.896273466],[-87.78977,41.89165],[-87.789431,41.881672]]]},"properties":{"OBJECTID":4,"PopupInfo":"Holmes Elementary","Name":"Holmes Elementary School Attendance Boundaries","Shape__Area":3742625.28515625,"Shape__Length":7796.978240994532}},{"type":"Feature","id":5,"geometry":{"type":"Polygon","coordinates":[[[-87.7747209999999,41.882071],[-87.77897,41.8820070000001],[-87.7794713319999,41.88192365],[-87.78,41.8818150000001],[-87.781062,41.881783],[-87.7822419999999,41.881767],[-87.784688,41.88172],[-87.7870599999999,41.8816640000001],[-87.789431,41.881672],[-87.7898131709999,41.8930399050001],[-87.7782499999999,41.8931400000001],[-87.7783199999999,41.8946500000001],[-87.77511,41.89469],[-87.7747209999999,41.882071]]]},"properties":{"OBJECTID":5,"PopupInfo":"Beye Elementary","Name":"Beye Elementary School Attendance Boundaries","Shape__Area":2847308.80859375,"Shape__Length":7099.993608441586}},{"type":"Feature","id":6,"geometry":{"type":"Polygon","coordinates":[[[-87.80485,41.8814800000001],[-87.791056585,41.8816518950001],[-87.7909759999999,41.8797860000001],[-87.7917899999999,41.8798],[-87.791727,41.877981],[-87.79301,41.8780100000001],[-87.79252,41.86521],[-87.8042299999999,41.8650200000001],[-87.80485,41.8814800000001]]]},"properties":{"OBJECTID":6,"PopupInfo":"Lincoln Elementary","Name":"Lincoln Elementary Attendance Boundaries","Shape__Area":3306869.52734375,"Shape__Length":8000.252873632055}},{"type":"Feature","id":7,"geometry":{"type":"Polygon","coordinates":[[[-87.7925,41.8652500000001],[-87.7927999999999,41.8726],[-87.7890599999999,41.8724500000001],[-87.7793,41.8715300000001],[-87.779367,41.8727250000001],[-87.77804,41.8727400000001],[-87.77814,41.87451],[-87.77445,41.87464],[-87.7740899999999,41.8655000000001],[-87.7925,41.8652500000001]]]},"properties":{"OBJECTID":7,"PopupInfo":"Irving","Name":"Irving Attendance Boundaries","Shape__Area":2235918.671875,"Shape__Length":7030.605291545144}},{"type":"Feature","id":8,"geometry":{"type":"Polygon","coordinates":[[[-87.791056585,41.8816518950001],[-87.7828769449999,41.881746865],[-87.78,41.8818150000001],[-87.7795856449999,41.8819001570001],[-87.77897,41.8820070000001],[-87.7747209999999,41.882071],[-87.774614,41.8789080000001],[-87.77445,41.87464],[-87.77814,41.87451],[-87.77804,41.8727400000001],[-87.779367,41.8727250000001],[-87.7793,41.8715300000001],[-87.78421001,41.871992936],[-87.7890599999999,41.8724500000001],[-87.7927999999999,41.8726],[-87.79301,41.8780100000001],[-87.791727,41.877981],[-87.7917899999999,41.8798],[-87.7909759999999,41.8797860000001],[-87.791056585,41.8816518950001]]]},"properties":{"OBJECTID":8,"PopupInfo":"Longfellow","Name":"Longfellow Attendance Boundaries","Shape__Area":2697363.1328125,"Shape__Length":7042.3688836938945}}]}