{"type":"FeatureCollection","features":[{"type":"Feature","properties":{"zone":"A1","trees":1268},"geometry":{"type":"Polygon","coordinates":[[[-87.806069,41.900641],[-87.795296,41.900641],[-87.795296,41.909646],[-87.806069,41.909646],[-87.806069,41.900641]]]}},{"type":"Feature","properties":{"zone":"A2","trees":1435},"geometry":{"type":"Polygon","coordinates":[[[-87.795296,41.900641],[-87.784524,41.900641],[-87.784524,41.909646],[-87.795296,41.909646],[-87.795296,41.900641]]]}},{"type":"Feature","properties":{"zone":"A3","trees":1346},"geometry":{"type":"Polygon","coordinates":[[[-87.784524,41.900641],[-87.773751,41.900641],[-87.773751,41.909646],[-87.784524,41.909646],[-87.784524,41.900641]]]}},{"type":"Feature","properties":{"zone":"B1","trees":1137},"geometry":{"type":"Polygon","coordinates":[[[-87.806069,41.891635],[-87.795296,41.891635],[-87.795296,41.900641],[-87.806069,41.900641],[-87.806069,41.891635]]]}},{"type":"Feature","properties":{"zone":"B2","trees":1407},"geometry":{"type":"Polygon","coordinates":[[[-87.795296,41.891635],[-87.784524,41.891635],[-87.784524,41.900641],[-87.795296,41.900641],[-87.795296,41.891635]]]}},{"type":"Feature","properties":{"zone":"B3","trees":1264},"geometry":{"type":"Polygon","coordinates":[[[-87.784524,41.891635],[-87.773751,41.891635],[-87.773751,41.900641],[-87.784524,41.900641],[-87.784524,41.891635]]]}},{"type":"Feature","properties":{"zone":"C1","trees":857},"geometry":{"type":"Polygon","coordinates":[[[-87.806069,41.882629],[-87.795296,41.882629],[-87.795296,41.891635],[-87.806069,41.891635],[-87.806069,41.882629]]]}},{"type":"Feature","properties":{"zone":"C2","trees":1107},"geometry":{"type":"Polygon","coordinates":[[[-87.795296,41.882629],[-87.784524,41.882629],[-87.784524,41.891635],[-87.795296,41.891635],[-87.795296,41.882629]]]}},{"type":"Feature","properties":{"zone":"C3","trees":1156},"geometry":{"type":"Polygon","coordinates":[[[-87.784524,41.882629],[-87.773751,41.882629],[-87.773751,41.891635],[-87.784524,41.891635],[-87.784524,41.882629]]]}},{"type":"Feature","properties":{"zone":"D1","trees":1254},"geometry":{"type":"Polygon","coordinates":[[[-87.806069,41.873623],[-87.795296,41.873623],[-87.795296,41.882629],[-87.806069,41.882629],[-87.806069,41.873623]]]}},{"type":"Feature","properties":{"zone":"D2","trees":1487},"geometry":{"type":"Polygon","coordinates":[[[-87.795296,41.873623],[-87.784524,41.873623],[-87.784524,41.882629],[-87.795296,41.882629],[-87.795296,41.873623]]]}},{"type":"Feature","properties":{"zone":"D3","trees":1507},"geometry":{"type":"Polygon","coordinates":[[[-87.784524,41.873623],[-87.773751,41.873623],[-87.773751,41.882629],[-87.784524,41.882629],[-87.784524,41.873623]]]}},{"type":"Feature","properties":{"zone":"E1","trees":1013},"geometry":{"type":"Polygon","coordinates":[[[-87.806069,41.864618],[-87.795296,41.864618],[-87.795296,41.873623],[-87.806069,41.873623],[-87.806069,41.864618]]]}},{"type":"Feature","properties":{"zone":"E2","trees":1318},"geometry":{"type":"Polygon","coordinates":[[[-87.795296,41.864618],[-87.784524,41.864618],[-87.784524,41.873623],[-87.795296,41.873623],[-87.795296,41.864618]]]}},{"type":"Feature","properties":{"zone":"E3","trees":1281},"geometry":{"type":"Polygon","coordinates":[[[-87.784524,41.864618],[-87.773751,41.864618],[-87.773751,41.873623],[-87.784524,41.873623],[-87.784524,41.864618]]]}}]}