{"type":"FeatureCollection","metadata":{"product":"MOD44B Percent_Tree_Cover, Collection 6.1 (via ORNL DAAC MODIS web service)","retrieved":"2026-10-03","cell_size_m":231.7,"years":[2000,2001,2002,2003,2004,2005,2006,2007,2008,2009,2010,2011,2012,2013,2014,2015,2016,2017,2018,2019,2020,2021,2022,2023,2024,2025],"recent_years":[2021,2022,2023,2024,2025],"village_mean":[12.3,14.7,14.9,14.7,12.8,13.8,10.6,15.9,11.9,15.5,10.9,10.5,12.8,13.5,10.6,17.8,14.8,11,8.8,15,15.3,20.2,15.1,12.5,13.5,9]},"features":[{"type":"Feature","geometry":{"type":"Polygon","coordinates":[[[-87.807917,41.908334],[-87.805118,41.908334],[-87.802252,41.90625],[-87.805052,41.90625],[-87.807917,41.908334]]]},"properties":{"id":"2-28","cover":[11,8,8,19,13,14,14,12,13,12,8,9,8,11,10,14,17,8,7,12,13,14,10,9,12,4],"recent_mean":9.8,"inventory_trees":40,"inventory_canopy_pct":5.8}},{"type":"Feature","geometry":{"type":"Polygon","coordinates":[[[-87.805118,41.908334],[-87.802318,41.908334],[-87.799453,41.90625],[-87.802252,41.90625],[-87.805118,41.908334]]]},"properties":{"id":"2-29","cover":[8,13,9,13,10,14,6,9,11,21,9,16,7,16,8,15,15,7,7,11,11,15,8,13,12,7],"recent_mean":11,"inventory_trees":70,"inventory_canopy_pct":6}},{"type":"Feature","geometry":{"type":"Polygon","coordinates":[[[-87.802318,41.908334],[-87.799519,41.908334],[-87.796654,41.90625],[-87.799453,41.90625],[-87.802318,41.908334]]]},"properties":{"id":"2-30","cover":[9,14,9,13,10,11,12,11,9,15,9,11,9,17,8,13,13,9,8,11,13,21,9,13,18,8],"recent_mean":13.8,"inventory_trees":104,"inventory_canopy_pct":10}},{"type":"Feature","geometry":{"type":"Polygon","coordinates":[[[-87.799519,41.908334],[-87.79672,41.908334],[-87.793855,41.90625],[-87.796654,41.90625],[-87.799519,41.908334]]]},"properties":{"id":"2-31","cover":[11,12,11,18,13,15,15,12,11,21,9,10,9,7,8,23,16,13,8,18,13,17,9,11,14,9],"recent_mean":12,"inventory_trees":118,"inventory_canopy_pct":9.9}},{"type":"Feature","geometry":{"type":"Polygon","coordinates":[[[-87.79672,41.908334],[-87.79392,41.908334],[-87.791055,41.90625],[-87.793855,41.90625],[-87.79672,41.908334]]]},"properties":{"id":"2-32","cover":[9,9,10,15,10,14,13,24,10,25,10,8,11,15,7,17,16,10,7,10,14,16,10,11,16,8],"recent_mean":12.2,"inventory_trees":93,"inventory_canopy_pct":8.4}},{"type":"Feature","geometry":{"type":"Polygon","coordinates":[[[-87.79392,41.908334],[-87.791121,41.908334],[-87.788256,41.90625],[-87.791055,41.90625],[-87.79392,41.908334]]]},"properties":{"id":"2-33","cover":[11,12,9,9,10,14,8,26,13,17,9,10,14,8,6,15,14,9,8,8,13,13,16,7,12,11],"recent_mean":11.8,"inventory_trees":96,"inventory_canopy_pct":8.8}},{"type":"Feature","geometry":{"type":"Polygon","coordinates":[[[-87.791121,41.908334],[-87.788322,41.908334],[-87.785457,41.90625],[-87.788256,41.90625],[-87.791121,41.908334]]]},"properties":{"id":"2-34","cover":[12,16,10,8,7,16,13,24,13,16,9,11,10,9,6,15,14,9,7,10,13,12,11,10,10,10],"recent_mean":10.6,"inventory_trees":92,"inventory_canopy_pct":7.7}},{"type":"Feature","geometry":{"type":"Polygon","coordinates":[[[-87.788322,41.908334],[-87.785522,41.908334],[-87.782657,41.90625],[-87.785457,41.90625],[-87.788322,41.908334]]]},"properties":{"id":"2-35","cover":[13,18,12,16,7,18,9,11,10,14,8,12,11,17,10,19,11,12,8,14,13,23,13,14,10,12],"recent_mean":14.4,"inventory_trees":101,"inventory_canopy_pct":11.3}},{"type":"Feature","geometry":{"type":"Polygon","coordinates":[[[-87.785522,41.908334],[-87.782723,41.908334],[-87.779858,41.90625],[-87.782657,41.90625],[-87.785522,41.908334]]]},"properties":{"id":"2-36","cover":[13,16,11,15,8,17,11,15,11,14,10,11,12,12,14,18,11,12,8,9,13,19,30,11,13,10],"recent_mean":16.6,"inventory_trees":109,"inventory_canopy_pct":7.5}},{"type":"Feature","geometry":{"type":"Polygon","coordinates":[[[-87.782723,41.908334],[-87.779923,41.908334],[-87.777059,41.90625],[-87.779858,41.90625],[-87.782723,41.908334]]]},"properties":{"id":"2-37","cover":[13,9,10,8,9,8,16,22,10,16,11,10,9,17,7,16,10,13,7,9,13,18,28,13,11,9],"recent_mean":15.8,"inventory_trees":127,"inventory_canopy_pct":10}},{"type":"Feature","geometry":{"type":"Polygon","coordinates":[[[-87.779923,41.908334],[-87.777124,41.908334],[-87.77426,41.90625],[-87.777059,41.90625],[-87.779923,41.908334]]]},"properties":{"id":"2-38","cover":[13,9,10,8,9,9,12,18,9,14,11,10,6,13,5,13,13,9,7,9,10,15,20,14,10,10],"recent_mean":13.8,"inventory_trees":120,"inventory_canopy_pct":9}},{"type":"Feature","geometry":{"type":"Polygon","coordinates":[[[-87.807851,41.90625],[-87.805052,41.90625],[-87.802187,41.904167],[-87.804986,41.904167],[-87.807851,41.90625]]]},"properties":{"id":"3-27","cover":[10,14,12,14,9,14,6,17,17,15,11,13,12,15,8,25,14,15,7,16,26,27,11,13,11,8],"recent_mean":14,"inventory_trees":50,"inventory_canopy_pct":5.2}},{"type":"Feature","geometry":{"type":"Polygon","coordinates":[[[-87.805052,41.90625],[-87.802252,41.90625],[-87.799387,41.904167],[-87.802187,41.904167],[-87.805052,41.90625]]]},"properties":{"id":"3-28","cover":[16,16,12,13,11,14,6,18,15,15,12,15,9,16,8,13,14,7,8,11,17,25,10,15,12,5],"recent_mean":13.4,"inventory_trees":64,"inventory_canopy_pct":9.8}},{"type":"Feature","geometry":{"type":"Polygon","coordinates":[[[-87.802252,41.90625],[-87.799453,41.90625],[-87.796588,41.904167],[-87.799387,41.904167],[-87.802252,41.90625]]]},"properties":{"id":"3-29","cover":[10,16,16,26,12,14,5,13,15,16,10,12,9,15,9,15,18,7,8,12,17,19,12,15,14,6],"recent_mean":13.2,"inventory_trees":101,"inventory_canopy_pct":7.7}},{"type":"Feature","geometry":{"type":"Polygon","coordinates":[[[-87.799453,41.90625],[-87.796654,41.90625],[-87.793789,41.904167],[-87.796588,41.904167],[-87.799453,41.90625]]]},"properties":{"id":"3-30","cover":[12,16,17,25,22,15,9,17,15,24,10,11,9,17,9,16,19,13,8,12,21,22,10,17,19,9],"recent_mean":15.4,"inventory_trees":109,"inventory_canopy_pct":8.5}},{"type":"Feature","geometry":{"type":"Polygon","coordinates":[[[-87.796654,41.90625],[-87.793855,41.90625],[-87.79099,41.904167],[-87.793789,41.904167],[-87.796654,41.90625]]]},"properties":{"id":"3-31","cover":[10,14,12,9,13,16,7,25,13,26,9,9,9,17,9,21,15,13,6,15,15,21,13,15,17,9],"recent_mean":15,"inventory_trees":91,"inventory_canopy_pct":8.2}},{"type":"Feature","geometry":{"type":"Polygon","coordinates":[[[-87.793855,41.90625],[-87.791055,41.90625],[-87.788191,41.904167],[-87.79099,41.904167],[-87.793855,41.90625]]]},"properties":{"id":"3-32","cover":[10,12,11,17,13,16,8,25,11,25,10,8,16,17,8,23,20,13,8,14,13,19,9,14,17,9],"recent_mean":13.6,"inventory_trees":97,"inventory_canopy_pct":7.1}},{"type":"Feature","geometry":{"type":"Polygon","coordinates":[[[-87.791055,41.90625],[-87.788256,41.90625],[-87.785391,41.904167],[-87.788191,41.904167],[-87.791055,41.90625]]]},"properties":{"id":"3-33","cover":[11,19,17,18,15,12,9,12,17,22,9,14,12,18,7,21,18,14,8,17,17,17,9,14,15,10],"recent_mean":13,"inventory_trees":92,"inventory_canopy_pct":8.2}},{"type":"Feature","geometry":{"type":"Polygon","coordinates":[[[-87.788256,41.90625],[-87.785457,41.90625],[-87.782592,41.904167],[-87.785391,41.904167],[-87.788256,41.90625]]]},"properties":{"id":"3-34","cover":[10,17,11,24,11,12,6,25,16,22,10,11,8,7,7,27,18,13,7,16,18,16,10,14,12,10],"recent_mean":12.4,"inventory_trees":78,"inventory_canopy_pct":8.2}},{"type":"Feature","geometry":{"type":"Polygon","coordinates":[[[-87.785457,41.90625],[-87.782657,41.90625],[-87.779793,41.904167],[-87.782592,41.904167],[-87.785457,41.90625]]]},"properties":{"id":"3-35","cover":[13,14,9,15,10,17,11,21,11,15,11,11,9,7,14,25,17,16,8,13,14,24,30,14,15,9],"recent_mean":18.4,"inventory_trees":90,"inventory_canopy_pct":6.8}},{"type":"Feature","geometry":{"type":"Polygon","coordinates":[[[-87.782657,41.90625],[-87.779858,41.90625],[-87.776994,41.904167],[-87.779793,41.904167],[-87.782657,41.90625]]]},"properties":{"id":"3-36","cover":[13,11,11,14,10,11,12,22,11,14,10,12,14,16,13,22,14,11,9,10,13,24,21,13,17,12],"recent_mean":17.4,"inventory_trees":102,"inventory_canopy_pct":7.4}},{"type":"Feature","geometry":{"type":"Polygon","coordinates":[[[-87.779858,41.90625],[-87.777059,41.90625],[-87.774195,41.904167],[-87.776994,41.904167],[-87.779858,41.90625]]]},"properties":{"id":"3-37","cover":[13,12,11,17,10,10,10,21,9,17,11,10,14,18,8,18,12,11,7,10,12,13,21,14,13,16],"recent_mean":15.4,"inventory_trees":88,"inventory_canopy_pct":8.4}},{"type":"Feature","geometry":{"type":"Polygon","coordinates":[[[-87.807785,41.904167],[-87.804986,41.904167],[-87.802121,41.902084],[-87.80492,41.902084],[-87.807785,41.904167]]]},"properties":{"id":"4-26","cover":[12,17,18,15,17,19,13,17,17,19,15,14,12,20,11,18,18,15,10,19,15,26,13,18,16,14],"recent_mean":17.4,"inventory_trees":48,"inventory_canopy_pct":5.8}},{"type":"Feature","geometry":{"type":"Polygon","coordinates":[[[-87.804986,41.904167],[-87.802187,41.904167],[-87.799322,41.902084],[-87.802121,41.902084],[-87.804986,41.904167]]]},"properties":{"id":"4-27","cover":[19,19,20,18,21,18,16,19,18,21,15,15,13,19,14,19,19,14,11,19,21,31,19,19,18,14],"recent_mean":20.2,"inventory_trees":82,"inventory_canopy_pct":11.6}},{"type":"Feature","geometry":{"type":"Polygon","coordinates":[[[-87.802187,41.904167],[-87.799387,41.904167],[-87.796523,41.902084],[-87.799322,41.902084],[-87.802187,41.904167]]]},"properties":{"id":"4-28","cover":[14,17,18,18,17,14,10,14,13,17,13,11,18,18,14,17,17,13,10,14,16,26,16,14,18,8],"recent_mean":16.4,"inventory_trees":86,"inventory_canopy_pct":6.5}},{"type":"Feature","geometry":{"type":"Polygon","coordinates":[[[-87.799387,41.904167],[-87.796588,41.904167],[-87.793724,41.902084],[-87.796523,41.902084],[-87.799387,41.904167]]]},"properties":{"id":"4-29","cover":[12,19,20,18,20,16,13,24,15,16,12,11,13,18,9,17,20,13,11,19,14,29,15,13,15,10],"recent_mean":16.4,"inventory_trees":100,"inventory_canopy_pct":8.4}},{"type":"Feature","geometry":{"type":"Polygon","coordinates":[[[-87.796588,41.904167],[-87.793789,41.904167],[-87.790925,41.902084],[-87.793724,41.902084],[-87.796588,41.904167]]]},"properties":{"id":"4-30","cover":[13,20,20,19,23,17,14,17,16,20,14,9,13,19,13,21,20,13,11,16,15,30,20,16,16,11],"recent_mean":18.6,"inventory_trees":95,"inventory_canopy_pct":7.3}},{"type":"Feature","geometry":{"type":"Polygon","coordinates":[[[-87.793789,41.904167],[-87.79099,41.904167],[-87.788125,41.902084],[-87.790925,41.902084],[-87.793789,41.904167]]]},"properties":{"id":"4-31","cover":[14,18,25,18,22,13,18,17,15,18,13,12,19,9,10,29,19,13,8,16,27,31,15,15,18,16],"recent_mean":19,"inventory_trees":92,"inventory_canopy_pct":10.3}},{"type":"Feature","geometry":{"type":"Polygon","coordinates":[[[-87.79099,41.904167],[-87.788191,41.904167],[-87.785326,41.902084],[-87.788125,41.902084],[-87.79099,41.904167]]]},"properties":{"id":"4-32","cover":[21,29,27,15,17,17,16,28,17,20,15,16,13,9,10,29,23,15,9,17,20,30,16,14,17,15],"recent_mean":18.4,"inventory_trees":90,"inventory_canopy_pct":8.3}},{"type":"Feature","geometry":{"type":"Polygon","coordinates":[[[-87.788191,41.904167],[-87.785391,41.904167],[-87.782527,41.902084],[-87.785326,41.902084],[-87.788191,41.904167]]]},"properties":{"id":"4-33","cover":[16,22,18,16,15,17,21,26,17,22,13,17,10,15,10,17,23,16,8,16,14,20,21,13,13,5],"recent_mean":14.4,"inventory_trees":57,"inventory_canopy_pct":4.4}},{"type":"Feature","geometry":{"type":"Polygon","coordinates":[[[-87.785391,41.904167],[-87.782592,41.904167],[-87.779728,41.902084],[-87.782527,41.902084],[-87.785391,41.904167]]]},"properties":{"id":"4-34","cover":[10,16,13,9,11,11,14,15,14,15,9,11,8,17,10,22,13,15,8,15,19,24,20,13,19,5],"recent_mean":16.2,"inventory_trees":92,"inventory_canopy_pct":6.1}},{"type":"Feature","geometry":{"type":"Polygon","coordinates":[[[-87.782592,41.904167],[-87.779793,41.904167],[-87.776929,41.902084],[-87.779728,41.902084],[-87.782592,41.904167]]]},"properties":{"id":"4-35","cover":[15,14,11,16,12,12,11,23,12,14,10,9,17,16,9,18,15,12,8,15,17,21,12,15,15,11],"recent_mean":14.8,"inventory_trees":109,"inventory_canopy_pct":8.8}},{"type":"Feature","geometry":{"type":"Polygon","coordinates":[[[-87.779793,41.904167],[-87.776994,41.904167],[-87.77413,41.902084],[-87.776929,41.902084],[-87.779793,41.904167]]]},"properties":{"id":"4-36","cover":[14,14,12,15,11,10,9,20,11,12,11,9,14,14,9,18,14,12,8,8,15,17,12,12,12,15],"recent_mean":13.6,"inventory_trees":91,"inventory_canopy_pct":6.9}},{"type":"Feature","geometry":{"type":"Polygon","coordinates":[[[-87.807719,41.902084],[-87.80492,41.902084],[-87.802055,41.9],[-87.804854,41.9],[-87.807719,41.902084]]]},"properties":{"id":"5-25","cover":[10,13,19,16,11,17,12,20,15,17,10,11,17,16,12,16,14,9,8,17,14,23,13,14,16,9],"recent_mean":15,"inventory_trees":37,"inventory_canopy_pct":6.2}},{"type":"Feature","geometry":{"type":"Polygon","coordinates":[[[-87.80492,41.902084],[-87.802121,41.902084],[-87.799256,41.9],[-87.802055,41.9],[-87.80492,41.902084]]]},"properties":{"id":"5-26","cover":[19,18,20,17,22,17,17,21,18,24,14,15,19,20,11,19,18,13,10,19,19,31,17,20,19,10],"recent_mean":19.4,"inventory_trees":82,"inventory_canopy_pct":14}},{"type":"Feature","geometry":{"type":"Polygon","coordinates":[[[-87.802121,41.902084],[-87.799322,41.902084],[-87.796457,41.9],[-87.799256,41.9],[-87.802121,41.902084]]]},"properties":{"id":"5-27","cover":[21,19,29,18,19,16,13,18,16,22,15,11,20,22,15,21,18,15,11,18,24,30,16,16,19,8],"recent_mean":17.8,"inventory_trees":76,"inventory_canopy_pct":11.8}},{"type":"Feature","geometry":{"type":"Polygon","coordinates":[[[-87.799322,41.902084],[-87.796523,41.902084],[-87.793658,41.9],[-87.796457,41.9],[-87.799322,41.902084]]]},"properties":{"id":"5-28","cover":[18,19,22,19,22,16,11,23,16,21,13,11,19,17,15,21,19,15,12,21,19,30,16,16,19,10],"recent_mean":18.2,"inventory_trees":93,"inventory_canopy_pct":9.4}},{"type":"Feature","geometry":{"type":"Polygon","coordinates":[[[-87.796523,41.902084],[-87.793724,41.902084],[-87.790859,41.9],[-87.793658,41.9],[-87.796523,41.902084]]]},"properties":{"id":"5-29","cover":[18,20,20,19,22,17,16,28,19,21,16,9,23,19,12,22,21,15,11,16,16,26,19,17,18,11],"recent_mean":18.2,"inventory_trees":84,"inventory_canopy_pct":12.8}},{"type":"Feature","geometry":{"type":"Polygon","coordinates":[[[-87.793724,41.902084],[-87.790925,41.902084],[-87.78806,41.9],[-87.790859,41.9],[-87.793724,41.902084]]]},"properties":{"id":"5-30","cover":[21,19,22,16,23,18,12,29,16,21,16,10,19,19,12,19,22,15,11,18,16,28,18,19,17,12],"recent_mean":18.8,"inventory_trees":94,"inventory_canopy_pct":12.5}},{"type":"Feature","geometry":{"type":"Polygon","coordinates":[[[-87.790925,41.902084],[-87.788125,41.902084],[-87.785261,41.9],[-87.78806,41.9],[-87.790925,41.902084]]]},"properties":{"id":"5-31","cover":[24,28,30,18,21,16,17,29,20,24,17,11,20,20,12,23,24,15,10,19,23,32,17,18,19,16],"recent_mean":20.4,"inventory_trees":76,"inventory_canopy_pct":12.8}},{"type":"Feature","geometry":{"type":"Polygon","coordinates":[[[-87.788125,41.902084],[-87.785326,41.902084],[-87.782462,41.9],[-87.785261,41.9],[-87.788125,41.902084]]]},"properties":{"id":"5-32","cover":[21,21,29,18,22,13,24,30,20,19,13,10,14,19,11,23,20,13,8,16,20,31,18,15,16,9],"recent_mean":17.8,"inventory_trees":87,"inventory_canopy_pct":11.8}},{"type":"Feature","geometry":{"type":"Polygon","coordinates":[[[-87.785326,41.902084],[-87.782527,41.902084],[-87.779663,41.9],[-87.782462,41.9],[-87.785326,41.902084]]]},"properties":{"id":"5-33","cover":[13,15,20,9,16,13,13,27,16,16,11,12,10,17,11,19,19,15,8,16,21,26,20,15,20,13],"recent_mean":18.8,"inventory_trees":103,"inventory_canopy_pct":8}},{"type":"Feature","geometry":{"type":"Polygon","coordinates":[[[-87.782527,41.902084],[-87.779728,41.902084],[-87.776864,41.9],[-87.779663,41.9],[-87.782527,41.902084]]]},"properties":{"id":"5-34","cover":[13,20,12,19,13,13,12,16,14,16,11,12,15,17,12,18,16,14,8,16,19,28,14,16,20,10],"recent_mean":17.6,"inventory_trees":126,"inventory_canopy_pct":13.9}},{"type":"Feature","geometry":{"type":"Polygon","coordinates":[[[-87.779728,41.902084],[-87.776929,41.902084],[-87.774065,41.9],[-87.776864,41.9],[-87.779728,41.902084]]]},"properties":{"id":"5-35","cover":[15,16,11,8,12,21,10,16,12,14,12,9,12,12,11,16,14,12,7,14,14,20,13,14,13,18],"recent_mean":15.6,"inventory_trees":105,"inventory_canopy_pct":8}},{"type":"Feature","geometry":{"type":"Polygon","coordinates":[[[-87.807653,41.9],[-87.804854,41.9],[-87.80199,41.897917],[-87.804789,41.897917],[-87.807653,41.9]]]},"properties":{"id":"6-24","cover":[10,11,11,8,12,14,12,11,11,20,12,11,10,18,10,14,13,9,18,18,12,21,13,14,11,10],"recent_mean":13.8,"inventory_trees":44,"inventory_canopy_pct":5.1}},{"type":"Feature","geometry":{"type":"Polygon","coordinates":[[[-87.804854,41.9],[-87.802055,41.9],[-87.799191,41.897917],[-87.80199,41.897917],[-87.804854,41.9]]]},"properties":{"id":"6-25","cover":[21,21,32,10,22,31,21,22,17,22,18,16,20,21,14,19,21,14,11,24,16,30,18,18,15,12],"recent_mean":18.6,"inventory_trees":83,"inventory_canopy_pct":13.7}},{"type":"Feature","geometry":{"type":"Polygon","coordinates":[[[-87.802055,41.9],[-87.799256,41.9],[-87.796392,41.897917],[-87.799191,41.897917],[-87.802055,41.9]]]},"properties":{"id":"6-26","cover":[23,22,24,20,20,14,16,23,19,26,19,19,21,23,14,23,24,12,12,24,22,31,17,21,16,13],"recent_mean":19.6,"inventory_trees":106,"inventory_canopy_pct":17.9}},{"type":"Feature","geometry":{"type":"Polygon","coordinates":[[[-87.799256,41.9],[-87.796457,41.9],[-87.793593,41.897917],[-87.796392,41.897917],[-87.799256,41.9]]]},"properties":{"id":"6-27","cover":[24,22,24,20,21,23,21,22,20,29,20,15,21,23,16,21,23,15,12,24,21,33,20,21,17,13],"recent_mean":20.8,"inventory_trees":101,"inventory_canopy_pct":13.3}},{"type":"Feature","geometry":{"type":"Polygon","coordinates":[[[-87.796457,41.9],[-87.793658,41.9],[-87.790794,41.897917],[-87.793593,41.897917],[-87.796457,41.9]]]},"properties":{"id":"6-28","cover":[24,22,24,20,20,21,20,30,22,27,20,14,22,24,15,22,23,23,12,21,26,34,18,20,18,12],"recent_mean":20.4,"inventory_trees":84,"inventory_canopy_pct":10.8}},{"type":"Feature","geometry":{"type":"Polygon","coordinates":[[[-87.793658,41.9],[-87.790859,41.9],[-87.787995,41.897917],[-87.790794,41.897917],[-87.793658,41.9]]]},"properties":{"id":"6-29","cover":[27,23,24,21,23,17,18,28,22,25,18,19,24,14,15,19,22,25,10,24,23,30,18,18,18,14],"recent_mean":19.6,"inventory_trees":111,"inventory_canopy_pct":17.8}},{"type":"Feature","geometry":{"type":"Polygon","coordinates":[[[-87.790859,41.9],[-87.78806,41.9],[-87.785196,41.897917],[-87.787995,41.897917],[-87.790859,41.9]]]},"properties":{"id":"6-30","cover":[26,22,24,29,23,19,16,30,22,29,18,19,23,17,16,20,21,16,11,19,26,30,20,18,18,13],"recent_mean":19.8,"inventory_trees":103,"inventory_canopy_pct":17.5}},{"type":"Feature","geometry":{"type":"Polygon","coordinates":[[[-87.78806,41.9],[-87.785261,41.9],[-87.782397,41.897917],[-87.785196,41.897917],[-87.78806,41.9]]]},"properties":{"id":"6-31","cover":[24,25,21,25,24,18,13,23,16,19,12,14,20,14,16,22,18,15,14,23,23,29,21,18,13,12],"recent_mean":18.6,"inventory_trees":102,"inventory_canopy_pct":15.7}},{"type":"Feature","geometry":{"type":"Polygon","coordinates":[[[-87.785261,41.9],[-87.782462,41.9],[-87.779599,41.897917],[-87.782397,41.897917],[-87.785261,41.9]]]},"properties":{"id":"6-32","cover":[15,20,29,24,16,11,10,26,14,13,12,12,19,17,16,19,16,12,14,21,20,26,21,16,13,11],"recent_mean":17.4,"inventory_trees":102,"inventory_canopy_pct":7.5}},{"type":"Feature","geometry":{"type":"Polygon","coordinates":[[[-87.782462,41.9],[-87.779663,41.9],[-87.7768,41.897917],[-87.779599,41.897917],[-87.782462,41.9]]]},"properties":{"id":"6-33","cover":[13,17,25,14,16,13,10,27,14,14,12,10,16,8,13,18,18,14,10,17,20,24,16,17,19,11],"recent_mean":17.4,"inventory_trees":99,"inventory_canopy_pct":9.7}},{"type":"Feature","geometry":{"type":"Polygon","coordinates":[[[-87.779663,41.9],[-87.776864,41.9],[-87.774001,41.897917],[-87.7768,41.897917],[-87.779663,41.9]]]},"properties":{"id":"6-34","cover":[15,26,26,18,11,18,12,25,12,13,9,9,9,17,14,16,17,14,9,12,18,22,13,15,15,11],"recent_mean":15.2,"inventory_trees":86,"inventory_canopy_pct":9.4}},{"type":"Feature","geometry":{"type":"Polygon","coordinates":[[[-87.807588,41.897917],[-87.804789,41.897917],[-87.801925,41.895834],[-87.804723,41.895834],[-87.807588,41.897917]]]},"properties":{"id":"7-23","cover":[13,15,20,19,14,16,12,23,15,29,19,12,10,22,11,19,21,12,14,18,18,29,17,16,17,12],"recent_mean":18.2,"inventory_trees":54,"inventory_canopy_pct":6.8}},{"type":"Feature","geometry":{"type":"Polygon","coordinates":[[[-87.804789,41.897917],[-87.80199,41.897917],[-87.799126,41.895834],[-87.801925,41.895834],[-87.804789,41.897917]]]},"properties":{"id":"7-24","cover":[15,15,22,21,23,19,20,21,16,29,23,17,18,26,12,19,20,11,10,27,25,31,18,21,17,19],"recent_mean":21.2,"inventory_trees":73,"inventory_canopy_pct":10.3}},{"type":"Feature","geometry":{"type":"Polygon","coordinates":[[[-87.80199,41.897917],[-87.799191,41.897917],[-87.796327,41.895834],[-87.799126,41.895834],[-87.80199,41.897917]]]},"properties":{"id":"7-25","cover":[16,19,24,13,22,14,14,17,17,29,17,17,19,24,16,23,21,14,11,28,21,30,19,20,16,13],"recent_mean":19.6,"inventory_trees":74,"inventory_canopy_pct":11.6}},{"type":"Feature","geometry":{"type":"Polygon","coordinates":[[[-87.799191,41.897917],[-87.796392,41.897917],[-87.793528,41.895834],[-87.796327,41.895834],[-87.799191,41.897917]]]},"properties":{"id":"7-26","cover":[20,21,31,20,23,26,19,19,17,28,18,19,20,23,14,20,22,14,12,25,23,33,19,19,16,14],"recent_mean":20.2,"inventory_trees":82,"inventory_canopy_pct":12.9}},{"type":"Feature","geometry":{"type":"Polygon","coordinates":[[[-87.796392,41.897917],[-87.793593,41.897917],[-87.790729,41.895834],[-87.793528,41.895834],[-87.796392,41.897917]]]},"properties":{"id":"7-27","cover":[25,23,25,20,19,18,20,31,21,28,21,15,22,24,15,21,23,24,12,25,25,35,18,26,19,12],"recent_mean":22,"inventory_trees":66,"inventory_canopy_pct":11.2}},{"type":"Feature","geometry":{"type":"Polygon","coordinates":[[[-87.793593,41.897917],[-87.790794,41.897917],[-87.78793,41.895834],[-87.790729,41.895834],[-87.793593,41.897917]]]},"properties":{"id":"7-28","cover":[26,25,27,19,22,20,18,31,23,29,23,19,24,26,16,22,26,23,13,26,24,37,21,20,19,12],"recent_mean":21.8,"inventory_trees":91,"inventory_canopy_pct":20.6}},{"type":"Feature","geometry":{"type":"Polygon","coordinates":[[[-87.790794,41.897917],[-87.787995,41.897917],[-87.785132,41.895834],[-87.78793,41.895834],[-87.790794,41.897917]]]},"properties":{"id":"7-29","cover":[29,25,25,26,23,20,17,28,23,26,20,18,26,23,17,20,23,21,11,21,28,30,25,17,19,14],"recent_mean":21,"inventory_trees":83,"inventory_canopy_pct":15.1}},{"type":"Feature","geometry":{"type":"Polygon","coordinates":[[[-87.787995,41.897917],[-87.785196,41.897917],[-87.782333,41.895834],[-87.785132,41.895834],[-87.787995,41.897917]]]},"properties":{"id":"7-30","cover":[25,21,24,17,20,33,16,31,20,24,17,14,22,15,16,22,19,15,10,23,23,29,23,18,18,12],"recent_mean":20,"inventory_trees":80,"inventory_canopy_pct":12.7}},{"type":"Feature","geometry":{"type":"Polygon","coordinates":[[[-87.785196,41.897917],[-87.782397,41.897917],[-87.779534,41.895834],[-87.782333,41.895834],[-87.785196,41.897917]]]},"properties":{"id":"7-31","cover":[14,21,18,19,24,16,11,27,15,15,11,13,14,19,17,23,18,14,13,19,21,26,14,18,17,11],"recent_mean":17.2,"inventory_trees":83,"inventory_canopy_pct":7.7}},{"type":"Feature","geometry":{"type":"Polygon","coordinates":[[[-87.782397,41.897917],[-87.779599,41.897917],[-87.776735,41.895834],[-87.779534,41.895834],[-87.782397,41.897917]]]},"properties":{"id":"7-32","cover":[19,22,20,24,24,16,11,17,15,12,13,11,16,8,13,19,16,14,13,21,20,26,15,20,13,11],"recent_mean":17,"inventory_trees":80,"inventory_canopy_pct":7.4}},{"type":"Feature","geometry":{"type":"Polygon","coordinates":[[[-87.779599,41.897917],[-87.7768,41.897917],[-87.773936,41.895834],[-87.776735,41.895834],[-87.779599,41.897917]]]},"properties":{"id":"7-33","cover":[14,17,25,24,11,12,10,20,12,14,9,9,16,8,12,15,17,12,9,11,14,21,13,15,15,10],"recent_mean":14.8,"inventory_trees":77,"inventory_canopy_pct":6.3}},{"type":"Feature","geometry":{"type":"Polygon","coordinates":[[[-87.807522,41.895834],[-87.804723,41.895834],[-87.801859,41.89375],[-87.804658,41.89375],[-87.807522,41.895834]]]},"properties":{"id":"8-22","cover":[13,21,13,12,15,18,12,14,14,27,16,12,11,7,15,19,14,11,34,16,13,25,11,15,15,11],"recent_mean":15.4,"inventory_trees":42,"inventory_canopy_pct":5.2}},{"type":"Feature","geometry":{"type":"Polygon","coordinates":[[[-87.804723,41.895834],[-87.801925,41.895834],[-87.799061,41.89375],[-87.801859,41.89375],[-87.804723,41.895834]]]},"properties":{"id":"8-23","cover":[13,15,21,26,25,13,12,25,15,24,17,12,13,20,16,32,18,13,11,17,15,25,14,17,16,11],"recent_mean":16.6,"inventory_trees":84,"inventory_canopy_pct":14}},{"type":"Feature","geometry":{"type":"Polygon","coordinates":[[[-87.801925,41.895834],[-87.799126,41.895834],[-87.796262,41.89375],[-87.799061,41.89375],[-87.801925,41.895834]]]},"properties":{"id":"8-24","cover":[14,17,22,26,19,26,18,20,17,23,25,15,18,9,15,27,21,16,12,28,21,32,19,22,19,11],"recent_mean":20.6,"inventory_trees":62,"inventory_canopy_pct":9.4}},{"type":"Feature","geometry":{"type":"Polygon","coordinates":[[[-87.799126,41.895834],[-87.796327,41.895834],[-87.793463,41.89375],[-87.796262,41.89375],[-87.799126,41.895834]]]},"properties":{"id":"8-25","cover":[14,16,22,17,19,29,17,19,17,28,19,19,19,10,19,22,20,17,12,25,19,33,18,18,18,14],"recent_mean":20.2,"inventory_trees":61,"inventory_canopy_pct":9.4}},{"type":"Feature","geometry":{"type":"Polygon","coordinates":[[[-87.796327,41.895834],[-87.793528,41.895834],[-87.790664,41.89375],[-87.793463,41.89375],[-87.796327,41.895834]]]},"properties":{"id":"8-26","cover":[23,18,23,25,19,28,15,23,22,26,24,26,25,20,20,22,23,21,12,24,21,35,19,22,19,15],"recent_mean":22,"inventory_trees":68,"inventory_canopy_pct":10.5}},{"type":"Feature","geometry":{"type":"Polygon","coordinates":[[[-87.793528,41.895834],[-87.790729,41.895834],[-87.787866,41.89375],[-87.790664,41.89375],[-87.793528,41.895834]]]},"properties":{"id":"8-27","cover":[29,24,26,25,21,21,16,28,22,24,23,26,27,23,16,21,28,24,15,24,25,32,20,25,15,17],"recent_mean":21.8,"inventory_trees":76,"inventory_canopy_pct":13}},{"type":"Feature","geometry":{"type":"Polygon","coordinates":[[[-87.790729,41.895834],[-87.78793,41.895834],[-87.785067,41.89375],[-87.787866,41.89375],[-87.790729,41.895834]]]},"properties":{"id":"8-28","cover":[27,26,25,27,20,18,14,28,22,23,26,19,27,21,16,16,22,15,13,20,23,32,32,18,15,13],"recent_mean":22,"inventory_trees":76,"inventory_canopy_pct":14.8}},{"type":"Feature","geometry":{"type":"Polygon","coordinates":[[[-87.78793,41.895834],[-87.785132,41.895834],[-87.782268,41.89375],[-87.785067,41.89375],[-87.78793,41.895834]]]},"properties":{"id":"8-29","cover":[21,19,21,17,23,17,10,16,15,14,11,12,18,8,18,20,19,14,13,23,23,30,23,14,16,11],"recent_mean":18.8,"inventory_trees":60,"inventory_canopy_pct":9.1}},{"type":"Feature","geometry":{"type":"Polygon","coordinates":[[[-87.785132,41.895834],[-87.782333,41.895834],[-87.779469,41.89375],[-87.782268,41.89375],[-87.785132,41.895834]]]},"properties":{"id":"8-30","cover":[13,15,16,19,12,17,10,26,13,12,13,12,11,8,17,20,17,11,13,19,15,23,13,11,15,10],"recent_mean":14.4,"inventory_trees":68,"inventory_canopy_pct":10.7}},{"type":"Feature","geometry":{"type":"Polygon","coordinates":[[[-87.782333,41.895834],[-87.779534,41.895834],[-87.776671,41.89375],[-87.779469,41.89375],[-87.782333,41.895834]]]},"properties":{"id":"8-31","cover":[14,14,13,22,12,16,9,26,14,19,10,10,12,7,9,22,14,9,7,10,14,19,23,12,15,8],"recent_mean":15.4,"inventory_trees":71,"inventory_canopy_pct":8.5}},{"type":"Feature","geometry":{"type":"Polygon","coordinates":[[[-87.779534,41.895834],[-87.776735,41.895834],[-87.773872,41.89375],[-87.776671,41.89375],[-87.779534,41.895834]]]},"properties":{"id":"8-32","cover":[12,20,13,15,10,11,8,19,10,11,9,10,10,14,7,16,8,8,7,8,12,15,16,6,11,7],"recent_mean":11,"inventory_trees":77,"inventory_canopy_pct":7.4}},{"type":"Feature","geometry":{"type":"Polygon","coordinates":[[[-87.807457,41.89375],[-87.804658,41.89375],[-87.801794,41.891667],[-87.804593,41.891667],[-87.807457,41.89375]]]},"properties":{"id":"9-21","cover":[10,18,13,25,11,12,11,18,11,26,16,11,10,16,14,18,18,11,28,16,11,22,10,13,14,15],"recent_mean":14.8,"inventory_trees":64,"inventory_canopy_pct":8.8}},{"type":"Feature","geometry":{"type":"Polygon","coordinates":[[[-87.804658,41.89375],[-87.801859,41.89375],[-87.798996,41.891667],[-87.801794,41.891667],[-87.804658,41.89375]]]},"properties":{"id":"9-22","cover":[11,16,12,10,13,17,12,19,16,23,16,14,19,16,12,22,13,10,32,17,15,23,9,15,16,12],"recent_mean":15,"inventory_trees":82,"inventory_canopy_pct":13.7}},{"type":"Feature","geometry":{"type":"Polygon","coordinates":[[[-87.801859,41.89375],[-87.799061,41.89375],[-87.796197,41.891667],[-87.798996,41.891667],[-87.801859,41.89375]]]},"properties":{"id":"9-23","cover":[25,21,25,19,20,28,16,21,22,22,23,15,20,9,14,27,19,14,21,23,24,32,18,19,18,13],"recent_mean":20,"inventory_trees":40,"inventory_canopy_pct":8.3}},{"type":"Feature","geometry":{"type":"Polygon","coordinates":[[[-87.799061,41.89375],[-87.796262,41.89375],[-87.793398,41.891667],[-87.796197,41.891667],[-87.799061,41.89375]]]},"properties":{"id":"9-24","cover":[17,18,20,27,20,14,13,19,18,23,21,16,17,22,15,27,21,13,12,17,16,28,18,18,21,10],"recent_mean":19,"inventory_trees":56,"inventory_canopy_pct":11.7}},{"type":"Feature","geometry":{"type":"Polygon","coordinates":[[[-87.796262,41.89375],[-87.793463,41.89375],[-87.7906,41.891667],[-87.793398,41.891667],[-87.796262,41.89375]]]},"properties":{"id":"9-25","cover":[19,16,19,16,19,26,15,23,16,27,20,14,17,19,19,18,21,15,11,18,23,28,13,17,15,13],"recent_mean":17.2,"inventory_trees":63,"inventory_canopy_pct":9.6}},{"type":"Feature","geometry":{"type":"Polygon","coordinates":[[[-87.793463,41.89375],[-87.790664,41.89375],[-87.787801,41.891667],[-87.7906,41.891667],[-87.793463,41.89375]]]},"properties":{"id":"9-26","cover":[19,18,23,19,18,25,14,23,18,23,17,26,21,9,20,19,19,20,11,23,20,25,25,16,18,14],"recent_mean":19.6,"inventory_trees":93,"inventory_canopy_pct":13.8}},{"type":"Feature","geometry":{"type":"Polygon","coordinates":[[[-87.790664,41.89375],[-87.787866,41.89375],[-87.785002,41.891667],[-87.787801,41.891667],[-87.790664,41.89375]]]},"properties":{"id":"9-27","cover":[24,23,24,25,21,19,15,22,20,21,17,18,25,20,17,17,21,17,12,19,22,31,21,18,15,14],"recent_mean":19.8,"inventory_trees":95,"inventory_canopy_pct":20.6}},{"type":"Feature","geometry":{"type":"Polygon","coordinates":[[[-87.787866,41.89375],[-87.785067,41.89375],[-87.782204,41.891667],[-87.785002,41.891667],[-87.787866,41.89375]]]},"properties":{"id":"9-28","cover":[18,22,20,22,21,18,13,21,17,16,16,13,15,9,16,17,20,15,12,23,22,32,17,18,13,14],"recent_mean":18.8,"inventory_trees":95,"inventory_canopy_pct":15.7}},{"type":"Feature","geometry":{"type":"Polygon","coordinates":[[[-87.785067,41.89375],[-87.782268,41.89375],[-87.779405,41.891667],[-87.782204,41.891667],[-87.785067,41.89375]]]},"properties":{"id":"9-29","cover":[13,24,17,25,23,17,13,15,16,13,12,15,16,8,15,22,22,14,13,21,22,30,17,15,15,18],"recent_mean":19,"inventory_trees":96,"inventory_canopy_pct":16.5}},{"type":"Feature","geometry":{"type":"Polygon","coordinates":[[[-87.782268,41.89375],[-87.779469,41.89375],[-87.776606,41.891667],[-87.779405,41.891667],[-87.782268,41.89375]]]},"properties":{"id":"9-30","cover":[13,24,18,20,24,21,14,17,13,13,11,13,12,9,13,20,19,13,13,16,17,30,12,14,16,12],"recent_mean":16.8,"inventory_trees":106,"inventory_canopy_pct":17.8}},{"type":"Feature","geometry":{"type":"Polygon","coordinates":[[[-87.779469,41.89375],[-87.776671,41.89375],[-87.773808,41.891667],[-87.776606,41.891667],[-87.779469,41.89375]]]},"properties":{"id":"9-31","cover":[13,21,13,7,10,16,9,20,11,18,9,10,9,11,9,16,14,9,7,9,14,16,17,8,12,13],"recent_mean":13.2,"inventory_trees":64,"inventory_canopy_pct":10.5}},{"type":"Feature","geometry":{"type":"Polygon","coordinates":[[[-87.807391,41.891667],[-87.804593,41.891667],[-87.801729,41.889584],[-87.804528,41.889584],[-87.807391,41.891667]]]},"properties":{"id":"10-20","cover":[7,10,14,7,9,7,9,7,9,17,10,9,5,10,12,14,15,8,14,10,12,8,17,5,8,7],"recent_mean":9,"inventory_trees":20,"inventory_canopy_pct":2.6}},{"type":"Feature","geometry":{"type":"Polygon","coordinates":[[[-87.804593,41.891667],[-87.801794,41.891667],[-87.798931,41.889584],[-87.801729,41.889584],[-87.804593,41.891667]]]},"properties":{"id":"10-21","cover":[7,8,13,7,9,10,9,8,9,12,7,10,16,15,11,22,14,8,7,11,13,16,13,9,12,12],"recent_mean":12.4,"inventory_trees":30,"inventory_canopy_pct":4.5}},{"type":"Feature","geometry":{"type":"Polygon","coordinates":[[[-87.801794,41.891667],[-87.798996,41.891667],[-87.796132,41.889584],[-87.798931,41.889584],[-87.801794,41.891667]]]},"properties":{"id":"10-22","cover":[9,11,9,17,7,11,8,17,10,13,8,9,8,14,12,20,12,8,7,11,14,17,12,7,11,10],"recent_mean":11.4,"inventory_trees":30,"inventory_canopy_pct":5.1}},{"type":"Feature","geometry":{"type":"Polygon","coordinates":[[[-87.798996,41.891667],[-87.796197,41.891667],[-87.793334,41.889584],[-87.796132,41.889584],[-87.798996,41.891667]]]},"properties":{"id":"10-23","cover":[10,9,10,7,10,16,7,11,9,14,10,11,10,12,12,17,15,8,6,13,11,15,11,12,11,11],"recent_mean":12,"inventory_trees":66,"inventory_canopy_pct":9.9}},{"type":"Feature","geometry":{"type":"Polygon","coordinates":[[[-87.796197,41.891667],[-87.793398,41.891667],[-87.790535,41.889584],[-87.793334,41.889584],[-87.796197,41.891667]]]},"properties":{"id":"10-24","cover":[13,11,11,8,10,17,7,13,11,9,10,9,9,13,12,17,11,11,7,15,11,17,13,12,12,14],"recent_mean":13.6,"inventory_trees":89,"inventory_canopy_pct":13.2}},{"type":"Feature","geometry":{"type":"Polygon","coordinates":[[[-87.793398,41.891667],[-87.7906,41.891667],[-87.787736,41.889584],[-87.790535,41.889584],[-87.793398,41.891667]]]},"properties":{"id":"10-25","cover":[9,14,13,9,11,19,10,11,10,11,11,11,9,7,10,13,19,10,8,11,14,16,11,8,10,13],"recent_mean":11.6,"inventory_trees":37,"inventory_canopy_pct":5.8}},{"type":"Feature","geometry":{"type":"Polygon","coordinates":[[[-87.7906,41.891667],[-87.787801,41.891667],[-87.784938,41.889584],[-87.787736,41.889584],[-87.7906,41.891667]]]},"properties":{"id":"10-26","cover":[10,15,19,27,18,10,9,10,11,10,13,9,17,17,13,17,19,11,7,18,13,22,16,10,11,10],"recent_mean":13.8,"inventory_trees":64,"inventory_canopy_pct":12}},{"type":"Feature","geometry":{"type":"Polygon","coordinates":[[[-87.787801,41.891667],[-87.785002,41.891667],[-87.782139,41.889584],[-87.784938,41.889584],[-87.787801,41.891667]]]},"properties":{"id":"10-27","cover":[14,16,17,21,24,17,11,27,13,13,12,13,19,20,12,16,20,11,9,15,22,31,18,15,16,11],"recent_mean":18.2,"inventory_trees":95,"inventory_canopy_pct":16.8}},{"type":"Feature","geometry":{"type":"Polygon","coordinates":[[[-87.785002,41.891667],[-87.782204,41.891667],[-87.779341,41.889584],[-87.782139,41.889584],[-87.785002,41.891667]]]},"properties":{"id":"10-28","cover":[11,15,24,19,20,16,12,14,14,12,12,11,19,20,15,18,19,12,9,14,22,29,18,17,17,14],"recent_mean":19,"inventory_trees":78,"inventory_canopy_pct":13.7}},{"type":"Feature","geometry":{"type":"Polygon","coordinates":[[[-87.782204,41.891667],[-87.779405,41.891667],[-87.776542,41.889584],[-87.779341,41.889584],[-87.782204,41.891667]]]},"properties":{"id":"10-29","cover":[13,17,16,26,25,20,17,29,13,14,12,13,20,20,13,21,20,13,8,15,23,24,18,17,17,15],"recent_mean":18.2,"inventory_trees":74,"inventory_canopy_pct":15.8}},{"type":"Feature","geometry":{"type":"Polygon","coordinates":[[[-87.779405,41.891667],[-87.776606,41.891667],[-87.773744,41.889584],[-87.776542,41.889584],[-87.779405,41.891667]]]},"properties":{"id":"10-30","cover":[12,16,19,23,24,19,10,14,10,9,12,9,12,11,9,22,15,9,6,11,13,13,11,12,13,13],"recent_mean":12.4,"inventory_trees":54,"inventory_canopy_pct":10}},{"type":"Feature","geometry":{"type":"Polygon","coordinates":[[[-87.807326,41.889584],[-87.804528,41.889584],[-87.801664,41.8875],[-87.804463,41.8875],[-87.807326,41.889584]]]},"properties":{"id":"11-19","cover":[3,5,6,5,8,5,5,4,4,11,4,6,4,6,5,7,11,4,6,8,5,7,8,5,6,5],"recent_mean":6.2,"inventory_trees":45,"inventory_canopy_pct":1.4}},{"type":"Feature","geometry":{"type":"Polygon","coordinates":[[[-87.804528,41.889584],[-87.801729,41.889584],[-87.798866,41.8875],[-87.801664,41.8875],[-87.804528,41.889584]]]},"properties":{"id":"11-20","cover":[3,3,4,5,4,5,3,4,4,9,5,7,3,6,12,6,5,8,7,10,4,8,7,4,6,8],"recent_mean":6.6,"inventory_trees":45,"inventory_canopy_pct":1.4}},{"type":"Feature","geometry":{"type":"Polygon","coordinates":[[[-87.801729,41.889584],[-87.798931,41.889584],[-87.796067,41.8875],[-87.798866,41.8875],[-87.801729,41.889584]]]},"properties":{"id":"11-21","cover":[3,5,6,6,5,6,8,7,6,5,5,7,5,8,6,9,7,5,6,8,6,8,9,6,7,10],"recent_mean":8,"inventory_trees":18,"inventory_canopy_pct":1.7}},{"type":"Feature","geometry":{"type":"Polygon","coordinates":[[[-87.798931,41.889584],[-87.796132,41.889584],[-87.793269,41.8875],[-87.796067,41.8875],[-87.798931,41.889584]]]},"properties":{"id":"11-22","cover":[4,5,10,6,6,6,9,7,5,4,4,7,5,8,6,13,8,7,6,8,7,7,9,6,6,9],"recent_mean":7.4,"inventory_trees":13,"inventory_canopy_pct":1.3}},{"type":"Feature","geometry":{"type":"Polygon","coordinates":[[[-87.796132,41.889584],[-87.793334,41.889584],[-87.790471,41.8875],[-87.793269,41.8875],[-87.796132,41.889584]]]},"properties":{"id":"11-23","cover":[4,9,10,7,7,9,7,6,6,5,5,10,10,7,5,13,9,5,7,8,10,10,8,6,7,10],"recent_mean":8.2,"inventory_trees":58,"inventory_canopy_pct":2.7}},{"type":"Feature","geometry":{"type":"Polygon","coordinates":[[[-87.793334,41.889584],[-87.790535,41.889584],[-87.787672,41.8875],[-87.790471,41.8875],[-87.793334,41.889584]]]},"properties":{"id":"11-24","cover":[7,10,10,7,7,5,6,8,8,8,7,10,10,12,10,14,9,6,7,10,9,13,12,6,8,12],"recent_mean":10.2,"inventory_trees":44,"inventory_canopy_pct":6.4}},{"type":"Feature","geometry":{"type":"Polygon","coordinates":[[[-87.790535,41.889584],[-87.787736,41.889584],[-87.784874,41.8875],[-87.787672,41.8875],[-87.790535,41.889584]]]},"properties":{"id":"11-25","cover":[8,9,15,8,9,9,9,9,9,10,9,8,10,10,9,11,10,7,9,11,10,13,9,8,8,7],"recent_mean":9,"inventory_trees":39,"inventory_canopy_pct":6}},{"type":"Feature","geometry":{"type":"Polygon","coordinates":[[[-87.787736,41.889584],[-87.784938,41.889584],[-87.782075,41.8875],[-87.784874,41.8875],[-87.787736,41.889584]]]},"properties":{"id":"11-26","cover":[11,8,15,7,11,6,7,12,9,11,9,9,12,7,9,12,8,7,7,10,10,13,8,7,7,7],"recent_mean":8.4,"inventory_trees":52,"inventory_canopy_pct":8.6}},{"type":"Feature","geometry":{"type":"Polygon","coordinates":[[[-87.784938,41.889584],[-87.782139,41.889584],[-87.779277,41.8875],[-87.782075,41.8875],[-87.784938,41.889584]]]},"properties":{"id":"11-27","cover":[13,9,18,13,9,6,9,8,12,10,10,9,15,8,7,15,9,8,7,11,14,10,12,7,12,8],"recent_mean":9.8,"inventory_trees":46,"inventory_canopy_pct":6.3}},{"type":"Feature","geometry":{"type":"Polygon","coordinates":[[[-87.782139,41.889584],[-87.779341,41.889584],[-87.776478,41.8875],[-87.779277,41.8875],[-87.782139,41.889584]]]},"properties":{"id":"11-28","cover":[8,14,13,13,7,15,11,23,13,12,11,9,16,11,5,14,15,13,7,10,13,18,12,7,13,7],"recent_mean":11.4,"inventory_trees":65,"inventory_canopy_pct":9.2}},{"type":"Feature","geometry":{"type":"Polygon","coordinates":[[[-87.779341,41.889584],[-87.776542,41.889584],[-87.77368,41.8875],[-87.776478,41.8875],[-87.779341,41.889584]]]},"properties":{"id":"11-29","cover":[13,22,8,8,10,12,10,22,9,7,9,9,10,14,4,17,10,8,6,8,12,14,7,6,10,9],"recent_mean":9.2,"inventory_trees":60,"inventory_canopy_pct":7.8}},{"type":"Feature","geometry":{"type":"Polygon","coordinates":[[[-87.807261,41.8875],[-87.804463,41.8875],[-87.8016,41.885417],[-87.804398,41.885417],[-87.807261,41.8875]]]},"properties":{"id":"12-18","cover":[2,3,6,5,4,3,4,5,3,3,3,6,4,6,4,6,6,4,4,10,5,6,6,3,7,9],"recent_mean":6.2,"inventory_trees":39,"inventory_canopy_pct":2.3}},{"type":"Feature","geometry":{"type":"Polygon","coordinates":[[[-87.804463,41.8875],[-87.801664,41.8875],[-87.798801,41.885417],[-87.8016,41.885417],[-87.804463,41.8875]]]},"properties":{"id":"12-19","cover":[3,7,6,7,8,5,7,4,4,6,3,4,5,6,5,8,6,5,5,7,5,11,7,5,10,9],"recent_mean":8.4,"inventory_trees":84,"inventory_canopy_pct":6.1}},{"type":"Feature","geometry":{"type":"Polygon","coordinates":[[[-87.801664,41.8875],[-87.798866,41.8875],[-87.796003,41.885417],[-87.798801,41.885417],[-87.801664,41.8875]]]},"properties":{"id":"12-20","cover":[5,7,6,6,6,6,4,7,9,5,4,7,4,11,4,11,9,5,7,8,5,9,7,9,8,9],"recent_mean":8.4,"inventory_trees":76,"inventory_canopy_pct":7.8}},{"type":"Feature","geometry":{"type":"Polygon","coordinates":[[[-87.798866,41.8875],[-87.796067,41.8875],[-87.793204,41.885417],[-87.796003,41.885417],[-87.798866,41.8875]]]},"properties":{"id":"12-21","cover":[11,5,6,6,5,5,5,10,7,7,6,8,7,9,4,14,8,8,7,9,5,8,11,5,8,7],"recent_mean":7.8,"inventory_trees":54,"inventory_canopy_pct":8.3}},{"type":"Feature","geometry":{"type":"Polygon","coordinates":[[[-87.796067,41.8875],[-87.793269,41.8875],[-87.790406,41.885417],[-87.793204,41.885417],[-87.796067,41.8875]]]},"properties":{"id":"12-22","cover":[11,5,9,8,5,6,6,7,6,11,7,9,5,8,7,14,9,6,7,11,10,8,17,5,6,8],"recent_mean":8.8,"inventory_trees":48,"inventory_canopy_pct":4.7}},{"type":"Feature","geometry":{"type":"Polygon","coordinates":[[[-87.793269,41.8875],[-87.790471,41.8875],[-87.787608,41.885417],[-87.790406,41.885417],[-87.793269,41.8875]]]},"properties":{"id":"12-23","cover":[8,9,10,11,8,9,12,19,11,8,10,7,11,11,13,17,13,9,8,12,16,11,19,12,15,6],"recent_mean":12.6,"inventory_trees":72,"inventory_canopy_pct":7.8}},{"type":"Feature","geometry":{"type":"Polygon","coordinates":[[[-87.790471,41.8875],[-87.787672,41.8875],[-87.784809,41.885417],[-87.787608,41.885417],[-87.790471,41.8875]]]},"properties":{"id":"12-24","cover":[11,10,10,18,12,18,7,25,14,17,12,6,15,16,10,15,12,9,8,13,16,16,11,12,11,8],"recent_mean":11.6,"inventory_trees":62,"inventory_canopy_pct":7.9}},{"type":"Feature","geometry":{"type":"Polygon","coordinates":[[[-87.787672,41.8875],[-87.784874,41.8875],[-87.782011,41.885417],[-87.784809,41.885417],[-87.787672,41.8875]]]},"properties":{"id":"12-25","cover":[8,24,10,16,10,9,10,14,10,9,6,9,11,17,8,10,12,9,7,15,10,18,10,14,17,10],"recent_mean":13.8,"inventory_trees":58,"inventory_canopy_pct":9.7}},{"type":"Feature","geometry":{"type":"Polygon","coordinates":[[[-87.784874,41.8875],[-87.782075,41.8875],[-87.779213,41.885417],[-87.782011,41.885417],[-87.784874,41.8875]]]},"properties":{"id":"12-26","cover":[12,19,11,16,7,8,6,7,6,8,6,8,11,12,8,10,9,12,7,11,10,13,11,11,10,10],"recent_mean":11,"inventory_trees":64,"inventory_canopy_pct":10.7}},{"type":"Feature","geometry":{"type":"Polygon","coordinates":[[[-87.782075,41.8875],[-87.779277,41.8875],[-87.776414,41.885417],[-87.779213,41.885417],[-87.782075,41.8875]]]},"properties":{"id":"12-27","cover":[13,10,13,13,7,8,7,6,8,8,6,7,6,12,8,15,13,8,8,8,10,17,12,7,12,3],"recent_mean":10.2,"inventory_trees":92,"inventory_canopy_pct":10.1}},{"type":"Feature","geometry":{"type":"Polygon","coordinates":[[[-87.779277,41.8875],[-87.776478,41.8875],[-87.773616,41.885417],[-87.776414,41.885417],[-87.779277,41.8875]]]},"properties":{"id":"12-28","cover":[13,12,16,12,9,11,9,9,8,14,9,8,12,10,8,17,11,7,7,7,10,12,9,5,13,3],"recent_mean":8.4,"inventory_trees":60,"inventory_canopy_pct":10.8}},{"type":"Feature","geometry":{"type":"Polygon","coordinates":[[[-87.807196,41.885417],[-87.804398,41.885417],[-87.801535,41.883334],[-87.804333,41.883334],[-87.807196,41.885417]]]},"properties":{"id":"13-17","cover":[3,5,9,6,7,6,7,6,4,7,4,7,5,8,7,10,7,4,5,8,8,7,7,4,7,11],"recent_mean":7.2,"inventory_trees":40,"inventory_canopy_pct":3.7}},{"type":"Feature","geometry":{"type":"Polygon","coordinates":[[[-87.804398,41.885417],[-87.8016,41.885417],[-87.798737,41.883334],[-87.801535,41.883334],[-87.804398,41.885417]]]},"properties":{"id":"13-18","cover":[7,15,8,15,10,11,9,14,4,17,7,9,11,12,8,14,8,9,7,10,11,8,7,6,9,13],"recent_mean":8.6,"inventory_trees":46,"inventory_canopy_pct":5}},{"type":"Feature","geometry":{"type":"Polygon","coordinates":[[[-87.8016,41.885417],[-87.798801,41.885417],[-87.795938,41.883334],[-87.798737,41.883334],[-87.8016,41.885417]]]},"properties":{"id":"13-19","cover":[13,16,9,8,12,18,10,20,10,16,6,8,15,17,9,17,21,12,7,12,14,17,15,12,14,9],"recent_mean":13.4,"inventory_trees":79,"inventory_canopy_pct":12.5}},{"type":"Feature","geometry":{"type":"Polygon","coordinates":[[[-87.798801,41.885417],[-87.796003,41.885417],[-87.79314,41.883334],[-87.795938,41.883334],[-87.798801,41.885417]]]},"properties":{"id":"13-20","cover":[13,23,10,8,13,21,11,24,10,17,7,7,19,19,8,19,20,9,7,16,13,18,21,11,18,6],"recent_mean":14.8,"inventory_trees":96,"inventory_canopy_pct":14.7}},{"type":"Feature","geometry":{"type":"Polygon","coordinates":[[[-87.796003,41.885417],[-87.793204,41.885417],[-87.790342,41.883334],[-87.79314,41.883334],[-87.796003,41.885417]]]},"properties":{"id":"13-21","cover":[12,22,20,11,13,22,9,20,11,19,14,11,21,22,10,25,20,9,7,21,17,26,17,16,18,9],"recent_mean":17.2,"inventory_trees":87,"inventory_canopy_pct":11.7}},{"type":"Feature","geometry":{"type":"Polygon","coordinates":[[[-87.793204,41.885417],[-87.790406,41.885417],[-87.787544,41.883334],[-87.790342,41.883334],[-87.793204,41.885417]]]},"properties":{"id":"13-22","cover":[15,20,21,18,24,13,13,21,15,15,18,14,23,30,13,18,23,14,9,18,17,27,23,18,21,10],"recent_mean":19.8,"inventory_trees":88,"inventory_canopy_pct":12.9}},{"type":"Feature","geometry":{"type":"Polygon","coordinates":[[[-87.790406,41.885417],[-87.787608,41.885417],[-87.784745,41.883334],[-87.787544,41.883334],[-87.790406,41.885417]]]},"properties":{"id":"13-23","cover":[24,25,20,20,21,16,17,23,15,14,17,11,25,22,14,28,25,15,10,23,19,17,30,19,14,21],"recent_mean":20.2,"inventory_trees":101,"inventory_canopy_pct":17.4}},{"type":"Feature","geometry":{"type":"Polygon","coordinates":[[[-87.787608,41.885417],[-87.784809,41.885417],[-87.781947,41.883334],[-87.784745,41.883334],[-87.787608,41.885417]]]},"properties":{"id":"13-24","cover":[24,18,18,25,25,15,14,28,12,15,15,11,23,19,11,29,24,13,10,19,19,16,24,18,13,11],"recent_mean":16.4,"inventory_trees":99,"inventory_canopy_pct":17.6}},{"type":"Feature","geometry":{"type":"Polygon","coordinates":[[[-87.784809,41.885417],[-87.782011,41.885417],[-87.779149,41.883334],[-87.781947,41.883334],[-87.784809,41.885417]]]},"properties":{"id":"13-25","cover":[17,20,19,18,24,13,12,14,12,18,14,10,24,18,11,22,21,15,8,16,29,30,23,19,17,19],"recent_mean":21.6,"inventory_trees":135,"inventory_canopy_pct":24.7}},{"type":"Feature","geometry":{"type":"Polygon","coordinates":[[[-87.782011,41.885417],[-87.779213,41.885417],[-87.77635,41.883334],[-87.779149,41.883334],[-87.782011,41.885417]]]},"properties":{"id":"13-26","cover":[17,19,20,17,25,12,12,15,11,15,13,10,25,17,10,26,21,14,8,23,29,29,22,18,17,6],"recent_mean":18.4,"inventory_trees":101,"inventory_canopy_pct":19.2}},{"type":"Feature","geometry":{"type":"Polygon","coordinates":[[[-87.779213,41.885417],[-87.776414,41.885417],[-87.773552,41.883334],[-87.77635,41.883334],[-87.779213,41.885417]]]},"properties":{"id":"13-27","cover":[12,20,27,20,15,16,10,12,16,18,9,9,14,19,12,19,18,14,9,14,16,21,16,19,18,6],"recent_mean":16,"inventory_trees":107,"inventory_canopy_pct":19}},{"type":"Feature","geometry":{"type":"Polygon","coordinates":[[[-87.807132,41.883334],[-87.804333,41.883334],[-87.80147,41.88125],[-87.804269,41.88125],[-87.807132,41.883334]]]},"properties":{"id":"14-16","cover":[9,9,9,6,6,6,6,7,6,5,4,7,5,7,7,10,7,6,6,8,6,8,8,4,7,6],"recent_mean":6.6,"inventory_trees":54,"inventory_canopy_pct":8.1}},{"type":"Feature","geometry":{"type":"Polygon","coordinates":[[[-87.804333,41.883334],[-87.801535,41.883334],[-87.798672,41.88125],[-87.80147,41.88125],[-87.804333,41.883334]]]},"properties":{"id":"14-17","cover":[12,9,14,7,8,8,8,11,8,11,8,7,5,13,5,16,8,7,5,9,7,11,7,4,7,8],"recent_mean":7.4,"inventory_trees":74,"inventory_canopy_pct":11.8}},{"type":"Feature","geometry":{"type":"Polygon","coordinates":[[[-87.801535,41.883334],[-87.798737,41.883334],[-87.795874,41.88125],[-87.798672,41.88125],[-87.801535,41.883334]]]},"properties":{"id":"14-18","cover":[13,10,14,11,10,9,8,9,8,12,9,8,12,16,5,16,9,7,7,10,13,12,7,6,10,4],"recent_mean":7.8,"inventory_trees":86,"inventory_canopy_pct":12.8}},{"type":"Feature","geometry":{"type":"Polygon","coordinates":[[[-87.798737,41.883334],[-87.795938,41.883334],[-87.793076,41.88125],[-87.795874,41.88125],[-87.798737,41.883334]]]},"properties":{"id":"14-19","cover":[12,18,10,7,10,10,10,8,9,14,10,9,10,14,5,14,8,7,6,12,13,12,11,10,10,6],"recent_mean":9.8,"inventory_trees":79,"inventory_canopy_pct":12}},{"type":"Feature","geometry":{"type":"Polygon","coordinates":[[[-87.795938,41.883334],[-87.79314,41.883334],[-87.790278,41.88125],[-87.793076,41.88125],[-87.795938,41.883334]]]},"properties":{"id":"14-20","cover":[14,14,11,10,12,10,9,9,11,15,12,10,11,17,9,21,14,10,6,12,12,13,13,10,10,7],"recent_mean":10.6,"inventory_trees":78,"inventory_canopy_pct":10.5}},{"type":"Feature","geometry":{"type":"Polygon","coordinates":[[[-87.79314,41.883334],[-87.790342,41.883334],[-87.78748,41.88125],[-87.790278,41.88125],[-87.79314,41.883334]]]},"properties":{"id":"14-21","cover":[13,13,22,19,12,11,9,13,11,16,10,9,10,22,11,21,18,10,7,11,15,16,13,10,11,9],"recent_mean":11.8,"inventory_trees":84,"inventory_canopy_pct":11.6}},{"type":"Feature","geometry":{"type":"Polygon","coordinates":[[[-87.790342,41.883334],[-87.787544,41.883334],[-87.784681,41.88125],[-87.78748,41.88125],[-87.790342,41.883334]]]},"properties":{"id":"14-22","cover":[12,13,21,15,12,11,12,16,18,15,10,8,13,21,13,22,18,10,7,19,15,22,18,7,19,11],"recent_mean":15.4,"inventory_trees":91,"inventory_canopy_pct":16.5}},{"type":"Feature","geometry":{"type":"Polygon","coordinates":[[[-87.787544,41.883334],[-87.784745,41.883334],[-87.781883,41.88125],[-87.784681,41.88125],[-87.787544,41.883334]]]},"properties":{"id":"14-23","cover":[12,28,15,16,11,9,11,25,12,15,12,9,14,14,12,14,17,13,12,14,14,19,13,6,15,2],"recent_mean":11,"inventory_trees":77,"inventory_canopy_pct":15.2}},{"type":"Feature","geometry":{"type":"Polygon","coordinates":[[[-87.784745,41.883334],[-87.781947,41.883334],[-87.779085,41.88125],[-87.781883,41.88125],[-87.784745,41.883334]]]},"properties":{"id":"14-24","cover":[11,23,12,15,11,21,9,21,9,16,12,6,18,14,10,11,17,10,7,14,11,15,15,13,12,4],"recent_mean":11.8,"inventory_trees":80,"inventory_canopy_pct":16.5}},{"type":"Feature","geometry":{"type":"Polygon","coordinates":[[[-87.781947,41.883334],[-87.779149,41.883334],[-87.776287,41.88125],[-87.779085,41.88125],[-87.781947,41.883334]]]},"properties":{"id":"14-25","cover":[12,24,39,9,12,23,10,12,9,19,7,8,10,13,14,19,14,11,8,12,14,20,16,14,8,4],"recent_mean":12.4,"inventory_trees":74,"inventory_canopy_pct":11.3}},{"type":"Feature","geometry":{"type":"Polygon","coordinates":[[[-87.779149,41.883334],[-87.77635,41.883334],[-87.773489,41.88125],[-87.776287,41.88125],[-87.779149,41.883334]]]},"properties":{"id":"14-26","cover":[12,16,28,14,12,17,10,13,13,17,10,8,11,17,14,22,15,13,9,14,20,17,16,13,9,10],"recent_mean":13,"inventory_trees":95,"inventory_canopy_pct":12.6}},{"type":"Feature","geometry":{"type":"Polygon","coordinates":[[[-87.807067,41.88125],[-87.804269,41.88125],[-87.801406,41.879167],[-87.804204,41.879167],[-87.807067,41.88125]]]},"properties":{"id":"15-15","cover":[3,8,5,6,4,4,5,5,4,4,4,6,4,6,4,8,4,5,6,7,6,8,7,4,7,5],"recent_mean":6.2,"inventory_trees":26,"inventory_canopy_pct":2.6}},{"type":"Feature","geometry":{"type":"Polygon","coordinates":[[[-87.804269,41.88125],[-87.80147,41.88125],[-87.798608,41.879167],[-87.801406,41.879167],[-87.804269,41.88125]]]},"properties":{"id":"15-16","cover":[4,8,9,6,7,6,7,7,6,6,5,7,4,8,7,12,8,5,5,7,6,7,6,4,7,7],"recent_mean":6.2,"inventory_trees":39,"inventory_canopy_pct":5}},{"type":"Feature","geometry":{"type":"Polygon","coordinates":[[[-87.80147,41.88125],[-87.798672,41.88125],[-87.79581,41.879167],[-87.798608,41.879167],[-87.80147,41.88125]]]},"properties":{"id":"15-17","cover":[12,9,14,7,8,8,9,9,7,11,6,7,6,9,7,13,8,6,7,8,6,11,8,4,7,7],"recent_mean":7.4,"inventory_trees":66,"inventory_canopy_pct":6.6}},{"type":"Feature","geometry":{"type":"Polygon","coordinates":[[[-87.798672,41.88125],[-87.795874,41.88125],[-87.793012,41.879167],[-87.79581,41.879167],[-87.798672,41.88125]]]},"properties":{"id":"15-18","cover":[11,7,11,6,7,6,8,8,7,9,5,7,5,11,7,11,8,6,7,9,5,11,8,4,7,4],"recent_mean":6.8,"inventory_trees":55,"inventory_canopy_pct":7.4}},{"type":"Feature","geometry":{"type":"Polygon","coordinates":[[[-87.795874,41.88125],[-87.793076,41.88125],[-87.790214,41.879167],[-87.793012,41.879167],[-87.795874,41.88125]]]},"properties":{"id":"15-19","cover":[9,5,8,7,6,6,6,7,6,8,5,8,5,11,7,11,7,5,6,11,6,10,8,5,8,8],"recent_mean":7.8,"inventory_trees":63,"inventory_canopy_pct":3.9}},{"type":"Feature","geometry":{"type":"Polygon","coordinates":[[[-87.793076,41.88125],[-87.790278,41.88125],[-87.787416,41.879167],[-87.790214,41.879167],[-87.793076,41.88125]]]},"properties":{"id":"15-20","cover":[7,7,8,6,8,6,7,7,8,7,6,9,7,9,5,11,7,7,6,10,6,9,7,7,8,8],"recent_mean":7.8,"inventory_trees":69,"inventory_canopy_pct":7.1}},{"type":"Feature","geometry":{"type":"Polygon","coordinates":[[[-87.790278,41.88125],[-87.78748,41.88125],[-87.784618,41.879167],[-87.787416,41.879167],[-87.790278,41.88125]]]},"properties":{"id":"15-21","cover":[12,10,10,9,8,10,8,7,7,8,7,6,7,10,9,13,7,7,6,10,7,13,10,6,8,6],"recent_mean":8.6,"inventory_trees":67,"inventory_canopy_pct":9.5}},{"type":"Feature","geometry":{"type":"Polygon","coordinates":[[[-87.78748,41.88125],[-87.784681,41.88125],[-87.781819,41.879167],[-87.784618,41.879167],[-87.78748,41.88125]]]},"properties":{"id":"15-22","cover":[12,9,10,14,8,10,7,8,7,8,7,7,5,11,7,13,8,6,6,9,6,13,10,6,7,7],"recent_mean":8.6,"inventory_trees":57,"inventory_canopy_pct":7.5}},{"type":"Feature","geometry":{"type":"Polygon","coordinates":[[[-87.784681,41.88125],[-87.781883,41.88125],[-87.779021,41.879167],[-87.781819,41.879167],[-87.784681,41.88125]]]},"properties":{"id":"15-23","cover":[9,5,8,7,7,6,6,8,7,8,5,5,5,7,9,10,9,7,7,10,5,11,9,6,7,7],"recent_mean":8,"inventory_trees":62,"inventory_canopy_pct":6.3}},{"type":"Feature","geometry":{"type":"Polygon","coordinates":[[[-87.781883,41.88125],[-87.779085,41.88125],[-87.776223,41.879167],[-87.779021,41.879167],[-87.781883,41.88125]]]},"properties":{"id":"15-24","cover":[9,8,8,8,6,6,6,8,7,9,5,6,5,8,9,10,8,8,9,10,5,11,10,6,8,6],"recent_mean":8.2,"inventory_trees":85,"inventory_canopy_pct":8.1}},{"type":"Feature","geometry":{"type":"Polygon","coordinates":[[[-87.779085,41.88125],[-87.776287,41.88125],[-87.773425,41.879167],[-87.776223,41.879167],[-87.779085,41.88125]]]},"properties":{"id":"15-25","cover":[11,9,11,6,7,6,6,8,7,10,6,5,8,8,9,11,10,7,10,9,7,10,10,6,7,4],"recent_mean":7.4,"inventory_trees":75,"inventory_canopy_pct":8.8}},{"type":"Feature","geometry":{"type":"Polygon","coordinates":[[[-87.807002,41.879167],[-87.804204,41.879167],[-87.801342,41.877084],[-87.80414,41.877084],[-87.807002,41.879167]]]},"properties":{"id":"16-14","cover":[7,8,10,6,8,8,5,8,5,9,6,5,5,7,8,16,11,7,6,7,6,12,9,5,12,5],"recent_mean":8.6,"inventory_trees":30,"inventory_canopy_pct":2.7}},{"type":"Feature","geometry":{"type":"Polygon","coordinates":[[[-87.804204,41.879167],[-87.801406,41.879167],[-87.798544,41.877084],[-87.801342,41.877084],[-87.804204,41.879167]]]},"properties":{"id":"16-15","cover":[9,7,13,7,9,14,9,13,10,12,8,8,9,13,14,19,16,9,8,14,14,25,12,5,11,6],"recent_mean":11.8,"inventory_trees":76,"inventory_canopy_pct":13.2}},{"type":"Feature","geometry":{"type":"Polygon","coordinates":[[[-87.801406,41.879167],[-87.798608,41.879167],[-87.795746,41.877084],[-87.798544,41.877084],[-87.801406,41.879167]]]},"properties":{"id":"16-16","cover":[14,13,13,15,11,9,11,20,14,17,10,12,17,16,12,21,17,12,8,15,20,28,18,14,16,15],"recent_mean":18.2,"inventory_trees":100,"inventory_canopy_pct":17.6}},{"type":"Feature","geometry":{"type":"Polygon","coordinates":[[[-87.798608,41.879167],[-87.79581,41.879167],[-87.792948,41.877084],[-87.795746,41.877084],[-87.798608,41.879167]]]},"properties":{"id":"16-17","cover":[13,18,10,16,12,19,12,22,12,18,14,9,14,17,12,23,11,12,8,17,24,25,29,15,19,16],"recent_mean":20.8,"inventory_trees":111,"inventory_canopy_pct":16.3}},{"type":"Feature","geometry":{"type":"Polygon","coordinates":[[[-87.79581,41.879167],[-87.793012,41.879167],[-87.79015,41.877084],[-87.792948,41.877084],[-87.79581,41.879167]]]},"properties":{"id":"16-18","cover":[9,20,10,8,11,22,9,11,10,15,15,9,11,14,13,23,15,11,9,12,14,22,13,15,16,15],"recent_mean":16.2,"inventory_trees":117,"inventory_canopy_pct":15.8}},{"type":"Feature","geometry":{"type":"Polygon","coordinates":[[[-87.793012,41.879167],[-87.790214,41.879167],[-87.787352,41.877084],[-87.79015,41.877084],[-87.793012,41.879167]]]},"properties":{"id":"16-19","cover":[10,17,16,21,10,18,8,20,13,17,13,9,7,16,12,20,15,9,10,11,14,25,15,13,12,12],"recent_mean":15.4,"inventory_trees":109,"inventory_canopy_pct":17.8}},{"type":"Feature","geometry":{"type":"Polygon","coordinates":[[[-87.790214,41.879167],[-87.787416,41.879167],[-87.784554,41.877084],[-87.787352,41.877084],[-87.790214,41.879167]]]},"properties":{"id":"16-20","cover":[10,19,20,20,11,15,8,16,13,14,11,11,16,15,13,21,19,11,8,18,18,29,14,15,16,6],"recent_mean":16,"inventory_trees":110,"inventory_canopy_pct":18.1}},{"type":"Feature","geometry":{"type":"Polygon","coordinates":[[[-87.787416,41.879167],[-87.784618,41.879167],[-87.781756,41.877084],[-87.784554,41.877084],[-87.787416,41.879167]]]},"properties":{"id":"16-21","cover":[13,12,10,12,11,9,10,13,10,14,8,10,18,12,11,13,16,10,10,14,13,21,17,12,14,10],"recent_mean":14.8,"inventory_trees":99,"inventory_canopy_pct":13.9}},{"type":"Feature","geometry":{"type":"Polygon","coordinates":[[[-87.784618,41.879167],[-87.781819,41.879167],[-87.778958,41.877084],[-87.781756,41.877084],[-87.784618,41.879167]]]},"properties":{"id":"16-22","cover":[13,11,11,15,12,12,10,20,12,16,12,9,11,15,13,13,9,10,9,12,13,18,14,12,15,10],"recent_mean":13.8,"inventory_trees":104,"inventory_canopy_pct":16.2}},{"type":"Feature","geometry":{"type":"Polygon","coordinates":[[[-87.781819,41.879167],[-87.779021,41.879167],[-87.77616,41.877084],[-87.778958,41.877084],[-87.781819,41.879167]]]},"properties":{"id":"16-23","cover":[8,12,12,17,12,19,14,14,13,17,14,11,18,16,10,18,15,10,12,21,14,22,12,14,13,3],"recent_mean":12.8,"inventory_trees":127,"inventory_canopy_pct":17.4}},{"type":"Feature","geometry":{"type":"Polygon","coordinates":[[[-87.779021,41.879167],[-87.776223,41.879167],[-87.773362,41.877084],[-87.77616,41.877084],[-87.779021,41.879167]]]},"properties":{"id":"16-24","cover":[14,15,12,24,10,15,12,15,13,16,14,12,16,16,10,22,15,13,11,14,12,21,12,14,12,3],"recent_mean":12.4,"inventory_trees":92,"inventory_canopy_pct":13.7}},{"type":"Feature","geometry":{"type":"Polygon","coordinates":[[[-87.806938,41.877084],[-87.80414,41.877084],[-87.801278,41.875],[-87.804076,41.875],[-87.806938,41.877084]]]},"properties":{"id":"17-13","cover":[13,13,14,15,9,11,8,18,10,17,8,6,15,7,10,17,10,10,7,9,14,15,11,11,13,10],"recent_mean":12,"inventory_trees":57,"inventory_canopy_pct":8.2}},{"type":"Feature","geometry":{"type":"Polygon","coordinates":[[[-87.80414,41.877084],[-87.801342,41.877084],[-87.79848,41.875],[-87.801278,41.875],[-87.80414,41.877084]]]},"properties":{"id":"17-14","cover":[14,13,15,29,10,22,10,22,13,14,7,10,9,15,12,21,13,11,8,22,22,18,18,15,17,17],"recent_mean":17,"inventory_trees":124,"inventory_canopy_pct":19.1}},{"type":"Feature","geometry":{"type":"Polygon","coordinates":[[[-87.801342,41.877084],[-87.798544,41.877084],[-87.795682,41.875],[-87.79848,41.875],[-87.801342,41.877084]]]},"properties":{"id":"17-15","cover":[11,19,20,30,24,25,8,22,16,24,24,12,11,8,15,16,18,12,9,24,21,29,24,17,16,17],"recent_mean":20.6,"inventory_trees":114,"inventory_canopy_pct":15.9}},{"type":"Feature","geometry":{"type":"Polygon","coordinates":[[[-87.798544,41.877084],[-87.795746,41.877084],[-87.792884,41.875],[-87.795682,41.875],[-87.798544,41.877084]]]},"properties":{"id":"17-16","cover":[15,28,21,8,7,12,7,16,14,20,16,10,9,8,14,21,20,12,9,16,18,30,29,15,16,10],"recent_mean":20,"inventory_trees":129,"inventory_canopy_pct":17.2}},{"type":"Feature","geometry":{"type":"Polygon","coordinates":[[[-87.795746,41.877084],[-87.792948,41.877084],[-87.790086,41.875],[-87.792884,41.875],[-87.795746,41.877084]]]},"properties":{"id":"17-17","cover":[10,13,18,19,12,11,11,22,15,21,12,12,21,9,13,25,18,12,9,23,24,26,21,17,15,9],"recent_mean":17.6,"inventory_trees":91,"inventory_canopy_pct":10.5}},{"type":"Feature","geometry":{"type":"Polygon","coordinates":[[[-87.792948,41.877084],[-87.79015,41.877084],[-87.787288,41.875],[-87.790086,41.875],[-87.792948,41.877084]]]},"properties":{"id":"17-18","cover":[10,18,15,19,12,11,11,22,13,21,15,10,17,24,14,25,20,13,9,22,22,30,24,16,15,14],"recent_mean":19.8,"inventory_trees":103,"inventory_canopy_pct":10.9}},{"type":"Feature","geometry":{"type":"Polygon","coordinates":[[[-87.79015,41.877084],[-87.787352,41.877084],[-87.78449,41.875],[-87.787288,41.875],[-87.79015,41.877084]]]},"properties":{"id":"17-19","cover":[11,19,16,13,19,12,12,16,14,20,14,12,18,18,17,25,18,13,8,23,22,30,28,17,20,9],"recent_mean":20.8,"inventory_trees":108,"inventory_canopy_pct":16.6}},{"type":"Feature","geometry":{"type":"Polygon","coordinates":[[[-87.787352,41.877084],[-87.784554,41.877084],[-87.781692,41.875],[-87.78449,41.875],[-87.787352,41.877084]]]},"properties":{"id":"17-20","cover":[10,21,11,12,11,11,11,14,13,17,11,8,16,15,13,22,18,14,8,19,21,31,26,15,18,6],"recent_mean":19.2,"inventory_trees":86,"inventory_canopy_pct":14.5}},{"type":"Feature","geometry":{"type":"Polygon","coordinates":[[[-87.784554,41.877084],[-87.781756,41.877084],[-87.778894,41.875],[-87.781692,41.875],[-87.784554,41.877084]]]},"properties":{"id":"17-21","cover":[10,12,10,22,12,15,10,13,11,16,11,10,19,16,15,13,15,12,16,18,16,19,20,12,17,9],"recent_mean":15.4,"inventory_trees":90,"inventory_canopy_pct":15.5}},{"type":"Feature","geometry":{"type":"Polygon","coordinates":[[[-87.781756,41.877084],[-87.778958,41.877084],[-87.776096,41.875],[-87.778894,41.875],[-87.781756,41.877084]]]},"properties":{"id":"17-22","cover":[12,16,10,23,12,22,11,15,14,17,14,11,15,16,15,14,16,14,15,22,17,21,18,16,16,10],"recent_mean":16.2,"inventory_trees":102,"inventory_canopy_pct":14.8}},{"type":"Feature","geometry":{"type":"Polygon","coordinates":[[[-87.778958,41.877084],[-87.77616,41.877084],[-87.773299,41.875],[-87.776096,41.875],[-87.778958,41.877084]]]},"properties":{"id":"17-23","cover":[11,19,17,14,22,29,11,13,16,12,12,13,21,16,12,18,14,16,11,27,16,30,19,18,13,3],"recent_mean":16.6,"inventory_trees":109,"inventory_canopy_pct":13.1}},{"type":"Feature","geometry":{"type":"Polygon","coordinates":[[[-87.806874,41.875],[-87.804076,41.875],[-87.801214,41.872917],[-87.804011,41.872917],[-87.806874,41.875]]]},"properties":{"id":"18-12","cover":[6,9,7,9,8,5,6,6,6,8,6,8,5,6,4,11,8,6,6,8,9,10,7,8,8,4],"recent_mean":7.4,"inventory_trees":28,"inventory_canopy_pct":2}},{"type":"Feature","geometry":{"type":"Polygon","coordinates":[[[-87.804076,41.875],[-87.801278,41.875],[-87.798416,41.872917],[-87.801214,41.872917],[-87.804076,41.875]]]},"properties":{"id":"18-13","cover":[7,10,15,8,10,15,8,7,10,14,11,9,6,14,9,19,14,8,9,11,10,20,9,11,12,6],"recent_mean":11.6,"inventory_trees":57,"inventory_canopy_pct":6.4}},{"type":"Feature","geometry":{"type":"Polygon","coordinates":[[[-87.801278,41.875],[-87.79848,41.875],[-87.795618,41.872917],[-87.798416,41.872917],[-87.801278,41.875]]]},"properties":{"id":"18-14","cover":[22,11,15,9,11,11,10,18,10,11,9,13,11,18,13,25,16,10,9,19,11,20,26,12,14,6],"recent_mean":15.6,"inventory_trees":78,"inventory_canopy_pct":10.3}},{"type":"Feature","geometry":{"type":"Polygon","coordinates":[[[-87.79848,41.875],[-87.795682,41.875],[-87.79282,41.872917],[-87.795618,41.872917],[-87.79848,41.875]]]},"properties":{"id":"18-15","cover":[12,10,12,7,8,12,9,19,10,18,7,7,8,15,8,18,8,9,7,15,13,18,17,10,12,13],"recent_mean":14,"inventory_trees":101,"inventory_canopy_pct":11}},{"type":"Feature","geometry":{"type":"Polygon","coordinates":[[[-87.795682,41.875],[-87.792884,41.875],[-87.790022,41.872917],[-87.79282,41.872917],[-87.795682,41.875]]]},"properties":{"id":"18-16","cover":[14,9,11,13,7,7,12,12,7,11,11,8,10,13,8,12,9,8,6,13,14,13,11,5,9,8],"recent_mean":9.2,"inventory_trees":107,"inventory_canopy_pct":13.9}},{"type":"Feature","geometry":{"type":"Polygon","coordinates":[[[-87.792884,41.875],[-87.790086,41.875],[-87.787225,41.872917],[-87.790022,41.872917],[-87.792884,41.875]]]},"properties":{"id":"18-17","cover":[13,15,9,19,11,14,13,18,10,17,11,9,11,13,10,24,13,10,6,15,15,17,9,9,12,9],"recent_mean":11.2,"inventory_trees":99,"inventory_canopy_pct":11.9}},{"type":"Feature","geometry":{"type":"Polygon","coordinates":[[[-87.790086,41.875],[-87.787288,41.875],[-87.784427,41.872917],[-87.787225,41.872917],[-87.790086,41.875]]]},"properties":{"id":"18-18","cover":[9,18,9,11,12,13,14,16,10,19,10,9,12,12,11,25,16,13,9,16,16,20,18,15,16,9],"recent_mean":15.6,"inventory_trees":94,"inventory_canopy_pct":16.8}},{"type":"Feature","geometry":{"type":"Polygon","coordinates":[[[-87.787288,41.875],[-87.78449,41.875],[-87.781629,41.872917],[-87.784427,41.872917],[-87.787288,41.875]]]},"properties":{"id":"18-19","cover":[10,18,11,10,11,17,8,15,11,12,8,10,10,7,11,22,16,12,9,16,13,20,15,15,15,9],"recent_mean":14.8,"inventory_trees":101,"inventory_canopy_pct":18.6}},{"type":"Feature","geometry":{"type":"Polygon","coordinates":[[[-87.78449,41.875],[-87.781692,41.875],[-87.778831,41.872917],[-87.781629,41.872917],[-87.78449,41.875]]]},"properties":{"id":"18-20","cover":[9,20,12,10,11,17,9,11,11,11,9,10,11,7,13,23,13,13,7,14,14,18,13,12,15,9],"recent_mean":13.4,"inventory_trees":103,"inventory_canopy_pct":18.4}},{"type":"Feature","geometry":{"type":"Polygon","coordinates":[[[-87.781692,41.875],[-87.778894,41.875],[-87.776033,41.872917],[-87.778831,41.872917],[-87.781692,41.875]]]},"properties":{"id":"18-21","cover":[10,15,9,20,11,23,9,11,15,22,14,11,14,17,12,14,14,13,8,20,23,14,14,14,13,3],"recent_mean":11.6,"inventory_trees":106,"inventory_canopy_pct":19.4}},{"type":"Feature","geometry":{"type":"Polygon","coordinates":[[[-87.778894,41.875],[-87.776096,41.875],[-87.773235,41.872917],[-87.776033,41.872917],[-87.778894,41.875]]]},"properties":{"id":"18-22","cover":[11,14,18,16,14,12,13,11,15,21,14,14,15,7,12,26,14,12,9,22,17,23,12,16,9,3],"recent_mean":12.6,"inventory_trees":91,"inventory_canopy_pct":14.1}},{"type":"Feature","geometry":{"type":"Polygon","coordinates":[[[-87.806809,41.872917],[-87.804011,41.872917],[-87.80115,41.870834],[-87.803948,41.870834],[-87.806809,41.872917]]]},"properties":{"id":"19-11","cover":[8,4,9,4,6,4,6,6,5,6,5,8,9,7,4,9,8,6,5,8,6,7,9,4,6,4],"recent_mean":6,"inventory_trees":33,"inventory_canopy_pct":4.6}},{"type":"Feature","geometry":{"type":"Polygon","coordinates":[[[-87.804011,41.872917],[-87.801214,41.872917],[-87.798352,41.870834],[-87.80115,41.870834],[-87.804011,41.872917]]]},"properties":{"id":"19-12","cover":[9,8,12,12,6,7,13,12,11,10,8,7,9,7,4,17,7,10,6,12,17,12,12,13,12,4],"recent_mean":10.6,"inventory_trees":71,"inventory_canopy_pct":11.8}},{"type":"Feature","geometry":{"type":"Polygon","coordinates":[[[-87.801214,41.872917],[-87.798416,41.872917],[-87.795554,41.870834],[-87.798352,41.870834],[-87.801214,41.872917]]]},"properties":{"id":"19-13","cover":[8,9,14,12,10,13,7,13,12,17,12,7,11,10,7,16,14,9,8,12,12,18,13,13,14,7],"recent_mean":13,"inventory_trees":76,"inventory_canopy_pct":9.3}},{"type":"Feature","geometry":{"type":"Polygon","coordinates":[[[-87.798416,41.872917],[-87.795618,41.872917],[-87.792757,41.870834],[-87.795554,41.870834],[-87.798416,41.872917]]]},"properties":{"id":"19-14","cover":[8,10,12,10,9,8,6,11,8,11,6,7,5,9,4,12,9,6,7,9,7,12,9,11,10,7],"recent_mean":9.8,"inventory_trees":47,"inventory_canopy_pct":7.9}},{"type":"Feature","geometry":{"type":"Polygon","coordinates":[[[-87.795618,41.872917],[-87.79282,41.872917],[-87.789959,41.870834],[-87.792757,41.870834],[-87.795618,41.872917]]]},"properties":{"id":"19-15","cover":[3,8,6,6,9,6,4,8,5,8,4,7,5,10,4,10,9,6,6,9,6,10,11,9,7,4],"recent_mean":8.2,"inventory_trees":57,"inventory_canopy_pct":11.2}},{"type":"Feature","geometry":{"type":"Polygon","coordinates":[[[-87.79282,41.872917],[-87.790022,41.872917],[-87.787161,41.870834],[-87.789959,41.870834],[-87.79282,41.872917]]]},"properties":{"id":"19-16","cover":[8,8,11,6,8,6,6,7,8,11,6,9,5,10,8,11,7,7,6,10,6,11,10,5,8,5],"recent_mean":7.8,"inventory_trees":38,"inventory_canopy_pct":4.3}},{"type":"Feature","geometry":{"type":"Polygon","coordinates":[[[-87.790022,41.872917],[-87.787225,41.872917],[-87.784363,41.870834],[-87.787161,41.870834],[-87.790022,41.872917]]]},"properties":{"id":"19-17","cover":[8,9,11,8,7,6,7,8,8,11,6,8,6,11,10,10,8,9,7,14,11,14,11,5,9,5],"recent_mean":8.8,"inventory_trees":48,"inventory_canopy_pct":5.9}},{"type":"Feature","geometry":{"type":"Polygon","coordinates":[[[-87.787225,41.872917],[-87.784427,41.872917],[-87.781566,41.870834],[-87.784363,41.870834],[-87.787225,41.872917]]]},"properties":{"id":"19-18","cover":[8,9,11,8,7,6,6,9,7,10,6,8,6,10,9,10,8,9,6,14,12,13,11,6,9,5],"recent_mean":8.8,"inventory_trees":42,"inventory_canopy_pct":4.4}},{"type":"Feature","geometry":{"type":"Polygon","coordinates":[[[-87.784427,41.872917],[-87.781629,41.872917],[-87.778768,41.870834],[-87.781566,41.870834],[-87.784427,41.872917]]]},"properties":{"id":"19-19","cover":[8,8,8,6,8,6,7,7,8,10,6,8,8,9,7,16,8,8,7,13,12,14,9,6,9,7],"recent_mean":9,"inventory_trees":67,"inventory_canopy_pct":11.5}},{"type":"Feature","geometry":{"type":"Polygon","coordinates":[[[-87.781629,41.872917],[-87.778831,41.872917],[-87.77597,41.870834],[-87.778768,41.870834],[-87.781629,41.872917]]]},"properties":{"id":"19-20","cover":[9,9,6,12,8,6,8,8,8,9,7,8,7,10,5,15,9,8,7,13,12,13,8,5,9,8],"recent_mean":8.6,"inventory_trees":66,"inventory_canopy_pct":7.8}},{"type":"Feature","geometry":{"type":"Polygon","coordinates":[[[-87.778831,41.872917],[-87.776033,41.872917],[-87.773172,41.870834],[-87.77597,41.870834],[-87.778831,41.872917]]]},"properties":{"id":"19-21","cover":[8,12,9,15,9,11,8,8,9,10,11,9,10,11,7,19,12,13,8,15,10,17,8,10,10,3],"recent_mean":9.6,"inventory_trees":94,"inventory_canopy_pct":11.9}},{"type":"Feature","geometry":{"type":"Polygon","coordinates":[[[-87.806745,41.870834],[-87.803948,41.870834],[-87.801086,41.86875],[-87.803884,41.86875],[-87.806745,41.870834]]]},"properties":{"id":"20-10","cover":[8,13,9,9,12,13,11,7,8,13,8,10,19,17,8,12,12,10,9,16,20,27,23,13,17,3],"recent_mean":16.6,"inventory_trees":43,"inventory_canopy_pct":7}},{"type":"Feature","geometry":{"type":"Polygon","coordinates":[[[-87.803948,41.870834],[-87.80115,41.870834],[-87.798288,41.86875],[-87.801086,41.86875],[-87.803948,41.870834]]]},"properties":{"id":"20-11","cover":[11,15,14,11,9,16,11,11,10,12,8,12,11,6,10,17,19,10,9,17,23,30,30,17,20,3],"recent_mean":20,"inventory_trees":105,"inventory_canopy_pct":21.3}},{"type":"Feature","geometry":{"type":"Polygon","coordinates":[[[-87.80115,41.870834],[-87.798352,41.870834],[-87.795491,41.86875],[-87.798288,41.86875],[-87.80115,41.870834]]]},"properties":{"id":"20-12","cover":[11,15,25,13,7,13,15,14,9,14,9,10,11,9,10,16,18,11,8,18,23,26,30,16,20,3],"recent_mean":19,"inventory_trees":108,"inventory_canopy_pct":19.3}},{"type":"Feature","geometry":{"type":"Polygon","coordinates":[[[-87.798352,41.870834],[-87.795554,41.870834],[-87.792693,41.86875],[-87.795491,41.86875],[-87.798352,41.870834]]]},"properties":{"id":"20-13","cover":[10,15,15,30,10,15,11,11,9,15,8,10,14,13,8,16,14,10,7,17,19,15,16,14,16,8],"recent_mean":13.8,"inventory_trees":109,"inventory_canopy_pct":19}},{"type":"Feature","geometry":{"type":"Polygon","coordinates":[[[-87.795554,41.870834],[-87.792757,41.870834],[-87.789895,41.86875],[-87.792693,41.86875],[-87.795554,41.870834]]]},"properties":{"id":"20-14","cover":[9,12,15,22,9,19,11,14,11,18,10,10,12,7,8,18,15,9,8,16,22,15,18,12,13,8],"recent_mean":13.2,"inventory_trees":115,"inventory_canopy_pct":20.2}},{"type":"Feature","geometry":{"type":"Polygon","coordinates":[[[-87.792757,41.870834],[-87.789959,41.870834],[-87.787098,41.86875],[-87.789895,41.86875],[-87.792757,41.870834]]]},"properties":{"id":"20-15","cover":[10,19,16,23,12,17,10,17,13,20,11,10,12,16,17,24,11,14,8,17,19,23,18,15,18,8],"recent_mean":16.4,"inventory_trees":125,"inventory_canopy_pct":22.7}},{"type":"Feature","geometry":{"type":"Polygon","coordinates":[[[-87.789959,41.870834],[-87.787161,41.870834],[-87.7843,41.86875],[-87.787098,41.86875],[-87.789959,41.870834]]]},"properties":{"id":"20-16","cover":[12,16,14,10,12,17,9,11,14,20,9,10,15,14,10,21,17,12,7,16,18,21,29,16,17,8],"recent_mean":18.2,"inventory_trees":94,"inventory_canopy_pct":18.5}},{"type":"Feature","geometry":{"type":"Polygon","coordinates":[[[-87.787161,41.870834],[-87.784363,41.870834],[-87.781503,41.86875],[-87.7843,41.86875],[-87.787161,41.870834]]]},"properties":{"id":"20-17","cover":[8,12,12,14,9,16,13,12,11,17,8,8,11,9,7,20,13,10,7,15,15,20,22,12,14,9],"recent_mean":15.4,"inventory_trees":99,"inventory_canopy_pct":15.4}},{"type":"Feature","geometry":{"type":"Polygon","coordinates":[[[-87.784363,41.870834],[-87.781566,41.870834],[-87.778705,41.86875],[-87.781503,41.86875],[-87.784363,41.870834]]]},"properties":{"id":"20-18","cover":[8,15,11,12,8,10,10,9,10,10,9,8,8,8,8,15,10,9,7,15,14,20,13,12,13,10],"recent_mean":13.6,"inventory_trees":109,"inventory_canopy_pct":9}},{"type":"Feature","geometry":{"type":"Polygon","coordinates":[[[-87.781566,41.870834],[-87.778768,41.870834],[-87.775907,41.86875],[-87.778705,41.86875],[-87.781566,41.870834]]]},"properties":{"id":"20-19","cover":[8,6,7,7,7,11,9,10,10,11,8,9,10,13,7,17,9,8,7,16,12,15,13,13,10,2],"recent_mean":10.6,"inventory_trees":99,"inventory_canopy_pct":8.3}},{"type":"Feature","geometry":{"type":"Polygon","coordinates":[[[-87.778768,41.870834],[-87.77597,41.870834],[-87.77311,41.86875],[-87.775907,41.86875],[-87.778768,41.870834]]]},"properties":{"id":"20-20","cover":[8,5,11,7,7,10,8,13,8,11,7,7,9,10,7,15,8,7,6,10,11,14,10,9,8,1],"recent_mean":8.4,"inventory_trees":85,"inventory_canopy_pct":9.9}},{"type":"Feature","geometry":{"type":"Polygon","coordinates":[[[-87.806681,41.86875],[-87.803884,41.86875],[-87.801022,41.866667],[-87.80382,41.866667],[-87.806681,41.86875]]]},"properties":{"id":"21-9","cover":[8,12,9,13,14,9,11,7,10,14,7,12,9,7,9,12,12,11,10,16,19,22,18,15,15,3],"recent_mean":14.6,"inventory_trees":50,"inventory_canopy_pct":7.8}},{"type":"Feature","geometry":{"type":"Polygon","coordinates":[[[-87.803884,41.86875],[-87.801086,41.86875],[-87.798225,41.866667],[-87.801022,41.866667],[-87.803884,41.86875]]]},"properties":{"id":"21-10","cover":[10,13,11,15,12,23,12,10,10,17,8,13,9,7,11,12,15,12,11,17,26,30,32,15,23,3],"recent_mean":20.6,"inventory_trees":113,"inventory_canopy_pct":19.1}},{"type":"Feature","geometry":{"type":"Polygon","coordinates":[[[-87.801086,41.86875],[-87.798288,41.86875],[-87.795427,41.866667],[-87.798225,41.866667],[-87.801086,41.86875]]]},"properties":{"id":"21-11","cover":[11,16,25,26,12,12,12,14,9,12,7,10,20,13,10,20,19,11,8,15,22,29,31,16,20,3],"recent_mean":19.8,"inventory_trees":115,"inventory_canopy_pct":19.1}},{"type":"Feature","geometry":{"type":"Polygon","coordinates":[[[-87.798288,41.86875],[-87.795491,41.86875],[-87.79263,41.866667],[-87.795427,41.866667],[-87.798288,41.86875]]]},"properties":{"id":"21-12","cover":[10,14,15,10,9,11,12,11,7,10,6,10,16,12,9,15,17,9,8,23,14,21,14,14,15,3],"recent_mean":13.4,"inventory_trees":90,"inventory_canopy_pct":12.9}},{"type":"Feature","geometry":{"type":"Polygon","coordinates":[[[-87.795491,41.86875],[-87.792693,41.86875],[-87.789832,41.866667],[-87.79263,41.866667],[-87.795491,41.86875]]]},"properties":{"id":"21-13","cover":[9,17,11,26,11,14,9,14,10,16,8,9,18,7,8,19,15,11,8,15,15,19,16,14,14,8],"recent_mean":14.2,"inventory_trees":106,"inventory_canopy_pct":18.7}},{"type":"Feature","geometry":{"type":"Polygon","coordinates":[[[-87.792693,41.86875],[-87.789895,41.86875],[-87.787035,41.866667],[-87.789832,41.866667],[-87.792693,41.86875]]]},"properties":{"id":"21-14","cover":[9,17,11,16,11,16,10,10,9,19,7,10,12,16,8,24,16,11,8,13,24,24,24,15,17,9],"recent_mean":17.8,"inventory_trees":97,"inventory_canopy_pct":16.1}},{"type":"Feature","geometry":{"type":"Polygon","coordinates":[[[-87.789895,41.86875],[-87.787098,41.86875],[-87.784237,41.866667],[-87.787035,41.866667],[-87.789895,41.86875]]]},"properties":{"id":"21-15","cover":[10,16,12,24,12,15,10,11,13,20,11,10,15,17,14,26,19,7,7,21,25,22,20,15,18,8],"recent_mean":16.6,"inventory_trees":103,"inventory_canopy_pct":18.2}},{"type":"Feature","geometry":{"type":"Polygon","coordinates":[[[-87.787098,41.86875],[-87.7843,41.86875],[-87.78144,41.866667],[-87.784237,41.866667],[-87.787098,41.86875]]]},"properties":{"id":"21-16","cover":[10,17,15,22,12,15,11,16,13,18,11,8,12,14,15,24,16,8,7,15,22,22,17,14,18,9],"recent_mean":16,"inventory_trees":102,"inventory_canopy_pct":13.9}},{"type":"Feature","geometry":{"type":"Polygon","coordinates":[[[-87.7843,41.86875],[-87.781503,41.86875],[-87.778642,41.866667],[-87.78144,41.866667],[-87.7843,41.86875]]]},"properties":{"id":"21-17","cover":[13,9,13,14,10,16,9,18,11,15,11,9,11,6,11,23,12,9,8,16,19,28,12,14,16,8],"recent_mean":15.6,"inventory_trees":107,"inventory_canopy_pct":15.2}},{"type":"Feature","geometry":{"type":"Polygon","coordinates":[[[-87.781503,41.86875],[-87.778705,41.86875],[-87.775844,41.866667],[-87.778642,41.866667],[-87.781503,41.86875]]]},"properties":{"id":"21-18","cover":[13,12,12,7,10,16,10,15,10,12,11,8,12,12,11,21,11,9,8,15,15,20,13,12,15,8],"recent_mean":13.6,"inventory_trees":105,"inventory_canopy_pct":11.7}},{"type":"Feature","geometry":{"type":"Polygon","coordinates":[[[-87.778705,41.86875],[-87.775907,41.86875],[-87.773047,41.866667],[-87.775844,41.866667],[-87.778705,41.86875]]]},"properties":{"id":"21-19","cover":[8,8,12,13,10,14,10,21,9,13,9,8,9,12,7,17,9,8,7,15,11,12,10,10,9,3],"recent_mean":8.8,"inventory_trees":95,"inventory_canopy_pct":9.8}},{"type":"Feature","geometry":{"type":"Polygon","coordinates":[[[-87.806617,41.866667],[-87.80382,41.866667],[-87.800959,41.864584],[-87.803756,41.864584],[-87.806617,41.866667]]]},"properties":{"id":"22-8","cover":[7,6,9,8,8,9,9,8,11,10,4,10,10,8,9,15,12,9,7,8,10,12,17,10,11,3],"recent_mean":10.6,"inventory_trees":16,"inventory_canopy_pct":1.9}},{"type":"Feature","geometry":{"type":"Polygon","coordinates":[[[-87.80382,41.866667],[-87.801022,41.866667],[-87.798161,41.864584],[-87.800959,41.864584],[-87.80382,41.866667]]]},"properties":{"id":"22-9","cover":[9,10,10,16,9,12,9,13,12,12,7,10,11,14,8,16,12,9,5,13,14,15,18,12,14,2],"recent_mean":12.2,"inventory_trees":39,"inventory_canopy_pct":5.6}},{"type":"Feature","geometry":{"type":"Polygon","coordinates":[[[-87.801022,41.866667],[-87.798225,41.866667],[-87.795364,41.864584],[-87.798161,41.864584],[-87.801022,41.866667]]]},"properties":{"id":"22-10","cover":[9,15,14,21,8,15,10,17,11,14,8,8,16,15,8,24,16,9,7,15,14,16,19,12,12,3],"recent_mean":12.4,"inventory_trees":56,"inventory_canopy_pct":9.9}},{"type":"Feature","geometry":{"type":"Polygon","coordinates":[[[-87.798225,41.866667],[-87.795427,41.866667],[-87.792566,41.864584],[-87.795364,41.864584],[-87.798225,41.866667]]]},"properties":{"id":"22-11","cover":[7,15,13,17,8,13,10,12,8,12,5,8,11,4,13,15,10,8,6,13,13,14,9,12,10,8],"recent_mean":10.6,"inventory_trees":55,"inventory_canopy_pct":7.4}},{"type":"Feature","geometry":{"type":"Polygon","coordinates":[[[-87.795427,41.866667],[-87.79263,41.866667],[-87.789769,41.864584],[-87.792566,41.864584],[-87.795427,41.866667]]]},"properties":{"id":"22-12","cover":[7,10,13,11,6,7,7,8,8,10,5,7,11,7,8,15,11,8,6,14,9,14,10,11,10,8],"recent_mean":10.6,"inventory_trees":55,"inventory_canopy_pct":7.2}},{"type":"Feature","geometry":{"type":"Polygon","coordinates":[[[-87.79263,41.866667],[-87.789832,41.866667],[-87.786972,41.864584],[-87.789769,41.864584],[-87.79263,41.866667]]]},"properties":{"id":"22-13","cover":[7,8,10,14,8,9,6,11,9,10,9,7,8,12,9,16,9,9,7,14,12,13,14,10,11,5],"recent_mean":10.6,"inventory_trees":56,"inventory_canopy_pct":7.9}},{"type":"Feature","geometry":{"type":"Polygon","coordinates":[[[-87.789832,41.866667],[-87.787035,41.866667],[-87.784174,41.864584],[-87.786972,41.864584],[-87.789832,41.866667]]]},"properties":{"id":"22-14","cover":[7,9,12,11,7,6,5,10,8,10,8,7,5,12,9,19,8,9,7,12,11,12,12,5,10,4],"recent_mean":8.6,"inventory_trees":50,"inventory_canopy_pct":10.2}},{"type":"Feature","geometry":{"type":"Polygon","coordinates":[[[-87.787035,41.866667],[-87.784237,41.866667],[-87.781377,41.864584],[-87.784174,41.864584],[-87.787035,41.866667]]]},"properties":{"id":"22-15","cover":[8,7,10,11,7,11,6,12,7,15,7,9,10,10,8,15,8,9,6,12,11,11,8,5,10,3],"recent_mean":7.4,"inventory_trees":42,"inventory_canopy_pct":6.4}},{"type":"Feature","geometry":{"type":"Polygon","coordinates":[[[-87.784237,41.866667],[-87.78144,41.866667],[-87.778579,41.864584],[-87.781377,41.864584],[-87.784237,41.866667]]]},"properties":{"id":"22-16","cover":[4,9,10,10,8,13,7,10,7,10,6,9,6,10,5,10,8,9,7,13,13,11,7,5,11,4],"recent_mean":7.6,"inventory_trees":46,"inventory_canopy_pct":5.3}},{"type":"Feature","geometry":{"type":"Polygon","coordinates":[[[-87.78144,41.866667],[-87.778642,41.866667],[-87.775782,41.864584],[-87.778579,41.864584],[-87.78144,41.866667]]]},"properties":{"id":"22-17","cover":[4,10,7,14,7,11,7,12,6,8,8,10,5,12,10,13,12,9,5,12,10,8,7,13,9,2],"recent_mean":7.8,"inventory_trees":45,"inventory_canopy_pct":5.2}},{"type":"Feature","geometry":{"type":"Polygon","coordinates":[[[-87.778642,41.866667],[-87.775844,41.866667],[-87.772984,41.864584],[-87.775782,41.864584],[-87.778642,41.866667]]]},"properties":{"id":"22-18","cover":[3,8,10,15,7,6,6,8,5,8,7,8,6,7,9,11,7,9,8,10,5,7,7,4,9,1],"recent_mean":5.6,"inventory_trees":43,"inventory_canopy_pct":3.1}}]}