{"type":"FeatureCollection","features":[{"type":"Feature","geometry":{"type":"Polygon","coordinates":[[[-87.80572,41.90878],[-87.79035,41.90896],[-87.79001,41.89945],[-87.78991,41.89627],[-87.80526,41.89611],[-87.80572,41.90878]]]},"properties":{"zone":"Mann","trees":2891,"species_count":137,"genus_count":54,"top_species":"MAPLE-NORWAY","top_species_latin":"Acer platanoides","top_species_share":0.085,"top_genus":"Acer","top_genus_common":"MAPLE","top_genus_share":0.216,"shannon":3.916,"simpson":0.968,"median_dbh_in":13,"median_height_ft":30,"median_spread_ft":20,"canopy_sqft":1950949,"canopy_covered_sqft":1888436,"blocks":113,"blocks_10plus_trees":109,"blocks_genus_30pct_plus":30,"share_blocks_genus_30pct_plus":0.275,"median_block_simpson":0.922,"canopy_sqft_per_street_ft":24.2,"area_sqft":19349430,"canopy_cover_pct":9.8,"genera":[["Acer","MAPLE",624],["Quercus","OAK",364],["Ulmus","ELM",284],["Tilia","LINDEN",252],["Celtis","HACKBERRY",207],["Gleditsia","HONEYLOCUST",152],["Gymnocladus","KENTUCKY COFFEETREE",138],["Platanus","LONDON PLANETREE",129],["Ginkgo","GINKGO",88],["Aesculus","HORSECHESTNUT",65]]}},{"type":"Feature","geometry":{"type":"Polygon","coordinates":[[[-87.79028,41.90901],[-87.77572,41.90916],[-87.77544,41.90205],[-87.79009,41.90182],[-87.79028,41.90901]]]},"properties":{"zone":"Hatch","trees":1813,"species_count":109,"genus_count":46,"top_species":"HACKBERRY","top_species_latin":"Celtis occidentalis","top_species_share":0.092,"top_genus":"Acer","top_genus_common":"MAPLE","top_genus_share":0.197,"shannon":3.84,"simpson":0.967,"median_dbh_in":12,"median_height_ft":30,"median_spread_ft":20,"canopy_sqft":857223,"canopy_covered_sqft":839700,"blocks":75,"blocks_10plus_trees":71,"blocks_genus_30pct_plus":12,"share_blocks_genus_30pct_plus":0.169,"median_block_simpson":0.922,"canopy_sqft_per_street_ft":17.1,"area_sqft":10373690,"canopy_cover_pct":8.1,"genera":[["Acer","MAPLE",358],["Quercus","OAK",227],["Celtis","HACKBERRY",173],["Ulmus","ELM",167],["Tilia","LINDEN",132],["Gleditsia","HONEYLOCUST",117],["Gymnocladus","KENTUCKY COFFEETREE",94],["Platanus","LONDON PLANETREE",84],["Ginkgo","GINKGO",46],["Malus","APPLE",38]]}},{"type":"Feature","geometry":{"type":"Polygon","coordinates":[[[-87.77828,41.89315],[-87.78981,41.89304],[-87.79009,41.90182],[-87.77544,41.90205],[-87.77511,41.89469],[-87.77832,41.89465],[-87.77828,41.89315]]]},"properties":{"zone":"Whittier","trees":1886,"species_count":124,"genus_count":47,"top_species":"MAPLE-NORWAY","top_species_latin":"Acer platanoides","top_species_share":0.091,"top_genus":"Acer","top_genus_common":"MAPLE","top_genus_share":0.224,"shannon":3.813,"simpson":0.965,"median_dbh_in":14,"median_height_ft":30,"median_spread_ft":30,"canopy_sqft":1437887,"canopy_covered_sqft":1382512,"blocks":76,"blocks_10plus_trees":75,"blocks_genus_30pct_plus":19,"share_blocks_genus_30pct_plus":0.253,"median_block_simpson":0.924,"canopy_sqft_per_street_ft":29.2,"area_sqft":12423934,"canopy_cover_pct":11.1,"genera":[["Acer","MAPLE",423],["Quercus","OAK",225],["Ulmus","ELM",197],["Celtis","HACKBERRY",174],["Tilia","LINDEN",173],["Gleditsia","HONEYLOCUST",93],["Gymnocladus","KENTUCKY COFFEETREE",77],["Platanus","LONDON PLANETREE",75],["Ginkgo","GINKGO",46],["Taxodium","BALDCYPRESS",45]]}},{"type":"Feature","geometry":{"type":"Polygon","coordinates":[[[-87.78943,41.88167],[-87.80488,41.88148],[-87.80524,41.8961],[-87.78991,41.89627],[-87.78977,41.89165],[-87.78943,41.88167]]]},"properties":{"zone":"Holmes","trees":2455,"species_count":127,"genus_count":51,"top_species":"MAPLE-NORWAY","top_species_latin":"Acer platanoides","top_species_share":0.095,"top_genus":"Acer","top_genus_common":"MAPLE","top_genus_share":0.202,"shannon":3.805,"simpson":0.964,"median_dbh_in":15,"median_height_ft":40,"median_spread_ft":30,"canopy_sqft":1951263,"canopy_covered_sqft":1880528,"blocks":136,"blocks_10plus_trees":112,"blocks_genus_30pct_plus":44,"share_blocks_genus_30pct_plus":0.393,"median_block_simpson":0.903,"canopy_sqft_per_street_ft":22.3,"area_sqft":22329124,"canopy_cover_pct":8.4,"genera":[["Acer","MAPLE",496],["Quercus","OAK",286],["Tilia","LINDEN",273],["Ulmus","ELM",236],["Gleditsia","HONEYLOCUST",164],["Celtis","HACKBERRY",151],["Gymnocladus","KENTUCKY COFFEETREE",126],["Ginkgo","GINKGO",120],["Platanus","LONDON PLANETREE",75],["Pyrus","PEAR",55]]}},{"type":"Feature","geometry":{"type":"Polygon","coordinates":[[[-87.77472,41.88207],[-87.77897,41.88201],[-87.77947,41.88192],[-87.78,41.88182],[-87.78106,41.88178],[-87.78224,41.88177],[-87.78469,41.88172],[-87.78706,41.88166],[-87.78943,41.88167],[-87.78981,41.89304],[-87.77825,41.89314],[-87.77832,41.89465],[-87.77511,41.89469],[-87.77472,41.88207]]]},"properties":{"zone":"Beye","trees":2309,"species_count":126,"genus_count":51,"top_species":"MAPLE-NORWAY","top_species_latin":"Acer platanoides","top_species_share":0.117,"top_genus":"Acer","top_genus_common":"MAPLE","top_genus_share":0.223,"shannon":3.835,"simpson":0.963,"median_dbh_in":15,"median_height_ft":40,"median_spread_ft":30,"canopy_sqft":2222736,"canopy_covered_sqft":2117408,"blocks":105,"blocks_10plus_trees":96,"blocks_genus_30pct_plus":24,"share_blocks_genus_30pct_plus":0.25,"median_block_simpson":0.91,"canopy_sqft_per_street_ft":33.7,"area_sqft":16987836,"canopy_cover_pct":12.5,"genera":[["Acer","MAPLE",514],["Quercus","OAK",259],["Tilia","LINDEN",212],["Celtis","HACKBERRY",180],["Ulmus","ELM",171],["Gleditsia","HONEYLOCUST",116],["Platanus","LONDON PLANETREE",106],["Ginkgo","GINKGO",100],["Gymnocladus","KENTUCKY COFFEETREE",94],["Catalpa","CATALPA",51]]}},{"type":"Feature","geometry":{"type":"Polygon","coordinates":[[[-87.80485,41.88148],[-87.79106,41.88165],[-87.79098,41.87979],[-87.79179,41.8798],[-87.79173,41.87798],[-87.79301,41.87801],[-87.79252,41.86521],[-87.80423,41.86502],[-87.80485,41.88148]]]},"properties":{"zone":"Lincoln","trees":2805,"species_count":150,"genus_count":57,"top_species":"MAPLE-NORWAY","top_species_latin":"Acer platanoides","top_species_share":0.09,"top_genus":"Acer","top_genus_common":"MAPLE","top_genus_share":0.202,"shannon":3.939,"simpson":0.967,"median_dbh_in":15,"median_height_ft":40,"median_spread_ft":30,"canopy_sqft":2380954,"canopy_covered_sqft":2245740,"blocks":121,"blocks_10plus_trees":105,"blocks_genus_30pct_plus":28,"share_blocks_genus_30pct_plus":0.267,"median_block_simpson":0.916,"canopy_sqft_per_street_ft":28.9,"area_sqft":19734073,"canopy_cover_pct":11.4,"genera":[["Acer","MAPLE",568],["Ulmus","ELM",370],["Quercus","OAK",311],["Tilia","LINDEN",276],["Celtis","HACKBERRY",212],["Gleditsia","HONEYLOCUST",145],["Gymnocladus","KENTUCKY COFFEETREE",123],["Platanus","LONDON PLANETREE",99],["Ginkgo","GINKGO",96],["Taxodium","BALDCYPRESS",62]]}},{"type":"Feature","geometry":{"type":"Polygon","coordinates":[[[-87.7925,41.86525],[-87.7928,41.8726],[-87.78906,41.87245],[-87.7793,41.87153],[-87.77937,41.87273],[-87.77804,41.87274],[-87.77814,41.87451],[-87.77445,41.87464],[-87.77409,41.8655],[-87.7925,41.86525]]]},"properties":{"zone":"Irving","trees":1974,"species_count":142,"genus_count":55,"top_species":"MAPLE-NORWAY","top_species_latin":"Acer platanoides","top_species_share":0.094,"top_genus":"Acer","top_genus_common":"MAPLE","top_genus_share":0.208,"shannon":3.915,"simpson":0.966,"median_dbh_in":14,"median_height_ft":40,"median_spread_ft":30,"canopy_sqft":1607828,"canopy_covered_sqft":1507208,"blocks":83,"blocks_10plus_trees":63,"blocks_genus_30pct_plus":12,"share_blocks_genus_30pct_plus":0.19,"median_block_simpson":0.925,"canopy_sqft_per_street_ft":27.5,"area_sqft":13343986,"canopy_cover_pct":11.3,"genera":[["Acer","MAPLE",411],["Quercus","OAK",243],["Tilia","LINDEN",192],["Ulmus","ELM",170],["Celtis","HACKBERRY",154],["Platanus","LONDON PLANETREE",96],["Gymnocladus","KENTUCKY COFFEETREE",92],["Gleditsia","HONEYLOCUST",83],["Ginkgo","GINKGO",65],["Taxodium","BALDCYPRESS",47]]}},{"type":"Feature","geometry":{"type":"Polygon","coordinates":[[[-87.79106,41.88165],[-87.78288,41.88175],[-87.78,41.88182],[-87.77959,41.8819],[-87.77897,41.88201],[-87.77472,41.88207],[-87.77461,41.87891],[-87.77445,41.87464],[-87.77814,41.87451],[-87.77804,41.87274],[-87.77937,41.87273],[-87.7793,41.87153],[-87.78421,41.87199],[-87.78906,41.87245],[-87.7928,41.8726],[-87.79301,41.87801],[-87.79173,41.87798],[-87.79179,41.8798],[-87.79098,41.87979],[-87.79106,41.88165]]]},"properties":{"zone":"Longfellow","trees":2701,"species_count":143,"genus_count":54,"top_species":"HACKBERRY","top_species_latin":"Celtis occidentalis","top_species_share":0.072,"top_genus":"Acer","top_genus_common":"MAPLE","top_genus_share":0.173,"shannon":3.932,"simpson":0.969,"median_dbh_in":14,"median_height_ft":40,"median_spread_ft":30,"canopy_sqft":2227055,"canopy_covered_sqft":2118940,"blocks":105,"blocks_10plus_trees":98,"blocks_genus_30pct_plus":20,"share_blocks_genus_30pct_plus":0.204,"median_block_simpson":0.925,"canopy_sqft_per_street_ft":30.3,"area_sqft":16095886,"canopy_cover_pct":13.2,"genera":[["Acer","MAPLE",466],["Quercus","OAK",323],["Ulmus","ELM",309],["Tilia","LINDEN",232],["Celtis","HACKBERRY",196],["Gleditsia","HONEYLOCUST",156],["Gymnocladus","KENTUCKY COFFEETREE",130],["Ginkgo","GINKGO",119],["Platanus","LONDON PLANETREE",113],["Taxodium","BALDCYPRESS",68]]}}],"outside":null}