{"type":"FeatureCollection","features":[{"type":"Feature","properties":{"kind":"village","name":"Village of Oak Park"},"geometry":{"type":"Polygon","coordinates":[[[-87.80574800015721,41.908903999725666],[-87.80574499978417,41.908838000088515],[-87.80574200030942,41.908771999714574],[-87.80573800011148,41.90867999993036],[-87.80573700028657,41.90866299973769],[-87.8057260004159,41.90839899978303],[-87.80571800001998,41.90703699987128],[-87.80569700010359,41.9066710002871],[-87.80569200008071,41.90657299984503],[-87.80565400044587,41.905574999997945],[-87.80564100002708,41.905210000238775],[-87.80562699978339,41.90483899993139],[-87.80558599977552,41.9037290000663],[-87.80557300025502,41.90335900005739],[-87.80555999983623,41.9029930001147],[-87.8055220002014,41.90189799977151],[-87.80550999960752,41.901532999718654],[-87.80550299993482,41.90131299977814],[-87.80549799991195,41.90116899983215],[-87.80549600026212,41.90109299974827],[-87.80547100014776,41.900406000164296],[-87.80545799972899,41.900079999881065],[-87.80544500020852,41.8997180002745],[-87.8054309999648,41.89935200018931],[-87.80538999995692,41.89825499967551],[-87.80537700043645,41.897890000195886],[-87.80537099969035,41.8977239999586],[-87.80536900004053,41.897667000172355],[-87.80536099964462,41.89744400003879],[-87.8053539999719,41.897253000303756],[-87.80535300014701,41.897227000309684],[-87.80534700029924,41.89706199999748],[-87.80534099955311,41.89690299980397],[-87.80533999972822,41.89686899982898],[-87.80533300005551,41.896675999745845],[-87.8053249996596,41.89647200023654],[-87.80532300000976,41.896426999844046],[-87.80531700016199,41.89626899973054],[-87.80531499961386,41.89623300010705],[-87.80531100031422,41.89612600010334],[-87.80530999959097,41.896091000057005],[-87.8053039997432,41.895936000098686],[-87.80528700002475,41.895470999972815],[-87.80528200000188,41.89531700018573],[-87.80527299978107,41.89509799990106],[-87.80524699984178,41.89444200024311],[-87.80523900034419,41.8942239999885],[-87.80522900029845,41.89398500013957],[-87.80520199963595,41.89327099968202],[-87.80519400013834,41.89303299998481],[-87.80518699956734,41.89286300032685],[-87.80516800019907,41.892355000076705],[-87.8051620003513,41.89218599967045],[-87.80515899997825,41.892111999703964],[-87.80515200030554,41.89188999995891],[-87.8051499997574,41.89181700004284],[-87.80514399990963,41.891658999893025],[-87.80514200025979,41.89160900014508],[-87.80513899988676,41.891501000021066],[-87.80512499964304,41.89103799984718],[-87.80512399981815,41.89098699987556],[-87.80512200016832,41.890779999690835],[-87.8051210003434,41.890731000333915],[-87.80511899979527,41.890586000188044],[-87.80511899979527,41.890537999758294],[-87.80511700014546,41.890328000212314],[-87.80511399977242,41.890251000183554],[-87.80511100029766,41.89014499993996],[-87.80509700005396,41.889742999890856],[-87.80508100016044,41.88922799987778],[-87.80507399958944,41.889011000320956],[-87.8050710001147,41.88896699979083],[-87.8050490003734,41.888575000113995],[-87.80504199980238,41.888428999977826],[-87.80502099988598,41.887992000026784],[-87.80501400021329,41.887846999682466],[-87.80500699964227,41.88770099988876],[-87.80500499999245,41.88765600000417],[-87.80499900014466,41.887508000189925],[-87.80499300029689,41.88726599989958],[-87.80498999992385,41.88712099991372],[-87.80498900009893,41.88709300021059],[-87.80498800027402,41.88704199976449],[-87.80498599972589,41.88701000015875],[-87.80498599972589,41.88698300020728],[-87.80498400007605,41.88692600019794],[-87.80498300025116,41.886877999693034],[-87.804980999703,41.886798000108904],[-87.8049790000532,41.88675700014112],[-87.80497700040337,41.886700999734806],[-87.80497200038049,41.88655899989368],[-87.80496300015966,41.8863270001335],[-87.80495999978662,41.886217000148804],[-87.80494700026614,41.885874999910726],[-87.8049380000453,41.88563799989785],[-87.80492899982448,41.88540200016843],[-87.80492100032687,41.88517800018563],[-87.80489700003743,41.88450799988469],[-87.8048889996415,41.884284999953955],[-87.8048819999688,41.884071999710265],[-87.8048660000753,41.88354099978841],[-87.8048600002275,41.88343399992487],[-87.80485100000666,41.88322200004731],[-87.80484400033397,41.88308099969193],[-87.80482599989232,41.88285499986783],[-87.80479999995303,41.88252400026887],[-87.80477900003663,41.88208500030156],[-87.8047699998158,41.88175599982207],[-87.80475999977007,41.88138999980473],[-87.80474999972434,41.88103999999818],[-87.80474399987655,41.880778999901715],[-87.80472899980793,41.8801680001759],[-87.80472499960997,41.87998999977755],[-87.80472399978505,41.87990400012885],[-87.80471999958709,41.879641000244035],[-87.80471299991441,41.87938200029139],[-87.80471100026459,41.879344000006014],[-87.80470600024171,41.879123999881116],[-87.80468699997513,41.878640999680336],[-87.80467899957922,41.87845400030757],[-87.80466799970857,41.87815799984212],[-87.80466299968569,41.87808500028705],[-87.8046490003403,41.87786599978396],[-87.80464500014234,41.8777929998954],[-87.80463699974644,41.87767800020418],[-87.80462900024882,41.8774309997199],[-87.80460900015733,41.87681199974454],[-87.80459599973854,41.876397999819986],[-87.80459400008871,41.87634500026768],[-87.80458200039315,41.875983999889094],[-87.8045720003474,41.87568600006903],[-87.80456700032452,41.87554699976533],[-87.80456200030167,41.875389000179005],[-87.80452399976853,41.87423700019469],[-87.80452100029378,41.87412400012777],[-87.80451000042312,41.873801000172584],[-87.80450700005008,41.87371500022207],[-87.80450600022517,41.87367499989456],[-87.80450500040027,41.873637000229124],[-87.80450399967702,41.873603999920455],[-87.80450200002721,41.873565000202554],[-87.80450000037739,41.87348500000362],[-87.80449500035452,41.873337000140886],[-87.80449299980637,41.8733010003032],[-87.80449000033164,41.87317699974101],[-87.80448299976064,41.873003000013824],[-87.80447699991285,41.87280099986703],[-87.8044660000422,41.87248099999686],[-87.80446100001934,41.8723069997128],[-87.80444799960054,41.87194099976056],[-87.8044090001408,41.870843000039436],[-87.804395999722,41.87047799979025],[-87.80438300020153,41.87011899984886],[-87.80434499966837,41.869041999968836],[-87.80433299997281,41.86868299999031],[-87.80431999955402,41.86831700002568],[-87.80428199991918,41.86722300003857],[-87.80427000022362,41.866857999858034],[-87.80425500015501,41.86648200027708],[-87.80421699962186,41.865485000277936],[-87.80421300032222,41.86535499977772],[-87.80419900007851,41.86498000019884],[-87.80402599982615,41.86497699976518],[-87.80401300030566,41.86497699976518],[-87.80350699996737,41.864981999818866],[-87.80333500043822,41.86498400010785],[-87.80324500002655,41.86498400010785],[-87.80305300040594,41.86498400010785],[-87.80297499968982,41.86498500025229],[-87.80288600000135,41.864988000016574],[-87.8026640002435,41.86499199992509],[-87.80199899989655,41.86500800022555],[-87.80177799996363,41.8650139997518],[-87.80174000032879,41.8650139997518],[-87.80162700035088,41.86501700018371],[-87.80158999964264,41.865018000327694],[-87.8013269998769,41.86502200023429],[-87.80053900040461,41.865036000239996],[-87.8002769995655,41.865041000289075],[-87.8000160003479,41.86504500019423],[-87.79923600037323,41.865059000194904],[-87.79897600008222,41.865064000242135],[-87.79871300031648,41.8650680001459],[-87.79792499994589,41.86508200014149],[-87.79766300000507,41.86508700018697],[-87.79740199988915,41.8650910000893],[-87.79662100008959,41.86510500007986],[-87.79636099979857,41.865110000123536],[-87.79609999968267,41.86511400002442],[-87.79603500028365,41.865116000309214],[-87.79570899987041,41.86512099968308],[-87.79538500000533,41.865126999867734],[-87.79531999970798,41.865128000009946],[-87.79506000031532,41.86513300005182],[-87.79479699965125,41.865135999809155],[-87.79439099977039,41.86514300013441],[-87.79400900017896,41.86515099993176],[-87.79374700023816,41.865157000113584],[-87.79350299984068,41.86516100001153],[-87.79277399991962,41.86517399984529],[-87.79253200007028,41.865178999883575],[-87.79131299970446,41.86519900003275],[-87.79008599984104,41.8652200003165],[-87.78885800015271,41.86524300020521],[-87.78861299993031,41.86524599995738],[-87.78788099963622,41.865258999773864],[-87.78763700013707,41.8652639998055],[-87.78739100008978,41.865267000225685],[-87.78665600032093,41.8652800000379],[-87.78641199992346,41.865283999928145],[-87.78616500005126,41.86528799981814],[-87.78542699990938,41.86530199976556],[-87.78518099986208,41.86530699979384],[-87.78493599963969,41.86531000021201],[-87.7842040002439,41.86532300001547],[-87.78395999984642,41.86532699990303],[-87.78382599995213,41.86532900018116],[-87.7836479996769,41.86533300006835],[-87.78342500009414,41.8653390002331],[-87.78329200002474,41.865341999980764],[-87.78317499984888,41.86534400025849],[-87.78301099981734,41.86534900028347],[-87.78282599986943,41.86534900028347],[-87.7827100004168,41.8653499997532],[-87.78246799966912,41.86535200003067],[-87.7817899998017,41.86535900033228],[-87.78174200012113,41.86535900033228],[-87.78150100009671,41.865362000079],[-87.78125400022451,41.8653639996871],[-87.78051600008261,41.865373999733556],[-87.78027099986022,41.865378000286874],[-87.77904800019476,41.865392000214584],[-87.77781600030846,41.865407999746004],[-87.77658799972183,41.86542600021746],[-87.77634199967453,41.86542899996109],[-87.77560400043096,41.86544000013472],[-87.77535900020857,41.865444000014904],[-87.77511399998617,41.865446000289424],[-87.77438300041531,41.86545500018594],[-87.77413900001784,41.865459000065236],[-87.77413900001784,41.865704999853236],[-87.7741430002158,41.86582499966742],[-87.77414599969053,41.86591500004921],[-87.77416999997997,41.866601999970854],[-87.77418099985063,41.86692299995103],[-87.77419500009432,41.867288999868855],[-87.7742079996148,41.867654000264544],[-87.77425000034592,41.86874900032022],[-87.7742639996913,41.869113999738566],[-87.77427000043741,41.86937299982853],[-87.77427399973706,41.86953000016511],[-87.77428499960769,41.86994499982454],[-87.77428600033093,41.87002300030919],[-87.77427899975991,41.87015099988633],[-87.77427600028518,41.870212999788],[-87.77427600028518,41.870410999848],[-87.77427600028518,41.870453000329206],[-87.77427600028518,41.87050800020092],[-87.77427899975991,41.870580999714285],[-87.77428100030805,41.870624000140026],[-87.77428600033093,41.87074700024921],[-87.77428700015584,41.87077200026417],[-87.77430100039955,41.87092400025197],[-87.77430800007224,41.87099399980794],[-87.7743120002702,41.871035999906084],[-87.77431499974493,41.87106399995619],[-87.77431700029307,41.87108500032016],[-87.77431800011799,41.871106000008346],[-87.77431999976781,41.87112500026175],[-87.77432599961558,41.8711829996978],[-87.77433099963845,41.87124099975012],[-87.77434499988216,41.87141400021646],[-87.77434999990503,41.87154599985133],[-87.77437500001938,41.87213200026027],[-87.77438500006514,41.87230999980244],[-87.77439299956274,41.87246400020142],[-87.7743969997607,41.87254000023556],[-87.77440900035457,41.87277099986366],[-87.77441100000439,41.87282599974763],[-87.77441900040033,41.87299699989945],[-87.77442000022523,41.87304600014806],[-87.77442799972283,41.87337599999785],[-87.77444000031673,41.873849999804875],[-87.77445799986006,41.87436600002692],[-87.77446999955562,41.87469599975045],[-87.77447999960137,41.87503900028013],[-87.77449899986794,41.87568200016078],[-87.77451300011165,41.876071000101966],[-87.77452599963212,41.876414999906814],[-87.77453400002805,41.876652999979214],[-87.77455800031748,41.877370000081584],[-87.77456699964002,41.87760899988878],[-87.77457099983796,41.877731999933744],[-87.77458300043185,41.878054000148474],[-87.77458400025677,41.87810099998596],[-87.77458900027963,41.878224999690154],[-87.77460299962502,41.878597000034524],[-87.77461199984586,41.87881799989519],[-87.77463399958717,41.87941099994833],[-87.7746360001353,41.87948399999521],[-87.77463899961003,41.87955699995864],[-87.77465399967863,41.880044000228835],[-87.77465799987661,41.8801509997497],[-87.7746639997244,41.880337000271844],[-87.77467100029538,41.88058699992662],[-87.7746720001203,41.88061800017413],[-87.77468899983874,41.88106500000019],[-87.77470499973226,41.8815410000714],[-87.77471200030328,41.881822000029665],[-87.7747209996258,41.88210300008984],[-87.77472999984661,41.88237699980824],[-87.77473300021967,41.882507999671],[-87.77473800024254,41.88265099968932],[-87.77475800033403,41.88332299978332],[-87.77477000002959,41.883725999954734],[-87.77477800042551,41.88399400031944],[-87.77478000007534,41.88406299975967],[-87.77478199972515,41.884131999794235],[-87.77479000012109,41.884374999758776],[-87.77481400041052,41.88510400012625],[-87.77482299973305,41.88534800023248],[-87.77482399955795,41.88539299973644],[-87.77482899958082,41.88552899988745],[-87.77483100012897,41.88557499975501],[-87.77488100035767,41.88707199975648],[-87.77488899985528,41.88714199968301],[-87.7748899996802,41.887238000260005],[-87.77489100040343,41.88732600032782],[-87.77489300005325,41.887411000225065],[-87.77489399987816,41.887459000329514],[-87.77489800007612,41.8875859999721],[-87.77489999972593,41.88767299977111],[-87.77490899994677,41.88793399979481],[-87.77491300014472,41.888020999788615],[-87.7749180001676,41.8882169999556],[-87.77491999981743,41.88825000007468],[-87.77492800021335,41.888477999763005],[-87.77493099968807,41.88855799991837],[-87.77493400006112,41.888638999747876],[-87.77493800025908,41.88877300013199],[-87.77493800025908,41.888805000192164],[-87.77494199955872,41.88890700023507],[-87.77494599975668,41.88900099995993],[-87.77495199960447,41.88920400016025],[-87.77495400015262,41.8892500000567],[-87.77496199965023,41.88949800009072],[-87.77497000004614,41.889758000257494],[-87.77497099987104,41.889813000234334],[-87.77497900026698,41.89001700028203],[-87.7749819997417,41.890112000131076],[-87.77499099996253,41.890399000330326],[-87.77499400033557,41.89049500002529],[-87.77499500016049,41.89052100008501],[-87.77499699981033,41.8905949998885],[-87.7750019998332,41.890760000189886],[-87.77500600003115,41.89089900016974],[-87.77501000022912,41.89099999980662],[-87.77501500025197,41.89117499975279],[-87.7750169999018,41.89121299968925],[-87.7750239995745,41.89142600019903],[-87.77503000032058,41.89162199994959],[-87.77503199997042,41.89170299990626],[-87.77503600016837,41.89181799976741],[-87.7750379998182,41.8918800000486],[-87.77503899964312,41.8918970000289],[-87.775043999666,41.89207999996306],[-87.77504600021413,41.892118000029804],[-87.7750520000619,41.892338999934736],[-87.77505799990968,41.89252199993996],[-87.77505999955952,41.89262999967505],[-87.77506299993256,41.89270500008955],[-87.7750649995824,41.89276000020379],[-87.77506700013052,41.89281399989299],[-87.77506899978034,41.892896999759664],[-87.77507600035135,41.89314699975377],[-87.77507899982608,41.893231000227566],[-87.77508200019915,41.893326999678564],[-87.77508200019915,41.89334500031184],[-87.77508999969673,41.89356399992039],[-87.77509300006977,41.89368700001248],[-87.77509700026773,41.893802000313805],[-87.77510399994044,41.8939839997802],[-87.77510999978823,41.894164999708856],[-87.77511300016128,41.894264999844765],[-87.77511999983396,41.894487999711004],[-87.77512099965888,41.89452999974858],[-87.7751280002299,41.894711999815314],[-87.77513400007767,41.89489299968694],[-87.7751359997275,41.894935999802655],[-87.77514400012342,41.895161000014085],[-87.77514699959814,41.895248000195345],[-87.77515400016915,41.89543299989488],[-87.77516000001692,41.895617999727165],[-87.77516599986471,41.89580099969914],[-87.77516800041286,41.895847000194244],[-87.77517599991047,41.89607599984018],[-87.77518400030638,41.896303999679326],[-87.77518500013129,41.896349000158494],[-87.77519199980398,41.89653299969265],[-87.77519799965177,41.896715000069534],[-87.7752000001999,41.89676000025906],[-87.77520799969751,41.89698800033094],[-87.77521600009344,41.89721699989765],[-87.77521699991834,41.89726300004148],[-87.77522399959103,41.89744599998045],[-87.7752289996139,41.89762799976141],[-87.77523100016207,41.89767299997627],[-87.77523899965965,41.89790100013191],[-87.77524399968253,41.8981290001422],[-87.77524500040575,41.89817500029782],[-87.7752489997054,41.898358000298],[-87.77525399972828,41.89858400010798],[-87.77525700010132,41.89872000025906],[-87.77525999957605,41.89881100007054],[-87.77528100039076,41.899489999919744],[-87.77528999971328,41.89980599986526],[-87.77530200030716,41.90016899990406],[-87.77531400000272,41.900533999730236],[-87.77534999998774,41.90163200011323],[-87.7753619996833,41.90199799983402],[-87.7753680004294,41.902192000110404],[-87.77537400027718,41.90235999988729],[-87.7753750001021,41.90238500023819],[-87.77539400036866,41.9030980002142],[-87.77540199986628,41.90344800019033],[-87.77541199991201,41.90381100025149],[-87.77541199991201,41.903831999882456],[-87.77541399956183,41.90389500007106],[-87.77541500028507,41.9039169998782],[-87.77542699998062,41.904258000265216],[-87.77546299996564,41.90528300022382],[-87.7754749996612,41.90562500017793],[-87.77547600038443,41.90567599982647],[-87.77548200023222,41.90582899986475],[-87.77548399988204,41.90588100019189],[-87.7754949997527,41.90619199976018],[-87.77550499979844,41.90643600020966],[-87.77552599971483,41.906989999927],[-87.77552999991279,41.90712799986411],[-87.77553400011074,41.90721499978742],[-87.77554099978346,41.90744000019198],[-87.77555099982919,41.90770199981231],[-87.77555400020225,41.90780200014425],[-87.77556099987493,41.90796300022262],[-87.77557400029372,41.90835800030999],[-87.77558599998929,41.9087519998309],[-87.77558900036234,41.90889100009629],[-87.77559799968486,41.909216000064696],[-87.775600000233,41.90925399996322],[-87.77576699973926,41.909251000271155],[-87.77626899987959,41.909244000097694],[-87.77643700010908,41.909242999977344],[-87.77653099982041,41.90924099973662],[-87.7766570002171,41.90924000028472],[-87.77681299985271,41.90923800004389],[-87.77690800028726,41.909236999923465],[-87.77705600042528,41.909234999682546],[-87.77750300031403,41.90922900029645],[-87.77765200027694,41.90922800017581],[-87.77776299970671,41.90922599993461],[-87.77809800034078,41.909222000120565],[-87.77820999959546,41.909220999999825],[-87.77834100001502,41.90921899975841],[-87.77873600002522,41.90921399982307],[-87.77886800026971,41.90921299970227],[-87.77899700014115,41.90921100012913],[-87.77938499958036,41.90920600019317],[-87.77951500017501,41.909205000072234],[-87.77963300017576,41.90920299983031],[-87.77998899982794,41.90919799989373],[-87.78010799965361,41.90919699977267],[-87.78024999994382,41.909195000198984],[-87.7806769997411,41.909189000140636],[-87.78081999985623,41.909188000019434],[-87.78099800013148,41.909185000324214],[-87.78153399970867,41.90917800014351],[-87.78171299980882,41.90917700002214],[-87.78179399999966,41.90917499977934],[-87.78193600028989,41.9091740003264],[-87.78203900022206,41.90917499977934],[-87.78212100023782,41.90917599990075],[-87.7823670002851,41.90917800014351],[-87.7824169996155,41.90917900026488],[-87.78310799990173,41.90917099996205],[-87.78335499977393,41.90916899971906],[-87.78364299965402,41.90916499990139],[-87.78450700019259,41.90915399990014],[-87.78479599989761,41.90915100020338],[-87.7848369999055,41.90915000008158],[-87.78495999992913,41.909147999837934],[-87.78500199976192,41.909147999837934],[-87.78521099999931,41.90914500014084],[-87.78583699998819,41.90913599971173],[-87.78604700005047,41.90913400013614],[-87.78616400022635,41.90913300001408],[-87.78651499985563,41.90913199989199],[-87.7866329998564,41.90913199989199],[-87.78677500014662,41.909128000072],[-87.78707399989736,41.909120999885054],[-87.7872029997688,41.90911900030905],[-87.78734599988393,41.909118000186744],[-87.78752900018202,41.909115999942095],[-87.78807900000295,41.909108999753826],[-87.78826300012595,41.90910800029987],[-87.78835900038541,41.909106000054905],[-87.78864700026551,41.90910200023333],[-87.7887440003499,41.90910200023333],[-87.78897399960535,41.909099999988136],[-87.78966499989156,41.90909299979811],[-87.78989599987025,41.909091999675404],[-87.78995799979452,41.909091000221224],[-87.79014500029058,41.90908699973013],[-87.79020800003977,41.90908699973013],[-87.79038899978974,41.90908400003021],[-87.79093500031101,41.90907699983844],[-87.79111699988589,41.909075000261005],[-87.79117799998527,41.909074000138006],[-87.79136100028337,41.90907099976895],[-87.79142300020764,41.90907099976895],[-87.79160599960743,41.90906800006824],[-87.79215799997648,41.909060999874704],[-87.7923420000995,41.909059000296814],[-87.79239900000091,41.90905800017357],[-87.79257100042835,41.90905499980376],[-87.79262900015466,41.90905499980376],[-87.79281599975242,41.9090520001023],[-87.79337800016721,41.90904499990701],[-87.79356599958987,41.90904300032862],[-87.79362000001655,41.909042000205076],[-87.79378499987298,41.909038999834515],[-87.79384099994948,41.909038999834515],[-87.79403199974519,41.909036000132346],[-87.79460599985555,41.9090289999353],[-87.79479800037447,41.909026999687825],[-87.79484799970488,41.90902600023262],[-87.79500099986576,41.90902299986131],[-87.7950529997443,41.90902299986131],[-87.79524000024037,41.90902000015834],[-87.79580000010701,41.90901299995955],[-87.79598800042798,41.909010999711604],[-87.79609999968267,41.909009000132144],[-87.79643899961637,41.90900400018037],[-87.79655199959427,41.909003000056266],[-87.79668200018892,41.909000999807965],[-87.79707300000118,41.90899499973137],[-87.79720400042076,41.908994000275634],[-87.7974119999349,41.9089909999028],[-87.79760199990571,41.90898900032267],[-87.79800000028897,41.90898399970083],[-87.79803899974871,41.90898300024496],[-87.79812400013752,41.90898200012048],[-87.79824799998609,41.90897999987157],[-87.79828800016905,41.90897899974709],[-87.79840899964455,41.90897700016663],[-87.79844999965245,41.90897700016663],[-87.79867999980621,41.90897399979296],[-87.79937000026752,41.90896500000829],[-87.7996010002462,41.90896299975885],[-87.79973599996542,41.90896000005306],[-87.80014100002137,41.908952999847685],[-87.8002769995655,41.90895199972279],[-87.80045700038886,41.90895000014148],[-87.80099899981386,41.90894299993501],[-87.80117999956383,41.908941999809954],[-87.80136600023496,41.908940000228284],[-87.80192600010163,41.9089350002711],[-87.80211299969937,41.90893400014591],[-87.80268299961176,41.90891700002094],[-87.8027269999927,41.90891700002094],[-87.80288500017645,41.908940000228284],[-87.8029179997884,41.90894600031009],[-87.80367799967159,41.90894600031009],[-87.80394399981039,41.90894600031009],[-87.80399499986402,41.908944000060046],[-87.80414800002488,41.90893799997806],[-87.80419999990342,41.908936999852926],[-87.8043320001479,41.90893300002072],[-87.8045089996999,41.908924000230265],[-87.80480800034896,41.90890899968528],[-87.80541300042147,41.90889700018269],[-87.8054379996375,41.90889700018269],[-87.80574800015721,41.908903999725666]]]}},{"type":"Feature","properties":{"kind":"fade","step":0,"distance_m":0.0},"geometry":{"type":"Polygon","coordinates":[[[-180,-85],[180,-85],[180,85],[-180,85],[-180,-85]],[[-87.805748,41.908904],[-87.803944,41.908946],[-87.802918,41.908946],[-87.802683,41.908917],[-87.7756,41.909254],[-87.774419,41.872997],[-87.774276,41.870508],[-87.774264,41.869114],[-87.774139,41.865459],[-87.783011,41.865349],[-87.804199,41.86498],[-87.804706,41.879124],[-87.804779,41.882085],[-87.804866,41.883541],[-87.805074,41.889011],[-87.805159,41.892112],[-87.805718,41.907037],[-87.805748,41.908904]]]}},{"type":"Feature","properties":{"kind":"fade","step":1,"distance_m":25.1},"geometry":{"type":"Polygon","coordinates":[[[-180,-85],[180,-85],[180,85],[-180,85],[-180,-85]],[[-87.805739,41.90913],[-87.803944,41.909172],[-87.802918,41.909172],[-87.802689,41.909143],[-87.775607,41.90948],[-87.775465,41.909456],[-87.775337,41.909367],[-87.775295,41.909225],[-87.775111,41.9039],[-87.774116,41.873003],[-87.773973,41.870515],[-87.773961,41.869119],[-87.773836,41.865459],[-87.773885,41.865335],[-87.773992,41.865261],[-87.774132,41.865233],[-87.783005,41.865123],[-87.80297,41.864759],[-87.804237,41.864756],[-87.804352,41.864785],[-87.80446,41.864865],[-87.804502,41.864974],[-87.804573,41.866851],[-87.805009,41.879117],[-87.805082,41.882079],[-87.805169,41.883536],[-87.805377,41.889006],[-87.805462,41.892106],[-87.806021,41.907036],[-87.806051,41.908918],[-87.805952,41.909071],[-87.805739,41.90913]]]}},{"type":"Feature","properties":{"kind":"fade","step":2,"distance_m":50.3},"geometry":{"type":"Polygon","coordinates":[[[-180,-85],[180,-85],[180,85],[-180,85],[-180,-85]],[[-87.80573,41.909356],[-87.803944,41.909398],[-87.802918,41.909398],[-87.802673,41.909369],[-87.775615,41.909706],[-87.775329,41.909658],[-87.775185,41.909583],[-87.775075,41.909481],[-87.77501,41.909359],[-87.774991,41.909225],[-87.774032,41.879569],[-87.773812,41.873008],[-87.773669,41.870522],[-87.773657,41.869124],[-87.773532,41.865716],[-87.773535,41.865415],[-87.773577,41.865288],[-87.773705,41.865143],[-87.773845,41.865064],[-87.774126,41.865007],[-87.782999,41.864897],[-87.803043,41.864532],[-87.804274,41.864532],[-87.804557,41.864615],[-87.804721,41.86475],[-87.804806,41.864967],[-87.805313,41.879111],[-87.805386,41.882072],[-87.805473,41.883531],[-87.805681,41.889],[-87.805766,41.8921],[-87.806325,41.907035],[-87.806347,41.908975],[-87.806267,41.909138],[-87.806112,41.909266],[-87.805903,41.909341],[-87.80573,41.909356]]]}},{"type":"Feature","properties":{"kind":"fade","step":3,"distance_m":75.4},"geometry":{"type":"Polygon","coordinates":[[[-180,-85],[180,-85],[180,85],[-180,85],[-180,-85]],[[-87.80572,41.909581],[-87.803944,41.909624],[-87.802918,41.909624],[-87.802649,41.909596],[-87.775622,41.909931],[-87.775359,41.909908],[-87.775194,41.909861],[-87.774977,41.909748],[-87.774812,41.909594],[-87.774714,41.909411],[-87.774688,41.90923],[-87.773729,41.879575],[-87.773509,41.873014],[-87.773366,41.870529],[-87.773354,41.86913],[-87.773229,41.865722],[-87.773233,41.865394],[-87.773296,41.865203],[-87.773488,41.864985],[-87.773698,41.864866],[-87.773859,41.864814],[-87.774119,41.864781],[-87.782992,41.864671],[-87.803037,41.864306],[-87.804403,41.86432],[-87.804736,41.864433],[-87.804982,41.864635],[-87.80506,41.864759],[-87.805109,41.864961],[-87.805616,41.879104],[-87.805689,41.882066],[-87.805776,41.883526],[-87.805984,41.888995],[-87.806069,41.892094],[-87.806628,41.907034],[-87.806658,41.908881],[-87.806629,41.909075],[-87.806478,41.909308],[-87.806294,41.909446],[-87.806064,41.90954],[-87.80572,41.909581]]]}},{"type":"Feature","properties":{"kind":"fade","step":4,"distance_m":100.6},"geometry":{"type":"Polygon","coordinates":[[[-180,-85],[180,-85],[180,85],[-180,85],[-180,-85]],[[-87.805711,41.909807],[-87.803944,41.90985],[-87.802918,41.90985],[-87.802626,41.909823],[-87.775629,41.910157],[-87.775279,41.910125],[-87.775059,41.910063],[-87.774769,41.909913],[-87.77455,41.909707],[-87.774419,41.909463],[-87.774385,41.909235],[-87.773426,41.879581],[-87.773206,41.87302],[-87.773063,41.870536],[-87.773051,41.869135],[-87.772926,41.865727],[-87.772931,41.865372],[-87.773015,41.865118],[-87.773193,41.864893],[-87.773551,41.864669],[-87.773766,41.864599],[-87.774112,41.864556],[-87.782986,41.864445],[-87.804013,41.864073],[-87.80435,41.864083],[-87.804703,41.864158],[-87.805011,41.864308],[-87.805244,41.86452],[-87.805347,41.864686],[-87.805412,41.864955],[-87.805919,41.879098],[-87.805992,41.88206],[-87.806079,41.883521],[-87.806287,41.888989],[-87.806372,41.892088],[-87.806931,41.906998],[-87.806961,41.908873],[-87.806923,41.909132],[-87.806842,41.909295],[-87.806566,41.909572],[-87.806169,41.909751],[-87.805711,41.909807]]]}},{"type":"Feature","properties":{"kind":"fade","step":5,"distance_m":125.7},"geometry":{"type":"Polygon","coordinates":[[[-180,-85],[180,-85],[180,85],[-180,85],[-180,-85]],[[-87.805702,41.910033],[-87.803944,41.910075],[-87.802918,41.910075],[-87.802606,41.91005],[-87.775637,41.910383],[-87.775199,41.910343],[-87.774795,41.910211],[-87.774562,41.910078],[-87.774287,41.90982],[-87.774124,41.909515],[-87.774081,41.909239],[-87.773122,41.879587],[-87.772902,41.873025],[-87.77276,41.870543],[-87.772747,41.86914],[-87.772622,41.865733],[-87.772629,41.86535],[-87.772734,41.865033],[-87.772957,41.864751],[-87.773162,41.864595],[-87.773404,41.864471],[-87.773814,41.864356],[-87.774106,41.86433],[-87.78298,41.86422],[-87.804013,41.863848],[-87.804388,41.863859],[-87.804829,41.863953],[-87.805214,41.86414],[-87.805505,41.864405],[-87.805633,41.864612],[-87.805716,41.864949],[-87.806222,41.879091],[-87.806296,41.882053],[-87.806383,41.883516],[-87.806591,41.888984],[-87.806676,41.892082],[-87.807234,41.906989],[-87.807264,41.908866],[-87.807216,41.909189],[-87.807116,41.909392],[-87.806965,41.909578],[-87.80677,41.909739],[-87.806537,41.909869],[-87.806274,41.909963],[-87.805993,41.910019],[-87.805702,41.910033]]]}},{"type":"Feature","properties":{"kind":"fade","step":6,"distance_m":150.9},"geometry":{"type":"Polygon","coordinates":[[[-180,-85],[180,-85],[180,85],[-180,85],[-180,-85]],[[-87.806806,41.886977],[-87.807537,41.906979],[-87.807568,41.908858],[-87.807546,41.909118],[-87.80739,41.90949],[-87.807209,41.909713],[-87.806974,41.909906],[-87.806541,41.910124],[-87.806042,41.910242],[-87.80404,41.910299],[-87.802918,41.910301],[-87.802587,41.910276],[-87.775644,41.910609],[-87.775291,41.91059],[-87.77495,41.91052],[-87.774634,41.910403],[-87.774354,41.910242],[-87.774121,41.910044],[-87.773944,41.909817],[-87.773829,41.909568],[-87.773778,41.909244],[-87.772819,41.879593],[-87.772599,41.873031],[-87.772456,41.870549],[-87.772444,41.869145],[-87.772319,41.865739],[-87.772327,41.865328],[-87.772395,41.865071],[-87.772528,41.864828],[-87.772721,41.864609],[-87.772967,41.864422],[-87.773257,41.864274],[-87.773749,41.864135],[-87.774099,41.864104],[-87.782974,41.863994],[-87.804013,41.863622],[-87.804425,41.863635],[-87.804784,41.863697],[-87.805119,41.863811],[-87.805416,41.863972],[-87.805664,41.864175],[-87.805852,41.864411],[-87.805971,41.86467],[-87.806019,41.864942],[-87.806526,41.879084],[-87.806599,41.882047],[-87.806686,41.883511],[-87.806806,41.886977]]]}},{"type":"Feature","properties":{"kind":"fade","step":7,"distance_m":176.0},"geometry":{"type":"Polygon","coordinates":[[[-180,-85],[180,-85],[180,85],[-180,85],[-180,-85]],[[-87.80711,41.88697],[-87.80784,41.90697],[-87.807871,41.908851],[-87.807803,41.909302],[-87.807663,41.909588],[-87.807452,41.909848],[-87.807179,41.910073],[-87.806673,41.910327],[-87.80629,41.910433],[-87.805888,41.910482],[-87.803944,41.910527],[-87.802918,41.910527],[-87.802568,41.910503],[-87.775651,41.910835],[-87.77524,41.910812],[-87.774842,41.910731],[-87.774473,41.910594],[-87.774146,41.910407],[-87.773875,41.910176],[-87.773668,41.90991],[-87.773534,41.90962],[-87.773474,41.909249],[-87.772516,41.879599],[-87.772296,41.873037],[-87.772153,41.870556],[-87.772141,41.86915],[-87.772016,41.865744],[-87.772025,41.865306],[-87.772104,41.865006],[-87.772259,41.864723],[-87.772484,41.864468],[-87.772771,41.864249],[-87.773294,41.864008],[-87.773685,41.863914],[-87.774092,41.863878],[-87.782968,41.863768],[-87.804013,41.863396],[-87.804463,41.863411],[-87.804882,41.863483],[-87.805272,41.863616],[-87.805619,41.863804],[-87.805908,41.864041],[-87.806127,41.864316],[-87.806267,41.864619],[-87.806322,41.864936],[-87.806829,41.879078],[-87.806902,41.882041],[-87.806989,41.883506],[-87.80711,41.88697]]]}},{"type":"Feature","properties":{"kind":"fade","step":8,"distance_m":201.2},"geometry":{"type":"Polygon","coordinates":[[[-180,-85],[180,-85],[180,85],[-180,85],[-180,-85]],[[-87.807413,41.886966],[-87.808143,41.90696],[-87.808174,41.908843],[-87.808145,41.909189],[-87.807937,41.909685],[-87.807696,41.909982],[-87.807383,41.91024],[-87.806805,41.910531],[-87.806368,41.910651],[-87.805908,41.910707],[-87.803944,41.910753],[-87.802549,41.91073],[-87.775659,41.911061],[-87.775189,41.911035],[-87.774734,41.910942],[-87.774312,41.910786],[-87.773939,41.910572],[-87.773628,41.910308],[-87.773392,41.910004],[-87.773239,41.909672],[-87.773171,41.909253],[-87.772212,41.879605],[-87.771992,41.873042],[-87.77185,41.870563],[-87.771837,41.869155],[-87.771712,41.86575],[-87.771723,41.865284],[-87.771813,41.864942],[-87.77199,41.864618],[-87.772248,41.864326],[-87.772763,41.86397],[-87.773173,41.863801],[-87.77362,41.863694],[-87.774086,41.863652],[-87.782961,41.863542],[-87.804013,41.86317],[-87.804501,41.863187],[-87.804979,41.863269],[-87.805426,41.863421],[-87.805822,41.863636],[-87.806152,41.863907],[-87.806402,41.864222],[-87.806562,41.864567],[-87.806625,41.86493],[-87.807132,41.879071],[-87.807206,41.882034],[-87.807293,41.8835],[-87.807413,41.886966]]]}},{"type":"Feature","properties":{"kind":"fade","step":9,"distance_m":226.3},"geometry":{"type":"Polygon","coordinates":[[[-180,-85],[180,-85],[180,85],[-180,85],[-180,-85]],[[-87.807716,41.886961],[-87.808446,41.90695],[-87.808477,41.908835],[-87.808474,41.90903],[-87.808391,41.909415],[-87.808211,41.909782],[-87.807941,41.910116],[-87.80759,41.910405],[-87.807171,41.910639],[-87.8067,41.910809],[-87.806194,41.91091],[-87.805934,41.910932],[-87.803944,41.910979],[-87.802531,41.910956],[-87.775666,41.911286],[-87.775137,41.911258],[-87.774626,41.911153],[-87.774151,41.910977],[-87.773731,41.910736],[-87.773382,41.91044],[-87.773116,41.910098],[-87.772943,41.909725],[-87.772868,41.909258],[-87.771909,41.879611],[-87.771689,41.873048],[-87.771546,41.87057],[-87.771534,41.869161],[-87.771409,41.865755],[-87.771421,41.865263],[-87.771523,41.864877],[-87.771722,41.864513],[-87.772011,41.864184],[-87.772381,41.863904],[-87.772815,41.863681],[-87.773052,41.863594],[-87.773555,41.863473],[-87.774079,41.863426],[-87.782955,41.863316],[-87.804026,41.862944],[-87.804538,41.862963],[-87.805077,41.863055],[-87.805579,41.863226],[-87.806025,41.863468],[-87.806396,41.863773],[-87.806678,41.864127],[-87.806858,41.864516],[-87.806929,41.864924],[-87.807436,41.879064],[-87.807509,41.882028],[-87.807596,41.883495],[-87.807716,41.886961]]]}},{"type":"Feature","properties":{"kind":"fade","step":10,"distance_m":251.5},"geometry":{"type":"Polygon","coordinates":[[[-180,-85],[180,-85],[180,85],[-180,85],[-180,-85]],[[-87.80802,41.886957],[-87.808749,41.906941],[-87.808781,41.908828],[-87.808744,41.90926],[-87.808598,41.909679],[-87.808347,41.91007],[-87.808185,41.91025],[-87.807795,41.910572],[-87.807329,41.910832],[-87.807074,41.910936],[-87.806528,41.911087],[-87.805954,41.911158],[-87.803944,41.911205],[-87.802512,41.911183],[-87.775673,41.911512],[-87.775378,41.911507],[-87.774798,41.911433],[-87.774247,41.911276],[-87.773748,41.911043],[-87.773523,41.910901],[-87.773135,41.910571],[-87.77284,41.910192],[-87.772648,41.909777],[-87.772566,41.909304],[-87.771606,41.879617],[-87.771386,41.873053],[-87.771243,41.870577],[-87.77123,41.869166],[-87.771106,41.865761],[-87.771119,41.865241],[-87.771232,41.864812],[-87.771453,41.864408],[-87.771775,41.864043],[-87.772185,41.863731],[-87.772668,41.863483],[-87.773206,41.863309],[-87.773779,41.863216],[-87.774072,41.863201],[-87.782949,41.86309],[-87.804026,41.862718],[-87.804576,41.862739],[-87.805174,41.862841],[-87.805733,41.863031],[-87.806228,41.8633],[-87.806641,41.863639],[-87.806953,41.864032],[-87.807153,41.864464],[-87.807232,41.864917],[-87.807739,41.879058],[-87.807812,41.882022],[-87.807899,41.88349],[-87.80802,41.886957]]]}},{"type":"Feature","properties":{"kind":"fade","step":11,"distance_m":276.6},"geometry":{"type":"Polygon","coordinates":[[[-180,-85],[180,-85],[180,85],[-180,85],[-180,-85]],[[-87.808323,41.886953],[-87.809053,41.906931],[-87.809084,41.90882],[-87.809044,41.909296],[-87.808883,41.909757],[-87.808759,41.909977],[-87.808428,41.910385],[-87.807999,41.910738],[-87.807487,41.911025],[-87.807206,41.911139],[-87.806606,41.911305],[-87.805975,41.911383],[-87.803944,41.911431],[-87.802493,41.911409],[-87.775681,41.911738],[-87.775034,41.911703],[-87.774409,41.911575],[-87.773829,41.91136],[-87.773563,41.911222],[-87.773316,41.911066],[-87.772889,41.910703],[-87.772564,41.910286],[-87.772353,41.909829],[-87.772263,41.909313],[-87.771302,41.879623],[-87.771082,41.873059],[-87.77094,41.870584],[-87.770927,41.869171],[-87.770801,41.865705],[-87.770817,41.865219],[-87.770941,41.864748],[-87.771185,41.864303],[-87.771539,41.863901],[-87.77199,41.863558],[-87.772521,41.863286],[-87.772811,41.863179],[-87.773425,41.863032],[-87.774066,41.862975],[-87.782943,41.862864],[-87.804026,41.862492],[-87.804614,41.862514],[-87.805272,41.862627],[-87.805886,41.862836],[-87.806431,41.863133],[-87.806885,41.863505],[-87.807229,41.863937],[-87.807448,41.864413],[-87.807535,41.864911],[-87.808042,41.879051],[-87.808115,41.882015],[-87.808203,41.883485],[-87.808323,41.886953]]]}},{"type":"Feature","properties":{"kind":"fade","step":12,"distance_m":301.8},"geometry":{"type":"Polygon","coordinates":[[[-180,-85],[180,-85],[180,85],[-180,85],[-180,-85]],[[-87.808627,41.886948],[-87.809356,41.906921],[-87.809387,41.908812],[-87.809344,41.909331],[-87.809272,41.909586],[-87.809032,41.910074],[-87.808672,41.910519],[-87.808204,41.910905],[-87.807646,41.911217],[-87.807017,41.911445],[-87.806684,41.911524],[-87.805995,41.911608],[-87.803944,41.911657],[-87.802474,41.911636],[-87.775688,41.911964],[-87.774983,41.911925],[-87.774637,41.911868],[-87.773977,41.91168],[-87.773378,41.911401],[-87.772862,41.911041],[-87.77245,41.910613],[-87.772287,41.910379],[-87.772058,41.909882],[-87.77196,41.909322],[-87.770999,41.87963],[-87.770779,41.873065],[-87.770637,41.870591],[-87.770624,41.869176],[-87.770498,41.865705],[-87.770515,41.865197],[-87.77065,41.864683],[-87.770916,41.864198],[-87.771302,41.86376],[-87.771794,41.863385],[-87.772374,41.863088],[-87.77269,41.862972],[-87.77336,41.862811],[-87.774059,41.862749],[-87.782936,41.862638],[-87.804026,41.862266],[-87.804652,41.86229],[-87.805369,41.862413],[-87.806039,41.862641],[-87.806634,41.862965],[-87.807129,41.863371],[-87.807504,41.863843],[-87.807744,41.864361],[-87.807839,41.864905],[-87.808346,41.879045],[-87.808419,41.882009],[-87.808506,41.88348],[-87.808627,41.886948]]]}},{"type":"Feature","properties":{"kind":"fade","step":13,"distance_m":326.9},"geometry":{"type":"Polygon","coordinates":[[[-180,-85],[180,-85],[180,85],[-180,85],[-180,-85]],[[-87.80893,41.88694],[-87.809659,41.906912],[-87.809685,41.909087],[-87.809566,41.909643],[-87.809306,41.910172],[-87.808916,41.910654],[-87.808409,41.911072],[-87.807804,41.91141],[-87.807123,41.911656],[-87.806762,41.911742],[-87.806016,41.911834],[-87.803944,41.911883],[-87.802466,41.911862],[-87.775695,41.91219],[-87.774931,41.912148],[-87.774193,41.911997],[-87.773842,41.911883],[-87.773192,41.91158],[-87.772634,41.91119],[-87.772187,41.910727],[-87.772011,41.910473],[-87.771763,41.909934],[-87.771656,41.909331],[-87.770696,41.879636],[-87.770476,41.87307],[-87.770333,41.870598],[-87.77032,41.869181],[-87.770194,41.865705],[-87.770213,41.865175],[-87.77036,41.864618],[-87.770648,41.864093],[-87.771066,41.863618],[-87.771599,41.863212],[-87.772227,41.86289],[-87.772927,41.862665],[-87.773295,41.86259],[-87.774052,41.862523],[-87.78293,41.862412],[-87.804026,41.86204],[-87.804689,41.862066],[-87.805467,41.862199],[-87.806193,41.862446],[-87.806837,41.862797],[-87.807373,41.863237],[-87.807779,41.863748],[-87.808039,41.864309],[-87.808142,41.864898],[-87.808649,41.879038],[-87.808722,41.882003],[-87.80881,41.883475],[-87.80893,41.88694]]]}},{"type":"Feature","properties":{"kind":"fade","step":14,"distance_m":352.0},"geometry":{"type":"Polygon","coordinates":[[[-180,-85],[180,-85],[180,85],[-180,85],[-180,-85]],[[-87.809233,41.886935],[-87.809962,41.906902],[-87.809988,41.909101],[-87.809859,41.9097],[-87.80958,41.910269],[-87.809159,41.910789],[-87.808613,41.911239],[-87.807962,41.911603],[-87.807229,41.911868],[-87.80684,41.91196],[-87.806037,41.912059],[-87.803944,41.912108],[-87.802468,41.912088],[-87.775702,41.912416],[-87.77488,41.912371],[-87.774477,41.912304],[-87.773706,41.912085],[-87.773007,41.911759],[-87.772693,41.91156],[-87.772149,41.911098],[-87.771735,41.910567],[-87.771467,41.909986],[-87.771353,41.90934],[-87.770393,41.879642],[-87.770172,41.873076],[-87.77003,41.870605],[-87.770017,41.869186],[-87.769891,41.865705],[-87.769911,41.865153],[-87.770069,41.864553],[-87.770379,41.863987],[-87.770829,41.863476],[-87.771404,41.863039],[-87.77208,41.862693],[-87.772833,41.86245],[-87.773635,41.862319],[-87.774045,41.862297],[-87.782924,41.862187],[-87.804125,41.861815],[-87.804727,41.861842],[-87.805564,41.861985],[-87.806346,41.862251],[-87.80704,41.862629],[-87.807617,41.863102],[-87.808055,41.863653],[-87.808335,41.864258],[-87.808445,41.864892],[-87.808952,41.879031],[-87.809025,41.881997],[-87.809113,41.88347],[-87.809233,41.886935]]]}},{"type":"Feature","properties":{"kind":"fade","step":15,"distance_m":377.2},"geometry":{"type":"Polygon","coordinates":[[[-180,-85],[180,-85],[180,85],[-180,85],[-180,-85]],[[-87.809043,41.873202],[-87.809329,41.88199],[-87.809416,41.883465],[-87.809624,41.88893],[-87.809709,41.892021],[-87.810265,41.906892],[-87.810297,41.908789],[-87.810291,41.909115],[-87.810153,41.909756],[-87.809853,41.910367],[-87.809403,41.910923],[-87.808818,41.911406],[-87.808481,41.911613],[-87.807736,41.911952],[-87.806918,41.912178],[-87.806057,41.912285],[-87.803944,41.912334],[-87.802471,41.912314],[-87.77571,41.912641],[-87.775268,41.912633],[-87.774397,41.912522],[-87.773571,41.912287],[-87.773185,41.912126],[-87.772822,41.911938],[-87.772178,41.911488],[-87.771662,41.910953],[-87.771295,41.910355],[-87.771172,41.910038],[-87.771052,41.909387],[-87.770089,41.879648],[-87.769869,41.873082],[-87.769727,41.870612],[-87.769714,41.869192],[-87.769588,41.865705],[-87.769609,41.865132],[-87.769778,41.864489],[-87.769925,41.86418],[-87.770334,41.8636],[-87.770885,41.86309],[-87.771559,41.862668],[-87.771933,41.862495],[-87.772328,41.86235],[-87.773165,41.862149],[-87.774039,41.862071],[-87.782918,41.861961],[-87.802975,41.861596],[-87.804132,41.86159],[-87.804765,41.861618],[-87.805662,41.861771],[-87.806499,41.862056],[-87.806885,41.862244],[-87.807569,41.862703],[-87.807861,41.862968],[-87.80833,41.863558],[-87.80863,41.864206],[-87.808749,41.864886],[-87.809043,41.873202]]]}},{"type":"Feature","properties":{"kind":"fade","step":16,"distance_m":402.3},"geometry":{"type":"Polygon","coordinates":[[[-180,-85],[180,-85],[180,85],[-180,85],[-180,-85]],[[-87.809564,41.879244],[-87.809632,41.881984],[-87.80972,41.88346],[-87.809927,41.888924],[-87.810012,41.892015],[-87.810568,41.906883],[-87.8106,41.908782],[-87.810542,41.909474],[-87.810308,41.910144],[-87.809906,41.91077],[-87.809351,41.911326],[-87.808664,41.911794],[-87.808278,41.911989],[-87.807441,41.912291],[-87.806541,41.91247],[-87.806078,41.91251],[-87.804199,41.912555],[-87.802473,41.91254],[-87.775717,41.912867],[-87.774777,41.912816],[-87.774316,41.91274],[-87.773436,41.912489],[-87.772637,41.912117],[-87.772277,41.911889],[-87.771656,41.911362],[-87.771183,41.910754],[-87.770877,41.910091],[-87.77079,41.909745],[-87.770747,41.909358],[-87.769786,41.879654],[-87.769565,41.873087],[-87.769423,41.870619],[-87.76941,41.869197],[-87.769284,41.865705],[-87.769307,41.86511],[-87.769487,41.864424],[-87.769842,41.863777],[-87.770357,41.863193],[-87.770669,41.862932],[-87.771387,41.862482],[-87.772207,41.862143],[-87.7731,41.861928],[-87.774032,41.861846],[-87.782912,41.861735],[-87.804026,41.861363],[-87.804802,41.861394],[-87.805287,41.861458],[-87.805759,41.861558],[-87.806216,41.861693],[-87.806653,41.861861],[-87.807064,41.862062],[-87.807446,41.862293],[-87.807794,41.862551],[-87.808106,41.862834],[-87.808377,41.863139],[-87.808606,41.863463],[-87.808789,41.863803],[-87.808926,41.864155],[-87.809013,41.864515],[-87.809123,41.866751],[-87.809564,41.879244]]]}}]}